{
"type": "FeatureCollection",
"name": "mazatlán",
"crs": { "type": "name", "properties": { "name": "urn:ogc:def:crs:OGC:1.3:CRS84" } },
"features": [
{ "type": "Feature", "properties": { "city": "Mazatlán", "route_name": "Nuevo_Milenio Ayuntamiento de Mazatlán - Puerta del Sol", "route_name_short": "Milenio Ayuntamiento de Mazatlán - Puerta del Sol", "type": "Bus", "shape_id": "shape_3768" }, "geometry": { "type": "LineString", "coordinates": [ [ -106.42431, 23.20095 ], [ -106.42429, 23.19953 ], [ -106.42146, 23.20007 ], [ -106.42159, 23.20137 ], [ -106.42165, 23.20253 ], [ -106.42191, 23.20398 ], [ -106.42209, 23.20439 ], [ -106.42243, 23.20579 ], [ -106.42032, 23.20617 ], [ -106.41957, 23.20721 ], [ -106.4184, 23.20882 ], [ -106.41798, 23.20915 ], [ -106.41747, 23.20941 ], [ -106.41723, 23.20961 ], [ -106.41709, 23.20995 ], [ -106.41664, 23.21113 ], [ -106.41642, 23.21187 ], [ -106.41591, 23.21405 ], [ -106.41585, 23.21455 ], [ -106.41586, 23.21489 ], [ -106.41641, 23.21634 ], [ -106.41732, 23.21836 ], [ -106.41904, 23.2221 ], [ -106.42127, 23.22703 ], [ -106.42206, 23.22888 ], [ -106.42222, 23.22948 ], [ -106.42256, 23.23135 ], [ -106.42322, 23.23436 ], [ -106.42342, 23.23531 ], [ -106.42338, 23.23579 ], [ -106.4232, 23.23677 ], [ -106.42303, 23.2377 ], [ -106.42239, 23.24065 ], [ -106.42158, 23.24394 ], [ -106.42046, 23.24887 ], [ -106.42, 23.2509 ], [ -106.41939, 23.2535 ], [ -106.41921, 23.25365 ], [ -106.41894, 23.25365 ], [ -106.41839, 23.25307 ], [ -106.41464, 23.24944 ], [ -106.41416, 23.25002 ], [ -106.41346, 23.25045 ], [ -106.41274, 23.25088 ], [ -106.41212, 23.25145 ], [ -106.40921, 23.25395 ], [ -106.40769, 23.25518 ], [ -106.40622, 23.25635 ], [ -106.40588, 23.25633 ], [ -106.40481, 23.25537 ], [ -106.40303, 23.25367 ], [ -106.40119, 23.25534 ], [ -106.40037, 23.2561 ], [ -106.40131, 23.25681 ], [ -106.40131, 23.25699 ], [ -106.40126, 23.25725 ], [ -106.40135, 23.25774 ], [ -106.40173, 23.25963 ], [ -106.40211, 23.26151 ], [ -106.40231, 23.26177 ], [ -106.40248, 23.26205 ], [ -106.40347, 23.26147 ], [ -106.40353, 23.26167 ], [ -106.40372, 23.26192 ], [ -106.40284, 23.26295 ], [ -106.40043, 23.26584 ], [ -106.39749, 23.2693 ], [ -106.3972, 23.26971 ], [ -106.39721, 23.26984 ], [ -106.39742, 23.27006 ], [ -106.39876, 23.27137 ], [ -106.40105, 23.27358 ], [ -106.39994, 23.27475 ], [ -106.39989, 23.27465 ], [ -106.39979, 23.27456 ], [ -106.39952, 23.27452 ], [ -106.39925, 23.27269 ], [ -106.39893, 23.27239 ], [ -106.39745, 23.27261 ], [ -106.39709, 23.27268 ], [ -106.39709, 23.27409 ], [ -106.39711, 23.27519 ], [ -106.39727, 23.27558 ], [ -106.39848, 23.27537 ], [ -106.39863, 23.27553 ], [ -106.39905, 23.2758 ], [ -106.39714, 23.27789 ], [ -106.39537, 23.27989 ], [ -106.39528, 23.28009 ], [ -106.39505, 23.28031 ], [ -106.3947, 23.28087 ], [ -106.39473, 23.28091 ], [ -106.39506, 23.28038 ], [ -106.39539, 23.28002 ], [ -106.39567, 23.27983 ], [ -106.39699, 23.2783 ], [ -106.39918, 23.27586 ], [ -106.39872, 23.27553 ], [ -106.3985, 23.2753 ], [ -106.39731, 23.27553 ], [ -106.39716, 23.27517 ], [ -106.39715, 23.27427 ], [ -106.39713, 23.27359 ], [ -106.39714, 23.27292 ], [ -106.39717, 23.27269 ], [ -106.39893, 23.27245 ], [ -106.3992, 23.27271 ], [ -106.39938, 23.2739 ], [ -106.39949, 23.27459 ], [ -106.39973, 23.27459 ], [ -106.39984, 23.27464 ], [ -106.39991, 23.27482 ], [ -106.40007, 23.27488 ], [ -106.40127, 23.27351 ], [ -106.3997, 23.27202 ], [ -106.39732, 23.26984 ], [ -106.39733, 23.26974 ], [ -106.39929, 23.2674 ], [ -106.40116, 23.26517 ], [ -106.40146, 23.26491 ], [ -106.40338, 23.26258 ], [ -106.40388, 23.26198 ], [ -106.40431, 23.26139 ], [ -106.40412, 23.26136 ], [ -106.40378, 23.26188 ], [ -106.4037, 23.26181 ], [ -106.40356, 23.26158 ], [ -106.40348, 23.26138 ], [ -106.40336, 23.2607 ], [ -106.40295, 23.25881 ], [ -106.40286, 23.25868 ], [ -106.40137, 23.25756 ], [ -106.40132, 23.25732 ], [ -106.40133, 23.25705 ], [ -106.40139, 23.25681 ], [ -106.40107, 23.25657 ], [ -106.40055, 23.25615 ], [ -106.40307, 23.25386 ], [ -106.40463, 23.25532 ], [ -106.40606, 23.25668 ], [ -106.40785, 23.25518 ], [ -106.4115, 23.25217 ], [ -106.41253, 23.25125 ], [ -106.41284, 23.25098 ], [ -106.41328, 23.25067 ], [ -106.41429, 23.25006 ], [ -106.41465, 23.24957 ], [ -106.41551, 23.25042 ], [ -106.41809, 23.2529 ], [ -106.41876, 23.2536 ], [ -106.41894, 23.25375 ], [ -106.41929, 23.25384 ], [ -106.41948, 23.25386 ], [ -106.42025, 23.25047 ], [ -106.42079, 23.24813 ], [ -106.42172, 23.24388 ], [ -106.42248, 23.24054 ], [ -106.42316, 23.23749 ], [ -106.42347, 23.2363 ], [ -106.42355, 23.23561 ], [ -106.4235, 23.23484 ], [ -106.42332, 23.23402 ], [ -106.42266, 23.23095 ], [ -106.42219, 23.22861 ], [ -106.42167, 23.22749 ], [ -106.42045, 23.22476 ], [ -106.41874, 23.2211 ], [ -106.41714, 23.21751 ], [ -106.41614, 23.21546 ], [ -106.41595, 23.21484 ], [ -106.41596, 23.21444 ], [ -106.41606, 23.21378 ], [ -106.41673, 23.21111 ], [ -106.41729, 23.20979 ], [ -106.41742, 23.20954 ], [ -106.41777, 23.20937 ], [ -106.41811, 23.20921 ], [ -106.41851, 23.20882 ], [ -106.41943, 23.20758 ], [ -106.42037, 23.2063 ], [ -106.42109, 23.20532 ], [ -106.42302, 23.20493 ], [ -106.42442, 23.20465 ], [ -106.42439, 23.20208 ], [ -106.42431, 23.20095 ] ] } },
{ "type": "Feature", "properties": { "city": "Mazatlán", "route_name": "Parque_Bonfil Mercado Municipal Pino Suarez - Parque Industrial Alfredo Bonfil", "route_name_short": "Bonfil Mercado Municipal Pino Suarez - Parque Industrial Alfredo Bonfil", "type": "Bus", "shape_id": "shape_3767" }, "geometry": { "type": "LineString", "coordinates": [ [ -106.42105, 23.2052 ], [ -106.4207, 23.2027 ], [ -106.4198, 23.20283 ], [ -106.4202, 23.20471 ], [ -106.42046, 23.206 ], [ -106.41955, 23.20722 ], [ -106.41842, 23.20876 ], [ -106.41816, 23.20901 ], [ -106.41792, 23.20917 ], [ -106.41751, 23.20938 ], [ -106.41726, 23.20958 ], [ -106.41713, 23.20986 ], [ -106.41662, 23.21115 ], [ -106.41638, 23.21207 ], [ -106.41607, 23.2134 ], [ -106.41586, 23.21436 ], [ -106.41588, 23.21485 ], [ -106.41602, 23.21537 ], [ -106.41654, 23.21669 ], [ -106.41794, 23.21975 ], [ -106.41959, 23.22332 ], [ -106.42162, 23.22772 ], [ -106.42208, 23.22905 ], [ -106.42232, 23.23007 ], [ -106.42251, 23.23098 ], [ -106.42306, 23.23375 ], [ -106.42334, 23.2349 ], [ -106.42326, 23.23511 ], [ -106.42299, 23.2354 ], [ -106.42267, 23.23541 ], [ -106.42206, 23.23548 ], [ -106.42113, 23.2355 ], [ -106.42032, 23.23549 ], [ -106.41979, 23.2354 ], [ -106.41905, 23.23523 ], [ -106.41694, 23.23475 ], [ -106.41497, 23.23431 ], [ -106.41472, 23.23418 ], [ -106.41417, 23.23393 ], [ -106.41377, 23.23381 ], [ -106.41291, 23.23381 ], [ -106.41276, 23.23374 ], [ -106.4131, 23.23239 ], [ -106.40579, 23.23082 ], [ -106.40521, 23.23071 ], [ -106.40454, 23.23047 ], [ -106.40532, 23.22908 ], [ -106.4048, 23.22873 ], [ -106.40379, 23.2279 ], [ -106.40045, 23.22518 ], [ -106.40111, 23.22379 ], [ -106.40175, 23.22246 ], [ -106.40271, 23.22048 ], [ -106.40297, 23.21979 ], [ -106.4034, 23.2185 ], [ -106.40365, 23.21793 ], [ -106.40438, 23.21668 ], [ -106.40366, 23.21637 ], [ -106.4033, 23.21632 ], [ -106.4028, 23.2161 ], [ -106.40193, 23.21569 ], [ -106.40277, 23.21411 ], [ -106.40192, 23.21371 ], [ -106.40092, 23.21328 ], [ -106.40061, 23.21318 ], [ -106.40021, 23.21316 ], [ -106.39877, 23.21339 ], [ -106.39711, 23.21362 ], [ -106.39731, 23.21503 ], [ -106.39735, 23.21537 ], [ -106.39542, 23.21562 ], [ -106.3945, 23.21575 ], [ -106.39436, 23.21588 ], [ -106.39429, 23.21616 ], [ -106.39402, 23.21844 ], [ -106.39524, 23.21859 ], [ -106.39525, 23.21852 ], [ -106.39407, 23.21841 ], [ -106.39426, 23.21685 ], [ -106.39435, 23.21609 ], [ -106.39443, 23.21586 ], [ -106.39456, 23.2158 ], [ -106.39595, 23.21558 ], [ -106.39743, 23.21538 ], [ -106.39718, 23.21363 ], [ -106.39974, 23.21329 ], [ -106.40023, 23.21322 ], [ -106.40064, 23.21324 ], [ -106.40105, 23.21336 ], [ -106.4027, 23.21412 ], [ -106.40187, 23.21572 ], [ -106.40299, 23.21624 ], [ -106.40333, 23.21638 ], [ -106.40347, 23.21654 ], [ -106.4039, 23.21675 ], [ -106.40417, 23.21687 ], [ -106.40355, 23.21793 ], [ -106.40332, 23.21836 ], [ -106.40292, 23.21952 ], [ -106.40273, 23.22008 ], [ -106.40229, 23.22109 ], [ -106.40185, 23.22204 ], [ -106.40034, 23.22519 ], [ -106.40311, 23.2274 ], [ -106.40486, 23.22883 ], [ -106.40526, 23.2291 ], [ -106.40464, 23.23014 ], [ -106.40374, 23.23182 ], [ -106.40433, 23.23207 ], [ -106.40492, 23.23223 ], [ -106.40739, 23.23276 ], [ -106.41005, 23.23335 ], [ -106.41427, 23.2343 ], [ -106.41809, 23.23514 ], [ -106.42022, 23.2356 ], [ -106.42084, 23.23568 ], [ -106.42162, 23.23563 ], [ -106.42319, 23.2355 ], [ -106.42356, 23.23549 ], [ -106.42348, 23.23479 ], [ -106.4233, 23.23392 ], [ -106.42265, 23.23076 ], [ -106.42214, 23.2285 ], [ -106.42158, 23.2273 ], [ -106.4203, 23.22446 ], [ -106.41867, 23.2209 ], [ -106.41617, 23.21552 ], [ -106.41598, 23.21497 ], [ -106.41593, 23.21451 ], [ -106.41599, 23.21404 ], [ -106.41613, 23.21347 ], [ -106.41676, 23.21108 ], [ -106.41722, 23.20997 ], [ -106.42096, 23.21138 ], [ -106.42165, 23.20967 ], [ -106.42152, 23.20906 ], [ -106.42137, 23.20787 ], [ -106.42105, 23.20521 ] ] } },
{ "type": "Feature", "properties": { "city": "Mazatlán", "route_name": "Pradera_Directo Mercado Municipal Pino Suarez - ITMAZ Unidad II", "route_name_short": "Directo Mercado Municipal Pino Suarez - ITMAZ Unidad II", "type": "Bus", "shape_id": "shape_3766" }, "geometry": { "type": "LineString", "coordinates": [ [ -106.41806, 23.20108 ], [ -106.41937, 23.20083 ], [ -106.41961, 23.20199 ], [ -106.4206, 23.20188 ], [ -106.4203, 23.20025 ], [ -106.41746, 23.2008 ], [ -106.41524, 23.20119 ], [ -106.4153, 23.20153 ], [ -106.4129, 23.20196 ], [ -106.41255, 23.20201 ], [ -106.41186, 23.20366 ], [ -106.41087, 23.20591 ], [ -106.40947, 23.20911 ], [ -106.40912, 23.20978 ], [ -106.40831, 23.21093 ], [ -106.40636, 23.21364 ], [ -106.40444, 23.21633 ], [ -106.40348, 23.21807 ], [ -106.40301, 23.21926 ], [ -106.40258, 23.22049 ], [ -106.40204, 23.22165 ], [ -106.401, 23.22379 ], [ -106.39999, 23.22585 ], [ -106.39944, 23.22657 ], [ -106.3979, 23.22852 ], [ -106.39572, 23.23124 ], [ -106.39367, 23.23375 ], [ -106.39325, 23.23394 ], [ -106.39289, 23.23398 ], [ -106.39265, 23.23392 ], [ -106.39242, 23.23381 ], [ -106.39219, 23.23364 ], [ -106.3913, 23.23279 ], [ -106.39004, 23.23163 ], [ -106.38967, 23.23151 ], [ -106.38942, 23.23152 ], [ -106.3896, 23.23298 ], [ -106.38978, 23.23549 ], [ -106.39001, 23.23904 ], [ -106.39016, 23.24145 ], [ -106.3903, 23.24192 ], [ -106.39026, 23.24222 ], [ -106.39019, 23.24244 ], [ -106.38902, 23.24415 ], [ -106.38785, 23.24605 ], [ -106.38647, 23.24833 ], [ -106.38497, 23.25078 ], [ -106.38339, 23.25358 ], [ -106.38194, 23.25643 ], [ -106.38048, 23.2592 ], [ -106.37884, 23.26225 ], [ -106.37831, 23.26328 ], [ -106.37806, 23.26367 ], [ -106.37764, 23.26431 ], [ -106.37729, 23.26463 ], [ -106.37684, 23.26488 ], [ -106.37639, 23.26513 ], [ -106.37615, 23.2653 ], [ -106.37578, 23.26583 ], [ -106.37521, 23.26663 ], [ -106.37485, 23.26718 ], [ -106.37444, 23.26758 ], [ -106.37407, 23.26771 ], [ -106.37398, 23.26858 ], [ -106.37386, 23.26933 ], [ -106.37537, 23.27024 ], [ -106.37586, 23.27048 ], [ -106.37617, 23.27044 ], [ -106.37776, 23.27011 ], [ -106.37804, 23.27139 ], [ -106.37807, 23.27186 ], [ -106.37792, 23.2726 ], [ -106.37788, 23.27301 ], [ -106.378, 23.2735 ], [ -106.37819, 23.27414 ], [ -106.37821, 23.2745 ], [ -106.3761, 23.27304 ], [ -106.3752, 23.27241 ], [ -106.37452, 23.27292 ], [ -106.37367, 23.27362 ], [ -106.37278, 23.27436 ], [ -106.37184, 23.27539 ], [ -106.37121, 23.27611 ], [ -106.37005, 23.27436 ], [ -106.36975, 23.27385 ], [ -106.36936, 23.27365 ], [ -106.36854, 23.27335 ], [ -106.36834, 23.27342 ], [ -106.36804, 23.27372 ], [ -106.36813, 23.27376 ], [ -106.36835, 23.27359 ], [ -106.36859, 23.27353 ], [ -106.36906, 23.27369 ], [ -106.36963, 23.27394 ], [ -106.36996, 23.27443 ], [ -106.37118, 23.27635 ], [ -106.37251, 23.27487 ], [ -106.37329, 23.27418 ], [ -106.37521, 23.27257 ], [ -106.37841, 23.27484 ], [ -106.37843, 23.27435 ], [ -106.37832, 23.2738 ], [ -106.37813, 23.27312 ], [ -106.37813, 23.27281 ], [ -106.3782, 23.27248 ], [ -106.37832, 23.27181 ], [ -106.37827, 23.27135 ], [ -106.37797, 23.27003 ], [ -106.37597, 23.27042 ], [ -106.3758, 23.27043 ], [ -106.37512, 23.27004 ], [ -106.37391, 23.26929 ], [ -106.37414, 23.26774 ], [ -106.37442, 23.26766 ], [ -106.37469, 23.26744 ], [ -106.37499, 23.26705 ], [ -106.37589, 23.26576 ], [ -106.37624, 23.26528 ], [ -106.37661, 23.26507 ], [ -106.37725, 23.26474 ], [ -106.3776, 23.26442 ], [ -106.378, 23.26387 ], [ -106.3784, 23.26329 ], [ -106.38033, 23.25972 ], [ -106.3823, 23.25595 ], [ -106.38457, 23.25171 ], [ -106.38609, 23.24911 ], [ -106.38825, 23.24552 ], [ -106.39046, 23.24225 ], [ -106.39056, 23.2418 ], [ -106.39038, 23.24125 ], [ -106.39032, 23.24062 ], [ -106.39016, 23.23898 ], [ -106.39007, 23.23798 ], [ -106.38981, 23.23427 ], [ -106.38967, 23.23197 ], [ -106.38997, 23.23184 ], [ -106.3902, 23.23192 ], [ -106.39183, 23.23342 ], [ -106.39232, 23.23385 ], [ -106.39266, 23.23401 ], [ -106.39303, 23.23409 ], [ -106.39352, 23.23395 ], [ -106.39372, 23.23383 ], [ -106.39412, 23.23339 ], [ -106.39646, 23.23042 ], [ -106.39789, 23.22873 ], [ -106.39834, 23.22839 ], [ -106.39911, 23.22715 ], [ -106.40014, 23.22581 ], [ -106.40036, 23.22536 ], [ -106.40114, 23.22372 ], [ -106.40249, 23.22092 ], [ -106.403, 23.21975 ], [ -106.40339, 23.21848 ], [ -106.40364, 23.21792 ], [ -106.40411, 23.21718 ], [ -106.40467, 23.2163 ], [ -106.40649, 23.21368 ], [ -106.40895, 23.21027 ], [ -106.41098, 23.20742 ], [ -106.41148, 23.20673 ], [ -106.4136, 23.20376 ], [ -106.4136, 23.20265 ], [ -106.4135, 23.2019 ], [ -106.4161, 23.20142 ], [ -106.41806, 23.20108 ] ] } },
{ "type": "Feature", "properties": { "city": "Mazatlán", "route_name": "Sirena_SHCP - El Castillo", "route_name_short": "SHCP - El Castillo", "type": "Bus", "shape_id": "shape_3764" }, "geometry": { "type": "LineString", "coordinates": [ [ -106.41974, 23.19669 ], [ -106.41981, 23.19662 ], [ -106.41992, 23.19653 ], [ -106.42301, 23.19514 ], [ -106.42512, 23.19422 ], [ -106.42532, 23.19471 ], [ -106.42437, 23.19487 ], [ -106.42322, 23.19507 ], [ -106.42281, 23.19516 ], [ -106.42074, 23.19605 ], [ -106.42121, 23.19818 ], [ -106.42133, 23.19903 ], [ -106.42148, 23.20017 ], [ -106.42164, 23.20201 ], [ -106.42174, 23.20311 ], [ -106.42192, 23.20398 ], [ -106.42202, 23.20414 ], [ -106.42244, 23.20587 ], [ -106.42285, 23.20751 ], [ -106.419, 23.20831 ], [ -106.41887, 23.20817 ], [ -106.4184, 23.2088 ], [ -106.4181, 23.20905 ], [ -106.41793, 23.20917 ], [ -106.41754, 23.20937 ], [ -106.41729, 23.20955 ], [ -106.41709, 23.21001 ], [ -106.41663, 23.2111 ], [ -106.41634, 23.2123 ], [ -106.416, 23.21374 ], [ -106.41587, 23.21432 ], [ -106.41589, 23.21488 ], [ -106.41605, 23.21552 ], [ -106.417, 23.21764 ], [ -106.41824, 23.22042 ], [ -106.41885, 23.22174 ], [ -106.41945, 23.22298 ], [ -106.42091, 23.22622 ], [ -106.42171, 23.22795 ], [ -106.42208, 23.22893 ], [ -106.4223, 23.22989 ], [ -106.42257, 23.23131 ], [ -106.4229, 23.23302 ], [ -106.42326, 23.23449 ], [ -106.4234, 23.23512 ], [ -106.42342, 23.23572 ], [ -106.42335, 23.23634 ], [ -106.42319, 23.23701 ], [ -106.42262, 23.23947 ], [ -106.42184, 23.24293 ], [ -106.4211, 23.24622 ], [ -106.42029, 23.24975 ], [ -106.4196, 23.25278 ], [ -106.41943, 23.25348 ], [ -106.41924, 23.25441 ], [ -106.41895, 23.25525 ], [ -106.41878, 23.25574 ], [ -106.41863, 23.25655 ], [ -106.41826, 23.25826 ], [ -106.41787, 23.26007 ], [ -106.41749, 23.26166 ], [ -106.41731, 23.26238 ], [ -106.41687, 23.26392 ], [ -106.41653, 23.2654 ], [ -106.41645, 23.26569 ], [ -106.41623, 23.26576 ], [ -106.4161, 23.26578 ], [ -106.41489, 23.26469 ], [ -106.41163, 23.2617 ], [ -106.40853, 23.25883 ], [ -106.40595, 23.25642 ], [ -106.40386, 23.25443 ], [ -106.40154, 23.25237 ], [ -106.40018, 23.25119 ], [ -106.39919, 23.2502 ], [ -106.39715, 23.24825 ], [ -106.39465, 23.24592 ], [ -106.39213, 23.24361 ], [ -106.39095, 23.24239 ], [ -106.39054, 23.24193 ], [ -106.39038, 23.24135 ], [ -106.39032, 23.24048 ], [ -106.39023, 23.23913 ], [ -106.39015, 23.23893 ], [ -106.39005, 23.23746 ], [ -106.38982, 23.23427 ], [ -106.38963, 23.23169 ], [ -106.38948, 23.23128 ], [ -106.38926, 23.23093 ], [ -106.3887, 23.23037 ], [ -106.38705, 23.22887 ], [ -106.3841, 23.22606 ], [ -106.38084, 23.22299 ], [ -106.3794, 23.2216 ], [ -106.37802, 23.22031 ], [ -106.37574, 23.21821 ], [ -106.37367, 23.2163 ], [ -106.37192, 23.21467 ], [ -106.37098, 23.21377 ], [ -106.3691, 23.212 ], [ -106.36741, 23.21044 ], [ -106.36592, 23.20904 ], [ -106.3649, 23.20812 ], [ -106.36442, 23.20763 ], [ -106.36409, 23.20716 ], [ -106.36369, 23.20637 ], [ -106.36283, 23.20476 ], [ -106.36178, 23.20274 ], [ -106.36076, 23.20085 ], [ -106.36001, 23.19939 ], [ -106.3597, 23.19894 ], [ -106.35929, 23.19845 ], [ -106.35886, 23.19802 ], [ -106.3584, 23.19772 ], [ -106.35792, 23.19742 ], [ -106.3573, 23.19714 ], [ -106.35652, 23.19686 ], [ -106.35604, 23.19673 ], [ -106.3549, 23.19668 ], [ -106.35223, 23.19656 ], [ -106.34787, 23.19644 ], [ -106.34485, 23.19632 ], [ -106.34052, 23.19615 ], [ -106.33913, 23.19608 ], [ -106.3366, 23.19595 ], [ -106.33377, 23.19586 ], [ -106.3295, 23.19573 ], [ -106.32496, 23.19558 ], [ -106.32066, 23.19541 ], [ -106.3176, 23.19525 ], [ -106.31758, 23.19563 ], [ -106.31752, 23.19587 ], [ -106.31736, 23.19594 ], [ -106.31696, 23.19594 ], [ -106.31652, 23.19592 ], [ -106.31652, 23.19536 ], [ -106.31977, 23.1955 ], [ -106.32425, 23.19562 ], [ -106.32798, 23.19578 ], [ -106.33257, 23.19595 ], [ -106.33664, 23.19611 ], [ -106.34061, 23.19625 ], [ -106.34472, 23.1964 ], [ -106.34856, 23.19654 ], [ -106.35322, 23.19676 ], [ -106.35578, 23.19684 ], [ -106.35653, 23.19698 ], [ -106.35739, 23.19725 ], [ -106.35797, 23.19753 ], [ -106.35863, 23.19795 ], [ -106.35911, 23.19838 ], [ -106.35961, 23.19896 ], [ -106.36003, 23.19954 ], [ -106.36112, 23.20167 ], [ -106.36215, 23.20375 ], [ -106.36373, 23.2068 ], [ -106.36412, 23.20738 ], [ -106.36453, 23.20784 ], [ -106.36522, 23.20848 ], [ -106.36759, 23.2107 ], [ -106.37081, 23.21374 ], [ -106.37381, 23.21652 ], [ -106.37631, 23.21892 ], [ -106.37872, 23.22121 ], [ -106.38072, 23.22303 ], [ -106.38174, 23.22395 ], [ -106.3842, 23.22625 ], [ -106.38736, 23.22922 ], [ -106.38895, 23.23079 ], [ -106.38923, 23.23108 ], [ -106.38938, 23.23143 ], [ -106.38947, 23.23175 ], [ -106.3897, 23.23409 ], [ -106.38993, 23.23754 ], [ -106.39003, 23.23895 ], [ -106.38998, 23.23905 ], [ -106.3901, 23.24096 ], [ -106.3902, 23.24159 ], [ -106.39032, 23.24203 ], [ -106.39081, 23.24257 ], [ -106.39267, 23.24432 ], [ -106.39619, 23.24749 ], [ -106.39941, 23.2505 ], [ -106.4003, 23.25144 ], [ -106.40179, 23.25266 ], [ -106.40442, 23.25516 ], [ -106.40676, 23.25731 ], [ -106.40931, 23.25965 ], [ -106.41229, 23.26247 ], [ -106.41496, 23.26496 ], [ -106.41561, 23.26552 ], [ -106.41606, 23.26587 ], [ -106.41629, 23.26592 ], [ -106.41656, 23.26574 ], [ -106.41669, 23.26535 ], [ -106.41691, 23.26436 ], [ -106.41715, 23.26389 ], [ -106.41728, 23.2635 ], [ -106.41771, 23.26139 ], [ -106.41802, 23.25977 ], [ -106.41852, 23.2578 ], [ -106.41904, 23.25561 ], [ -106.41942, 23.25413 ], [ -106.41996, 23.25161 ], [ -106.42062, 23.24884 ], [ -106.42127, 23.24599 ], [ -106.42202, 23.24271 ], [ -106.42272, 23.23951 ], [ -106.42329, 23.23697 ], [ -106.42348, 23.23621 ], [ -106.42357, 23.2355 ], [ -106.42352, 23.23492 ], [ -106.4232, 23.2333 ], [ -106.42248, 23.22992 ], [ -106.42216, 23.2286 ], [ -106.42184, 23.22772 ], [ -106.42129, 23.22666 ], [ -106.42067, 23.22522 ], [ -106.41971, 23.22316 ], [ -106.41897, 23.22158 ], [ -106.41838, 23.22018 ], [ -106.41714, 23.21755 ], [ -106.41618, 23.21552 ], [ -106.41603, 23.2151 ], [ -106.41596, 23.21469 ], [ -106.41596, 23.21424 ], [ -106.41604, 23.21387 ], [ -106.41661, 23.21166 ], [ -106.41684, 23.2109 ], [ -106.41731, 23.2097 ], [ -106.41759, 23.20945 ], [ -106.41809, 23.20917 ], [ -106.41845, 23.20892 ], [ -106.41889, 23.20827 ], [ -106.41977, 23.20708 ], [ -106.4195, 23.20563 ], [ -106.41916, 23.20488 ], [ -106.41902, 23.20445 ], [ -106.41869, 23.20285 ], [ -106.4184, 23.2013 ], [ -106.41806, 23.19982 ], [ -106.41781, 23.19813 ], [ -106.41762, 23.19712 ], [ -106.41957, 23.19665 ], [ -106.41971, 23.19671 ] ] } },
{ "type": "Feature", "properties": { "city": "Mazatlán", "route_name": "San_Joaquín Juárez Mercado Municipal Pino Suárez - Armadillo", "route_name_short": "Joaquín Juárez Mercado Municipal Pino Suárez - Armadillo", "type": "Bus", "shape_id": "shape_3763" }, "geometry": { "type": "LineString", "coordinates": [ [ -106.42427, 23.19951 ], [ -106.42154, 23.20006 ], [ -106.41723, 23.20085 ], [ -106.41562, 23.20113 ], [ -106.41524, 23.20119 ], [ -106.41529, 23.20153 ], [ -106.41311, 23.20191 ], [ -106.41255, 23.20201 ], [ -106.41162, 23.20425 ], [ -106.4104, 23.20696 ], [ -106.4096, 23.20888 ], [ -106.40921, 23.20965 ], [ -106.40812, 23.21117 ], [ -106.40634, 23.21364 ], [ -106.4044, 23.21639 ], [ -106.40396, 23.21719 ], [ -106.40351, 23.21799 ], [ -106.40324, 23.21857 ], [ -106.40295, 23.21942 ], [ -106.40271, 23.22013 ], [ -106.40248, 23.22074 ], [ -106.40167, 23.2224 ], [ -106.4008, 23.22414 ], [ -106.4004, 23.22502 ], [ -106.40036, 23.2252 ], [ -106.40161, 23.22621 ], [ -106.4037, 23.22788 ], [ -106.40477, 23.22878 ], [ -106.40526, 23.22909 ], [ -106.40483, 23.22982 ], [ -106.40411, 23.23109 ], [ -106.40357, 23.23206 ], [ -106.4033, 23.23259 ], [ -106.4026, 23.23222 ], [ -106.40209, 23.23186 ], [ -106.40132, 23.23123 ], [ -106.39966, 23.2299 ], [ -106.39881, 23.22919 ], [ -106.39804, 23.22883 ], [ -106.39701, 23.23056 ], [ -106.39648, 23.23026 ], [ -106.39502, 23.2321 ], [ -106.39366, 23.23373 ], [ -106.39345, 23.23384 ], [ -106.39317, 23.23395 ], [ -106.39285, 23.23395 ], [ -106.39247, 23.2338 ], [ -106.39217, 23.23362 ], [ -106.39149, 23.233 ], [ -106.38955, 23.2311 ], [ -106.38832, 23.23004 ], [ -106.38696, 23.22877 ], [ -106.38464, 23.22658 ], [ -106.38204, 23.22415 ], [ -106.37978, 23.22194 ], [ -106.37852, 23.2208 ], [ -106.37601, 23.21849 ], [ -106.37377, 23.2164 ], [ -106.37267, 23.21536 ], [ -106.37006, 23.2129 ], [ -106.3685, 23.21144 ], [ -106.36716, 23.21021 ], [ -106.36515, 23.20834 ], [ -106.36451, 23.20771 ], [ -106.36414, 23.2072 ], [ -106.36382, 23.20662 ], [ -106.36269, 23.2045 ], [ -106.36123, 23.20172 ], [ -106.36003, 23.1994 ], [ -106.35984, 23.19915 ], [ -106.35951, 23.19869 ], [ -106.35906, 23.19823 ], [ -106.35855, 23.19782 ], [ -106.35807, 23.1975 ], [ -106.35736, 23.19715 ], [ -106.35671, 23.19689 ], [ -106.35612, 23.19677 ], [ -106.35472, 23.19668 ], [ -106.35046, 23.19654 ], [ -106.34519, 23.19635 ], [ -106.34151, 23.19618 ], [ -106.33935, 23.19609 ], [ -106.33945, 23.19569 ], [ -106.33981, 23.19472 ], [ -106.3399, 23.19439 ], [ -106.33922, 23.19413 ], [ -106.33874, 23.1939 ], [ -106.33847, 23.19372 ], [ -106.3382, 23.1936 ], [ -106.33792, 23.19352 ], [ -106.33757, 23.1935 ], [ -106.33707, 23.19352 ], [ -106.33637, 23.19359 ], [ -106.33588, 23.1936 ], [ -106.33574, 23.19322 ], [ -106.33562, 23.193 ], [ -106.33544, 23.1928 ], [ -106.33536, 23.19252 ], [ -106.33525, 23.19209 ], [ -106.33514, 23.19158 ], [ -106.33507, 23.19108 ], [ -106.3349, 23.18976 ], [ -106.33416, 23.1899 ], [ -106.33384, 23.18997 ], [ -106.33361, 23.18995 ], [ -106.3335, 23.18981 ], [ -106.33325, 23.18942 ], [ -106.33216, 23.18775 ], [ -106.33109, 23.18607 ], [ -106.32939, 23.18659 ], [ -106.32929, 23.18665 ], [ -106.32944, 23.1869 ], [ -106.33084, 23.18902 ], [ -106.33187, 23.19065 ], [ -106.33227, 23.1913 ], [ -106.33233, 23.19151 ], [ -106.3323, 23.19185 ], [ -106.33109, 23.19181 ], [ -106.3311, 23.19148 ], [ -106.33099, 23.19131 ], [ -106.33081, 23.19113 ], [ -106.33033, 23.19095 ], [ -106.32955, 23.19066 ], [ -106.32936, 23.19055 ], [ -106.3292, 23.19033 ], [ -106.329, 23.19002 ], [ -106.32874, 23.18968 ], [ -106.32862, 23.18943 ], [ -106.3283, 23.18827 ], [ -106.32642, 23.18881 ], [ -106.32554, 23.18912 ], [ -106.32504, 23.18765 ], [ -106.32474, 23.1869 ], [ -106.32443, 23.18607 ], [ -106.32599, 23.18563 ], [ -106.32596, 23.18546 ], [ -106.32587, 23.18536 ], [ -106.32551, 23.18542 ], [ -106.32429, 23.1858 ], [ -106.32498, 23.18766 ], [ -106.3249, 23.18774 ], [ -106.32567, 23.18983 ], [ -106.32581, 23.19004 ], [ -106.32601, 23.19033 ], [ -106.32835, 23.18905 ], [ -106.32848, 23.18948 ], [ -106.32869, 23.18986 ], [ -106.32888, 23.19013 ], [ -106.32911, 23.19026 ], [ -106.32929, 23.19055 ], [ -106.32942, 23.19065 ], [ -106.3302, 23.19095 ], [ -106.33074, 23.19114 ], [ -106.33101, 23.19138 ], [ -106.33106, 23.19156 ], [ -106.33105, 23.192 ], [ -106.33097, 23.19271 ], [ -106.331, 23.19304 ], [ -106.33245, 23.19305 ], [ -106.33245, 23.1914 ], [ -106.33238, 23.19117 ], [ -106.33209, 23.19072 ], [ -106.33185, 23.19034 ], [ -106.33053, 23.18829 ], [ -106.32964, 23.1869 ], [ -106.33108, 23.18613 ], [ -106.33286, 23.18888 ], [ -106.33339, 23.18971 ], [ -106.33355, 23.18997 ], [ -106.33374, 23.19002 ], [ -106.33447, 23.1899 ], [ -106.33487, 23.18983 ], [ -106.33507, 23.19136 ], [ -106.3352, 23.19202 ], [ -106.33531, 23.19244 ], [ -106.33535, 23.19271 ], [ -106.33555, 23.193 ], [ -106.33568, 23.19321 ], [ -106.33579, 23.19354 ], [ -106.33586, 23.19369 ], [ -106.33706, 23.19358 ], [ -106.33758, 23.19355 ], [ -106.338, 23.19359 ], [ -106.33832, 23.19372 ], [ -106.3388, 23.19397 ], [ -106.3394, 23.19425 ], [ -106.33985, 23.19443 ], [ -106.33969, 23.19496 ], [ -106.33945, 23.1956 ], [ -106.33927, 23.19607 ], [ -106.33789, 23.19603 ], [ -106.33643, 23.19595 ], [ -106.33644, 23.19614 ], [ -106.34, 23.19624 ], [ -106.34358, 23.19636 ], [ -106.34754, 23.19651 ], [ -106.35165, 23.1967 ], [ -106.35492, 23.19683 ], [ -106.356, 23.19688 ], [ -106.35662, 23.19701 ], [ -106.35713, 23.19718 ], [ -106.35774, 23.1974 ], [ -106.35837, 23.19775 ], [ -106.35879, 23.1981 ], [ -106.35934, 23.19859 ], [ -106.35969, 23.19908 ], [ -106.35996, 23.19945 ], [ -106.36071, 23.20085 ], [ -106.36217, 23.20381 ], [ -106.36363, 23.20665 ], [ -106.36409, 23.2073 ], [ -106.36458, 23.20788 ], [ -106.36541, 23.20866 ], [ -106.36862, 23.21166 ], [ -106.3718, 23.21464 ], [ -106.37445, 23.21713 ], [ -106.37671, 23.21931 ], [ -106.37991, 23.22231 ], [ -106.38232, 23.22451 ], [ -106.38522, 23.22724 ], [ -106.38751, 23.22936 ], [ -106.38875, 23.23062 ], [ -106.38921, 23.23105 ], [ -106.38942, 23.2315 ], [ -106.38943, 23.23167 ], [ -106.38985, 23.23171 ], [ -106.39014, 23.2319 ], [ -106.39073, 23.23244 ], [ -106.39177, 23.2334 ], [ -106.39238, 23.23389 ], [ -106.39281, 23.23405 ], [ -106.39315, 23.23406 ], [ -106.39359, 23.23389 ], [ -106.39376, 23.23378 ], [ -106.39415, 23.23332 ], [ -106.39646, 23.23044 ], [ -106.39784, 23.22878 ], [ -106.39832, 23.22842 ], [ -106.39856, 23.22803 ], [ -106.39906, 23.22825 ], [ -106.40168, 23.23036 ], [ -106.40271, 23.23123 ], [ -106.40318, 23.23154 ], [ -106.40377, 23.23182 ], [ -106.4044, 23.23066 ], [ -106.40535, 23.22909 ], [ -106.40484, 23.22875 ], [ -106.40442, 23.22841 ], [ -106.4036, 23.22775 ], [ -106.40178, 23.22628 ], [ -106.40089, 23.22556 ], [ -106.40046, 23.22519 ], [ -106.40092, 23.22413 ], [ -106.40187, 23.2222 ], [ -106.40251, 23.22088 ], [ -106.40284, 23.22016 ], [ -106.40327, 23.21886 ], [ -106.40356, 23.21816 ], [ -106.40402, 23.21726 ], [ -106.40492, 23.21591 ], [ -106.40658, 23.21355 ], [ -106.40823, 23.21128 ], [ -106.40929, 23.20979 ], [ -106.41101, 23.2074 ], [ -106.41142, 23.20686 ], [ -106.41276, 23.20501 ], [ -106.41311, 23.20447 ], [ -106.4136, 23.20381 ], [ -106.4136, 23.2027 ], [ -106.41349, 23.20191 ], [ -106.41643, 23.20135 ], [ -106.41832, 23.20102 ], [ -106.41939, 23.20089 ], [ -106.41959, 23.20196 ], [ -106.42059, 23.20185 ], [ -106.42039, 23.20074 ], [ -106.42392, 23.20046 ], [ -106.42431, 23.20047 ], [ -106.42428, 23.19952 ] ] } },
{ "type": "Feature", "properties": { "city": "Mazatlán", "route_name": "Toreo_Playa Sur Faro Mazatlán - Cerritos", "route_name_short": "Playa Sur Faro Mazatlán - Cerritos", "type": "Bus", "shape_id": "shape_3762" }, "geometry": { "type": "LineString", "coordinates": [ [ -106.42528, 23.18121 ], [ -106.42524, 23.1811 ], [ -106.4251, 23.18112 ], [ -106.42508, 23.18124 ], [ -106.42513, 23.18135 ], [ -106.42493, 23.18298 ], [ -106.42483, 23.1838 ], [ -106.42482, 23.18419 ], [ -106.42481, 23.18449 ], [ -106.42474, 23.18478 ], [ -106.42434, 23.18589 ], [ -106.42409, 23.1867 ], [ -106.4232, 23.18765 ], [ -106.42257, 23.18828 ], [ -106.42236, 23.18829 ], [ -106.42185, 23.18835 ], [ -106.42081, 23.18841 ], [ -106.42079, 23.18862 ], [ -106.42063, 23.18882 ], [ -106.42046, 23.18908 ], [ -106.42037, 23.18929 ], [ -106.4204, 23.18958 ], [ -106.42064, 23.19056 ], [ -106.42136, 23.19357 ], [ -106.42185, 23.19556 ], [ -106.42077, 23.19603 ], [ -106.42114, 23.19789 ], [ -106.42131, 23.19895 ], [ -106.42151, 23.20047 ], [ -106.42163, 23.20199 ], [ -106.42177, 23.20333 ], [ -106.42194, 23.204 ], [ -106.4221, 23.20439 ], [ -106.42226, 23.20515 ], [ -106.42242, 23.20579 ], [ -106.42049, 23.20614 ], [ -106.42096, 23.20841 ], [ -106.42114, 23.20925 ], [ -106.42054, 23.2111 ], [ -106.4181, 23.21018 ], [ -106.41715, 23.20982 ], [ -106.41665, 23.21105 ], [ -106.41633, 23.21232 ], [ -106.41595, 23.21384 ], [ -106.41584, 23.21462 ], [ -106.41593, 23.21512 ], [ -106.41609, 23.21559 ], [ -106.4175, 23.21881 ], [ -106.41887, 23.2218 ], [ -106.42023, 23.2248 ], [ -106.42167, 23.22787 ], [ -106.42185, 23.22777 ], [ -106.42243, 23.22722 ], [ -106.42255, 23.22712 ], [ -106.42278, 23.22705 ], [ -106.42302, 23.227 ], [ -106.42472, 23.22811 ], [ -106.42683, 23.22954 ], [ -106.42651, 23.23003 ], [ -106.42646, 23.23016 ], [ -106.42644, 23.23028 ], [ -106.42653, 23.23039 ], [ -106.42666, 23.23042 ], [ -106.4268, 23.23041 ], [ -106.42928, 23.23197 ], [ -106.43223, 23.23375 ], [ -106.43457, 23.23521 ], [ -106.43477, 23.23541 ], [ -106.43484, 23.23563 ], [ -106.43484, 23.23611 ], [ -106.43658, 23.23717 ], [ -106.43971, 23.23907 ], [ -106.44235, 23.2406 ], [ -106.44337, 23.24118 ], [ -106.44196, 23.24296 ], [ -106.44115, 23.24397 ], [ -106.44047, 23.24461 ], [ -106.43969, 23.24514 ], [ -106.43886, 23.24557 ], [ -106.43836, 23.24573 ], [ -106.43844, 23.24775 ], [ -106.43852, 23.25055 ], [ -106.437, 23.2518 ], [ -106.43727, 23.25225 ], [ -106.43731, 23.25235 ], [ -106.43736, 23.25264 ], [ -106.43728, 23.25295 ], [ -106.43722, 23.25379 ], [ -106.4373, 23.25414 ], [ -106.43745, 23.25435 ], [ -106.4394, 23.25634 ], [ -106.44176, 23.25879 ], [ -106.44289, 23.25995 ], [ -106.44328, 23.26058 ], [ -106.44348, 23.2611 ], [ -106.44354, 23.26188 ], [ -106.44352, 23.2623 ], [ -106.44342, 23.26242 ], [ -106.44345, 23.26262 ], [ -106.44346, 23.2628 ], [ -106.44349, 23.26492 ], [ -106.44347, 23.26698 ], [ -106.44355, 23.26764 ], [ -106.44376, 23.26828 ], [ -106.4453, 23.27149 ], [ -106.4458, 23.27248 ], [ -106.4469, 23.27423 ], [ -106.44725, 23.27479 ], [ -106.44805, 23.27428 ], [ -106.44842, 23.2738 ], [ -106.44853, 23.27336 ], [ -106.44849, 23.27279 ], [ -106.44857, 23.27223 ], [ -106.4488, 23.27162 ], [ -106.44935, 23.2709 ], [ -106.44965, 23.27063 ], [ -106.45052, 23.27053 ], [ -106.45148, 23.27045 ], [ -106.45176, 23.27056 ], [ -106.45197, 23.27072 ], [ -106.45222, 23.27133 ], [ -106.45253, 23.27192 ], [ -106.45305, 23.27254 ], [ -106.45366, 23.27327 ], [ -106.45376, 23.27341 ], [ -106.4538, 23.27357 ], [ -106.4539, 23.27375 ], [ -106.45405, 23.2738 ], [ -106.45423, 23.27393 ], [ -106.45476, 23.27463 ], [ -106.45521, 23.27497 ], [ -106.45585, 23.27519 ], [ -106.45652, 23.27528 ], [ -106.45817, 23.27508 ], [ -106.46076, 23.27482 ], [ -106.46235, 23.27469 ], [ -106.46463, 23.2745 ], [ -106.46507, 23.27464 ], [ -106.46538, 23.27481 ], [ -106.46573, 23.27516 ], [ -106.46585, 23.27538 ], [ -106.46591, 23.27583 ], [ -106.46626, 23.27663 ], [ -106.46771, 23.27984 ], [ -106.4695, 23.2832 ], [ -106.47067, 23.28538 ], [ -106.47148, 23.28686 ], [ -106.47321, 23.29012 ], [ -106.47424, 23.292 ], [ -106.47465, 23.29253 ], [ -106.47514, 23.29314 ], [ -106.47677, 23.29478 ], [ -106.47795, 23.29598 ], [ -106.48092, 23.29897 ], [ -106.48178, 23.29984 ], [ -106.48202, 23.30025 ], [ -106.48217, 23.3005 ], [ -106.48247, 23.30064 ], [ -106.4829, 23.301 ], [ -106.48386, 23.302 ], [ -106.48455, 23.30268 ], [ -106.48502, 23.30301 ], [ -106.4863, 23.30396 ], [ -106.48825, 23.30534 ], [ -106.49027, 23.3068 ], [ -106.49034, 23.30692 ], [ -106.49053, 23.30698 ], [ -106.49068, 23.3069 ], [ -106.49071, 23.30676 ], [ -106.49059, 23.30661 ], [ -106.49044, 23.30655 ], [ -106.49015, 23.30635 ], [ -106.48908, 23.3056 ], [ -106.4858, 23.30324 ], [ -106.4852, 23.30282 ], [ -106.48473, 23.30242 ], [ -106.48396, 23.30163 ], [ -106.48307, 23.30079 ], [ -106.48228, 23.29999 ], [ -106.48084, 23.29849 ], [ -106.47856, 23.29615 ], [ -106.47603, 23.2936 ], [ -106.47491, 23.29242 ], [ -106.47456, 23.2919 ], [ -106.47404, 23.29097 ], [ -106.47343, 23.28981 ], [ -106.47219, 23.28752 ], [ -106.47073, 23.2848 ], [ -106.46901, 23.28163 ], [ -106.46808, 23.27985 ], [ -106.4673, 23.27823 ], [ -106.46626, 23.27594 ], [ -106.46613, 23.27551 ], [ -106.46605, 23.27519 ], [ -106.46596, 23.27493 ], [ -106.46559, 23.27456 ], [ -106.46516, 23.27438 ], [ -106.46452, 23.27436 ], [ -106.46207, 23.2746 ], [ -106.45905, 23.27492 ], [ -106.45688, 23.2751 ], [ -106.45627, 23.2751 ], [ -106.45558, 23.27494 ], [ -106.45505, 23.27468 ], [ -106.45474, 23.27432 ], [ -106.45424, 23.27377 ], [ -106.45418, 23.27353 ], [ -106.45412, 23.27339 ], [ -106.45393, 23.2733 ], [ -106.45374, 23.27313 ], [ -106.45323, 23.2725 ], [ -106.45253, 23.27159 ], [ -106.45235, 23.27125 ], [ -106.45218, 23.27074 ], [ -106.4521, 23.27044 ], [ -106.45205, 23.27018 ], [ -106.45194, 23.27012 ], [ -106.45185, 23.27012 ], [ -106.45166, 23.27018 ], [ -106.45129, 23.27029 ], [ -106.45054, 23.27032 ], [ -106.44983, 23.27037 ], [ -106.44949, 23.27047 ], [ -106.44913, 23.2708 ], [ -106.44855, 23.27164 ], [ -106.44841, 23.2719 ], [ -106.44825, 23.27247 ], [ -106.44802, 23.27346 ], [ -106.44786, 23.27375 ], [ -106.44765, 23.27394 ], [ -106.44735, 23.274 ], [ -106.44706, 23.27395 ], [ -106.44683, 23.27362 ], [ -106.44607, 23.27242 ], [ -106.44579, 23.27192 ], [ -106.44535, 23.271 ], [ -106.44443, 23.26908 ], [ -106.44397, 23.26812 ], [ -106.44385, 23.26778 ], [ -106.44378, 23.26743 ], [ -106.44376, 23.26703 ], [ -106.44377, 23.26428 ], [ -106.44375, 23.26313 ], [ -106.44381, 23.2628 ], [ -106.44387, 23.26258 ], [ -106.44386, 23.26241 ], [ -106.44379, 23.26228 ], [ -106.44376, 23.26184 ], [ -106.44375, 23.26142 ], [ -106.44366, 23.26096 ], [ -106.44355, 23.26065 ], [ -106.44324, 23.26007 ], [ -106.44291, 23.25964 ], [ -106.44186, 23.25862 ], [ -106.43975, 23.25641 ], [ -106.43757, 23.25417 ], [ -106.43744, 23.25398 ], [ -106.43745, 23.25368 ], [ -106.43753, 23.25286 ], [ -106.43754, 23.25236 ], [ -106.43734, 23.25204 ], [ -106.43708, 23.25152 ], [ -106.43697, 23.2511 ], [ -106.43691, 23.25047 ], [ -106.4368, 23.24979 ], [ -106.43628, 23.2482 ], [ -106.43575, 23.24642 ], [ -106.43874, 23.2457 ], [ -106.43936, 23.24549 ], [ -106.44003, 23.24512 ], [ -106.44085, 23.2445 ], [ -106.44132, 23.24401 ], [ -106.44243, 23.24259 ], [ -106.44349, 23.24118 ], [ -106.44153, 23.24003 ], [ -106.43779, 23.23779 ], [ -106.43555, 23.23639 ], [ -106.43525, 23.23584 ], [ -106.43477, 23.23517 ], [ -106.43443, 23.23493 ], [ -106.43173, 23.23327 ], [ -106.42829, 23.23117 ], [ -106.42685, 23.23027 ], [ -106.42678, 23.23011 ], [ -106.42677, 23.22983 ], [ -106.42692, 23.22955 ], [ -106.42706, 23.22937 ], [ -106.42615, 23.22853 ], [ -106.42408, 23.22658 ], [ -106.42385, 23.22672 ], [ -106.42351, 23.22692 ], [ -106.4231, 23.22697 ], [ -106.42267, 23.227 ], [ -106.42236, 23.2272 ], [ -106.422, 23.22756 ], [ -106.42177, 23.22774 ], [ -106.42106, 23.22614 ], [ -106.42022, 23.2243 ], [ -106.41902, 23.22172 ], [ -106.4177, 23.21879 ], [ -106.41659, 23.21637 ], [ -106.41614, 23.21548 ], [ -106.41599, 23.21494 ], [ -106.41593, 23.21461 ], [ -106.41598, 23.21417 ], [ -106.41611, 23.21365 ], [ -106.41663, 23.21146 ], [ -106.41699, 23.21047 ], [ -106.4172, 23.20997 ], [ -106.42019, 23.21108 ], [ -106.42098, 23.21141 ], [ -106.42164, 23.20968 ], [ -106.42157, 23.20936 ], [ -106.42144, 23.20846 ], [ -106.42106, 23.20523 ], [ -106.42074, 23.20294 ], [ -106.42022, 23.19961 ], [ -106.41972, 23.19671 ], [ -106.41979, 23.19663 ], [ -106.41995, 23.1965 ], [ -106.42137, 23.19588 ], [ -106.42196, 23.1956 ], [ -106.42148, 23.19365 ], [ -106.42067, 23.19035 ], [ -106.42048, 23.18959 ], [ -106.42046, 23.1894 ], [ -106.42052, 23.18922 ], [ -106.42064, 23.18899 ], [ -106.42084, 23.18872 ], [ -106.42096, 23.18867 ], [ -106.42099, 23.18855 ], [ -106.42209, 23.18855 ], [ -106.4225, 23.18838 ], [ -106.42287, 23.18804 ], [ -106.42357, 23.18729 ], [ -106.42415, 23.18671 ], [ -106.42434, 23.18599 ], [ -106.42471, 23.18497 ], [ -106.42487, 23.1845 ], [ -106.42486, 23.18411 ], [ -106.42488, 23.18377 ], [ -106.42496, 23.18304 ], [ -106.42516, 23.18144 ], [ -106.42518, 23.18134 ], [ -106.42529, 23.18125 ] ] } },
{ "type": "Feature", "properties": { "city": "Mazatlán", "route_name": "Urias_Sábalo Marina Mazatlán - La Sirena", "route_name_short": "Sábalo Marina Mazatlán - La Sirena", "type": "Bus", "shape_id": "shape_3761" }, "geometry": { "type": "LineString", "coordinates": [ [ -106.36331, 23.20563 ], [ -106.36288, 23.20476 ], [ -106.36332, 23.20452 ], [ -106.36303, 23.20411 ], [ -106.36243, 23.20331 ], [ -106.3631, 23.20282 ], [ -106.364, 23.20413 ], [ -106.36285, 23.20472 ], [ -106.36271, 23.20483 ], [ -106.36358, 23.20654 ], [ -106.36393, 23.20713 ], [ -106.36436, 23.20761 ], [ -106.36505, 23.20834 ], [ -106.36661, 23.2098 ], [ -106.36873, 23.21175 ], [ -106.37097, 23.21387 ], [ -106.37335, 23.21608 ], [ -106.37439, 23.21707 ], [ -106.37572, 23.21834 ], [ -106.37705, 23.21967 ], [ -106.37938, 23.22182 ], [ -106.38149, 23.22373 ], [ -106.38405, 23.22613 ], [ -106.38681, 23.22873 ], [ -106.38813, 23.23 ], [ -106.38921, 23.23106 ], [ -106.38941, 23.23148 ], [ -106.38953, 23.23209 ], [ -106.38965, 23.23413 ], [ -106.38982, 23.23629 ], [ -106.39002, 23.239 ], [ -106.39002, 23.23971 ], [ -106.39014, 23.2414 ], [ -106.39029, 23.24192 ], [ -106.39072, 23.24246 ], [ -106.39266, 23.2443 ], [ -106.39395, 23.24537 ], [ -106.39679, 23.24802 ], [ -106.39882, 23.2499 ], [ -106.40058, 23.25167 ], [ -106.40108, 23.25209 ], [ -106.40253, 23.25338 ], [ -106.40357, 23.25435 ], [ -106.40588, 23.25651 ], [ -106.40852, 23.25892 ], [ -106.41029, 23.26059 ], [ -106.41175, 23.26192 ], [ -106.41285, 23.26302 ], [ -106.41304, 23.26291 ], [ -106.41024, 23.26044 ], [ -106.40897, 23.25919 ], [ -106.40904, 23.25906 ], [ -106.40975, 23.25857 ], [ -106.41289, 23.25637 ], [ -106.41414, 23.25552 ], [ -106.41381, 23.25521 ], [ -106.41105, 23.25253 ], [ -106.412, 23.25174 ], [ -106.41272, 23.25106 ], [ -106.41301, 23.25083 ], [ -106.4142, 23.25013 ], [ -106.41433, 23.25 ], [ -106.41466, 23.2496 ], [ -106.41638, 23.25127 ], [ -106.41755, 23.25241 ], [ -106.41865, 23.25355 ], [ -106.41895, 23.25378 ], [ -106.41948, 23.25384 ], [ -106.42173, 23.25431 ], [ -106.42194, 23.25445 ], [ -106.42326, 23.25555 ], [ -106.42328, 23.25562 ], [ -106.4235, 23.25571 ], [ -106.42356, 23.2556 ], [ -106.42356, 23.25545 ], [ -106.42376, 23.25458 ], [ -106.42454, 23.25089 ], [ -106.42476, 23.24974 ], [ -106.42474, 23.24934 ], [ -106.42464, 23.24898 ], [ -106.42642, 23.24853 ], [ -106.42917, 23.24792 ], [ -106.43182, 23.24734 ], [ -106.43318, 23.247 ], [ -106.43598, 23.24637 ], [ -106.43841, 23.24582 ], [ -106.4393, 23.24549 ], [ -106.43998, 23.24512 ], [ -106.44075, 23.24461 ], [ -106.44135, 23.24397 ], [ -106.44239, 23.24263 ], [ -106.44404, 23.24053 ], [ -106.44534, 23.23893 ], [ -106.44561, 23.23891 ], [ -106.44573, 23.23896 ], [ -106.44652, 23.24059 ], [ -106.44704, 23.24155 ], [ -106.44739, 23.242 ], [ -106.44824, 23.24266 ], [ -106.44902, 23.24322 ], [ -106.44961, 23.24351 ], [ -106.45045, 23.24372 ], [ -106.45111, 23.24385 ], [ -106.4515, 23.24398 ], [ -106.45193, 23.2443 ], [ -106.45307, 23.24552 ], [ -106.4535, 23.24623 ], [ -106.45399, 23.24725 ], [ -106.45439, 23.2482 ], [ -106.45487, 23.24985 ], [ -106.45539, 23.25162 ], [ -106.4557, 23.2527 ], [ -106.4559, 23.25317 ], [ -106.45628, 23.25358 ], [ -106.45691, 23.25415 ], [ -106.45776, 23.25486 ], [ -106.45936, 23.25625 ], [ -106.46088, 23.25754 ], [ -106.46175, 23.25831 ], [ -106.4626, 23.25905 ], [ -106.46403, 23.26032 ], [ -106.46445, 23.26077 ], [ -106.4647, 23.2611 ], [ -106.4649, 23.26154 ], [ -106.46499, 23.26214 ], [ -106.46504, 23.26354 ], [ -106.4651, 23.26395 ], [ -106.46525, 23.26468 ], [ -106.46546, 23.26554 ], [ -106.46554, 23.26597 ], [ -106.46553, 23.26628 ], [ -106.46563, 23.2663 ], [ -106.46565, 23.26581 ], [ -106.46547, 23.26507 ], [ -106.46531, 23.2645 ], [ -106.46517, 23.26387 ], [ -106.46513, 23.26353 ], [ -106.46514, 23.26263 ], [ -106.46508, 23.26201 ], [ -106.46498, 23.26145 ], [ -106.46472, 23.2609 ], [ -106.4644, 23.26046 ], [ -106.46271, 23.25898 ], [ -106.46144, 23.25788 ], [ -106.46072, 23.25722 ], [ -106.4583, 23.25526 ], [ -106.45615, 23.25333 ], [ -106.45588, 23.25289 ], [ -106.45571, 23.25252 ], [ -106.45539, 23.25142 ], [ -106.45491, 23.24968 ], [ -106.45431, 23.24765 ], [ -106.45381, 23.24663 ], [ -106.45314, 23.24541 ], [ -106.45237, 23.24466 ], [ -106.4518, 23.24412 ], [ -106.45133, 23.24384 ], [ -106.45017, 23.24356 ], [ -106.44945, 23.24334 ], [ -106.44855, 23.2428 ], [ -106.44756, 23.24201 ], [ -106.44708, 23.24142 ], [ -106.4465, 23.24032 ], [ -106.44574, 23.2388 ], [ -106.44552, 23.23837 ], [ -106.44537, 23.23853 ], [ -106.44405, 23.24022 ], [ -106.44212, 23.24279 ], [ -106.44107, 23.24409 ], [ -106.44048, 23.24463 ], [ -106.43955, 23.24525 ], [ -106.43873, 23.24562 ], [ -106.43767, 23.24586 ], [ -106.43492, 23.2465 ], [ -106.43249, 23.24705 ], [ -106.42998, 23.24762 ], [ -106.42807, 23.24807 ], [ -106.42577, 23.24858 ], [ -106.42438, 23.24893 ], [ -106.42445, 23.24926 ], [ -106.42456, 23.24956 ], [ -106.42451, 23.24992 ], [ -106.42384, 23.25319 ], [ -106.42339, 23.25523 ], [ -106.42338, 23.25538 ], [ -106.42313, 23.25525 ], [ -106.42199, 23.25427 ], [ -106.42175, 23.25411 ], [ -106.41999, 23.25381 ], [ -106.4189, 23.25362 ], [ -106.41827, 23.25299 ], [ -106.41723, 23.25196 ], [ -106.41526, 23.25008 ], [ -106.41463, 23.24944 ], [ -106.41416, 23.25 ], [ -106.41395, 23.25013 ], [ -106.41305, 23.25068 ], [ -106.41268, 23.25093 ], [ -106.41191, 23.25162 ], [ -106.41091, 23.25251 ], [ -106.41257, 23.25412 ], [ -106.41389, 23.25544 ], [ -106.41145, 23.25717 ], [ -106.40878, 23.25905 ], [ -106.40487, 23.25539 ], [ -106.40298, 23.25364 ], [ -106.40123, 23.25213 ], [ -106.4005, 23.25148 ], [ -106.39893, 23.24994 ], [ -106.39818, 23.24918 ], [ -106.39566, 23.24689 ], [ -106.39419, 23.24552 ], [ -106.39329, 23.24469 ], [ -106.3931, 23.24441 ], [ -106.39135, 23.24276 ], [ -106.39091, 23.24236 ], [ -106.39061, 23.24193 ], [ -106.39042, 23.24144 ], [ -106.39034, 23.24069 ], [ -106.39024, 23.23923 ], [ -106.39015, 23.23889 ], [ -106.39004, 23.23746 ], [ -106.38985, 23.23494 ], [ -106.38963, 23.23176 ], [ -106.38943, 23.2312 ], [ -106.38912, 23.23074 ], [ -106.38835, 23.23007 ], [ -106.38618, 23.22805 ], [ -106.38468, 23.22662 ], [ -106.38182, 23.22395 ], [ -106.37931, 23.22154 ], [ -106.37819, 23.22045 ], [ -106.3767, 23.21912 ], [ -106.37563, 23.21815 ], [ -106.37409, 23.21668 ], [ -106.3729, 23.21557 ], [ -106.37117, 23.21395 ], [ -106.36953, 23.21242 ], [ -106.36733, 23.2104 ], [ -106.36599, 23.20912 ], [ -106.36496, 23.20817 ], [ -106.36421, 23.20734 ], [ -106.36385, 23.20671 ], [ -106.36334, 23.20567 ] ] } },
{ "type": "Feature", "properties": { "city": "Mazatlán", "route_name": "Santa_Fe Mercado Pino Suarez - El Castillo", "route_name_short": "Fe Mercado Pino Suarez - El Castillo", "type": "Bus", "shape_id": "shape_3765" }, "geometry": { "type": "LineString", "coordinates": [ [ -106.41589, 23.20148 ], [ -106.4194, 23.20086 ], [ -106.41961, 23.20198 ], [ -106.42058, 23.20188 ], [ -106.42031, 23.20028 ], [ -106.41619, 23.20108 ], [ -106.41522, 23.2012 ], [ -106.41529, 23.20154 ], [ -106.41272, 23.20198 ], [ -106.41254, 23.20201 ], [ -106.41142, 23.2047 ], [ -106.41023, 23.20736 ], [ -106.40943, 23.20919 ], [ -106.40919, 23.20973 ], [ -106.40867, 23.21042 ], [ -106.40676, 23.21306 ], [ -106.40488, 23.21566 ], [ -106.40423, 23.21666 ], [ -106.40367, 23.21764 ], [ -106.40334, 23.21834 ], [ -106.40289, 23.21956 ], [ -106.40258, 23.22052 ], [ -106.40178, 23.22218 ], [ -106.40114, 23.22349 ], [ -106.40033, 23.22518 ], [ -106.40297, 23.22732 ], [ -106.40442, 23.22848 ], [ -106.4051, 23.22898 ], [ -106.40525, 23.22912 ], [ -106.40481, 23.22983 ], [ -106.40442, 23.23055 ], [ -106.40356, 23.2321 ], [ -106.40331, 23.23257 ], [ -106.40287, 23.23236 ], [ -106.40238, 23.23208 ], [ -106.40168, 23.2315 ], [ -106.39933, 23.2296 ], [ -106.39875, 23.22919 ], [ -106.39801, 23.22882 ], [ -106.39702, 23.23055 ], [ -106.39645, 23.23031 ], [ -106.39442, 23.2328 ], [ -106.39363, 23.23376 ], [ -106.39323, 23.23395 ], [ -106.39295, 23.23399 ], [ -106.39257, 23.23389 ], [ -106.39232, 23.23374 ], [ -106.39191, 23.23338 ], [ -106.39106, 23.23258 ], [ -106.38967, 23.23125 ], [ -106.38813, 23.22988 ], [ -106.38541, 23.22728 ], [ -106.38207, 23.22419 ], [ -106.37912, 23.22136 ], [ -106.37679, 23.21916 ], [ -106.37359, 23.21621 ], [ -106.37111, 23.21391 ], [ -106.3684, 23.21139 ], [ -106.36553, 23.20866 ], [ -106.36459, 23.2078 ], [ -106.36413, 23.20723 ], [ -106.36371, 23.20646 ], [ -106.3627, 23.2045 ], [ -106.36088, 23.20104 ], [ -106.35992, 23.19926 ], [ -106.35947, 23.19863 ], [ -106.35913, 23.19831 ], [ -106.35856, 23.19782 ], [ -106.35799, 23.19747 ], [ -106.35746, 23.19716 ], [ -106.35686, 23.19697 ], [ -106.35611, 23.19675 ], [ -106.35401, 23.19664 ], [ -106.35258, 23.19661 ], [ -106.34409, 23.19629 ], [ -106.33937, 23.19608 ], [ -106.33943, 23.19585 ], [ -106.33967, 23.19505 ], [ -106.33986, 23.19473 ], [ -106.3401, 23.19449 ], [ -106.3394, 23.19418 ], [ -106.33883, 23.19393 ], [ -106.3384, 23.19369 ], [ -106.33799, 23.19354 ], [ -106.33776, 23.19349 ], [ -106.33718, 23.19352 ], [ -106.33617, 23.1936 ], [ -106.33588, 23.19362 ], [ -106.33569, 23.19311 ], [ -106.33552, 23.19289 ], [ -106.3354, 23.1927 ], [ -106.33532, 23.1923 ], [ -106.33516, 23.19172 ], [ -106.33511, 23.19138 ], [ -106.33496, 23.19023 ], [ -106.33492, 23.18978 ], [ -106.33401, 23.18995 ], [ -106.33377, 23.18999 ], [ -106.33359, 23.18992 ], [ -106.33344, 23.18974 ], [ -106.3325, 23.18826 ], [ -106.33106, 23.18604 ], [ -106.32935, 23.18662 ], [ -106.3293, 23.1867 ], [ -106.32965, 23.18718 ], [ -106.33102, 23.18936 ], [ -106.33208, 23.19101 ], [ -106.33228, 23.19134 ], [ -106.33232, 23.19176 ], [ -106.33229, 23.19185 ], [ -106.33108, 23.1918 ], [ -106.33111, 23.19147 ], [ -106.33098, 23.1913 ], [ -106.33081, 23.19111 ], [ -106.33017, 23.19088 ], [ -106.3294, 23.19058 ], [ -106.32926, 23.19042 ], [ -106.3291, 23.19013 ], [ -106.32888, 23.18987 ], [ -106.3287, 23.18961 ], [ -106.32859, 23.18926 ], [ -106.32829, 23.1882 ], [ -106.32715, 23.18857 ], [ -106.32556, 23.18909 ], [ -106.32505, 23.18771 ], [ -106.32444, 23.18609 ], [ -106.32567, 23.18573 ], [ -106.32602, 23.18559 ], [ -106.32591, 23.18539 ], [ -106.32573, 23.18536 ], [ -106.32427, 23.18583 ], [ -106.325, 23.18768 ], [ -106.32488, 23.18775 ], [ -106.32559, 23.18964 ], [ -106.32578, 23.19004 ], [ -106.326, 23.19034 ], [ -106.32838, 23.18906 ], [ -106.32854, 23.1896 ], [ -106.32871, 23.18991 ], [ -106.3289, 23.19017 ], [ -106.32911, 23.19025 ], [ -106.32928, 23.19052 ], [ -106.32947, 23.19066 ], [ -106.33008, 23.19086 ], [ -106.33071, 23.19111 ], [ -106.33089, 23.19127 ], [ -106.33105, 23.19147 ], [ -106.33104, 23.19189 ], [ -106.33097, 23.19303 ], [ -106.33243, 23.19306 ], [ -106.33246, 23.19174 ], [ -106.33242, 23.19125 ], [ -106.33229, 23.19098 ], [ -106.33067, 23.18852 ], [ -106.32963, 23.18691 ], [ -106.3311, 23.18614 ], [ -106.33242, 23.18821 ], [ -106.3333, 23.18959 ], [ -106.33352, 23.18993 ], [ -106.3337, 23.19001 ], [ -106.3339, 23.19003 ], [ -106.33436, 23.18992 ], [ -106.33488, 23.18984 ], [ -106.33504, 23.19115 ], [ -106.33511, 23.19172 ], [ -106.3353, 23.19237 ], [ -106.33539, 23.19279 ], [ -106.3356, 23.1931 ], [ -106.3358, 23.19349 ], [ -106.33585, 23.19369 ], [ -106.33739, 23.19354 ], [ -106.3378, 23.19355 ], [ -106.3381, 23.19361 ], [ -106.33894, 23.19403 ], [ -106.33985, 23.19443 ], [ -106.33977, 23.19479 ], [ -106.33961, 23.19503 ], [ -106.33943, 23.19568 ], [ -106.33931, 23.19609 ], [ -106.33644, 23.19595 ], [ -106.33643, 23.19613 ], [ -106.34021, 23.19624 ], [ -106.34442, 23.1964 ], [ -106.34998, 23.19662 ], [ -106.35606, 23.19688 ], [ -106.35663, 23.19701 ], [ -106.35733, 23.19723 ], [ -106.35823, 23.19769 ], [ -106.35862, 23.19796 ], [ -106.35921, 23.19851 ], [ -106.3595, 23.19882 ], [ -106.35988, 23.19931 ], [ -106.3605, 23.2005 ], [ -106.36212, 23.20374 ], [ -106.36374, 23.20683 ], [ -106.36428, 23.20755 ], [ -106.36473, 23.20805 ], [ -106.36541, 23.20866 ], [ -106.36782, 23.21092 ], [ -106.37174, 23.21461 ], [ -106.37572, 23.21834 ], [ -106.37943, 23.22186 ], [ -106.38162, 23.22388 ], [ -106.3832, 23.22531 ], [ -106.38664, 23.22855 ], [ -106.38894, 23.23076 ], [ -106.38941, 23.23135 ], [ -106.38946, 23.23165 ], [ -106.3899, 23.23173 ], [ -106.39023, 23.23197 ], [ -106.39094, 23.23262 ], [ -106.39208, 23.23366 ], [ -106.39245, 23.23393 ], [ -106.39288, 23.23408 ], [ -106.39322, 23.23405 ], [ -106.39361, 23.23389 ], [ -106.39376, 23.23381 ], [ -106.39431, 23.23311 ], [ -106.39682, 23.22995 ], [ -106.39786, 23.22876 ], [ -106.39834, 23.22838 ], [ -106.3986, 23.228 ], [ -106.39908, 23.22828 ], [ -106.40086, 23.22973 ], [ -106.40272, 23.23122 ], [ -106.40323, 23.23159 ], [ -106.40378, 23.23185 ], [ -106.40501, 23.22957 ], [ -106.40533, 23.2291 ], [ -106.40482, 23.22872 ], [ -106.40329, 23.22752 ], [ -106.40129, 23.2259 ], [ -106.40045, 23.22518 ], [ -106.40161, 23.22275 ], [ -106.40269, 23.22049 ], [ -106.40286, 23.2201 ], [ -106.40338, 23.21856 ], [ -106.40372, 23.21778 ], [ -106.40435, 23.21676 ], [ -106.40544, 23.21514 ], [ -106.40781, 23.2119 ], [ -106.41006, 23.20868 ], [ -106.41159, 23.20664 ], [ -106.41359, 23.20378 ], [ -106.4136, 23.20308 ], [ -106.41352, 23.20189 ], [ -106.41591, 23.20149 ] ] } },
{ "type": "Feature", "properties": { "city": "Mazatlán", "route_name": "Ventanillo_Ayuntamiento de Mazatlán - El Chilillo", "route_name_short": "Ayuntamiento de Mazatlán - El Chilillo", "type": "Bus", "shape_id": "shape_3760" }, "geometry": { "type": "LineString", "coordinates": [ [ -106.42111, 23.2053 ], [ -106.42299, 23.20494 ], [ -106.42444, 23.20465 ], [ -106.42443, 23.20284 ], [ -106.42435, 23.20126 ], [ -106.42429, 23.19952 ], [ -106.42225, 23.19991 ], [ -106.42145, 23.20006 ], [ -106.42158, 23.20134 ], [ -106.42165, 23.20251 ], [ -106.42179, 23.2034 ], [ -106.42193, 23.204 ], [ -106.422, 23.20416 ], [ -106.42211, 23.2045 ], [ -106.42244, 23.2058 ], [ -106.42034, 23.20616 ], [ -106.41889, 23.20812 ], [ -106.41847, 23.20864 ], [ -106.41821, 23.20897 ], [ -106.41796, 23.20915 ], [ -106.41757, 23.20933 ], [ -106.41739, 23.20949 ], [ -106.41716, 23.20976 ], [ -106.41698, 23.21029 ], [ -106.41658, 23.21123 ], [ -106.41634, 23.21232 ], [ -106.41592, 23.214 ], [ -106.41584, 23.21457 ], [ -106.41591, 23.21501 ], [ -106.41612, 23.21572 ], [ -106.41648, 23.21655 ], [ -106.41759, 23.21896 ], [ -106.41916, 23.22235 ], [ -106.42023, 23.22477 ], [ -106.42171, 23.22795 ], [ -106.42202, 23.22878 ], [ -106.42225, 23.22962 ], [ -106.4224, 23.23034 ], [ -106.42284, 23.2326 ], [ -106.42338, 23.23496 ], [ -106.42343, 23.23547 ], [ -106.42334, 23.23623 ], [ -106.42321, 23.23691 ], [ -106.42262, 23.23948 ], [ -106.42191, 23.24269 ], [ -106.42119, 23.24577 ], [ -106.42018, 23.25017 ], [ -106.41953, 23.25301 ], [ -106.41937, 23.2535 ], [ -106.41912, 23.25367 ], [ -106.41888, 23.25361 ], [ -106.41817, 23.2529 ], [ -106.41654, 23.25132 ], [ -106.41463, 23.24946 ], [ -106.4142, 23.24997 ], [ -106.41387, 23.25018 ], [ -106.41282, 23.25082 ], [ -106.41245, 23.25114 ], [ -106.4109, 23.25254 ], [ -106.41245, 23.25404 ], [ -106.4139, 23.25546 ], [ -106.41219, 23.25665 ], [ -106.40997, 23.25818 ], [ -106.40891, 23.2589 ], [ -106.40877, 23.25904 ], [ -106.40759, 23.25795 ], [ -106.40756, 23.25806 ], [ -106.40932, 23.2597 ], [ -106.41208, 23.26226 ], [ -106.41373, 23.26383 ], [ -106.41595, 23.26592 ], [ -106.41626, 23.2663 ], [ -106.41627, 23.26662 ], [ -106.41611, 23.26739 ], [ -106.4159, 23.26884 ], [ -106.41532, 23.27133 ], [ -106.4146, 23.27426 ], [ -106.4138, 23.27748 ], [ -106.41347, 23.27876 ], [ -106.41324, 23.27942 ], [ -106.41356, 23.27958 ], [ -106.41313, 23.28048 ], [ -106.41289, 23.28112 ], [ -106.41221, 23.28289 ], [ -106.41185, 23.28377 ], [ -106.41179, 23.28429 ], [ -106.41206, 23.28488 ], [ -106.4124, 23.28567 ], [ -106.41228, 23.28606 ], [ -106.4128, 23.28596 ], [ -106.41246, 23.28557 ], [ -106.41203, 23.28461 ], [ -106.41187, 23.28429 ], [ -106.41188, 23.28397 ], [ -106.41203, 23.28354 ], [ -106.41294, 23.28125 ], [ -106.41314, 23.28066 ], [ -106.41284, 23.28042 ], [ -106.41341, 23.27944 ], [ -106.41322, 23.27941 ], [ -106.41168, 23.28205 ], [ -106.41006, 23.28492 ], [ -106.40938, 23.28602 ], [ -106.40841, 23.28779 ], [ -106.40722, 23.28987 ], [ -106.40625, 23.29153 ], [ -106.40469, 23.29413 ], [ -106.40409, 23.29517 ], [ -106.40357, 23.29598 ], [ -106.40297, 23.29706 ], [ -106.40271, 23.29771 ], [ -106.40254, 23.2984 ], [ -106.40222, 23.30002 ], [ -106.40213, 23.3007 ], [ -106.40212, 23.30253 ], [ -106.40217, 23.30541 ], [ -106.40214, 23.30597 ], [ -106.402, 23.30657 ], [ -106.40196, 23.30715 ], [ -106.40211, 23.30837 ], [ -106.40222, 23.30881 ], [ -106.40241, 23.30926 ], [ -106.40266, 23.30961 ], [ -106.40312, 23.31002 ], [ -106.40359, 23.31038 ], [ -106.40224, 23.31046 ], [ -106.40052, 23.31055 ], [ -106.39976, 23.31069 ], [ -106.39814, 23.31075 ], [ -106.39638, 23.31086 ], [ -106.39472, 23.31098 ], [ -106.39335, 23.31101 ], [ -106.393, 23.31106 ], [ -106.39282, 23.31129 ], [ -106.39141, 23.3131 ], [ -106.39054, 23.31412 ], [ -106.39024, 23.31434 ], [ -106.38944, 23.31466 ], [ -106.38861, 23.315 ], [ -106.38837, 23.31517 ], [ -106.38814, 23.31561 ], [ -106.38778, 23.31639 ], [ -106.38767, 23.31659 ], [ -106.38741, 23.31674 ], [ -106.38731, 23.3171 ], [ -106.38737, 23.31745 ], [ -106.3875, 23.31829 ], [ -106.38759, 23.31897 ], [ -106.38757, 23.31937 ], [ -106.3874, 23.32047 ], [ -106.38732, 23.32117 ], [ -106.38739, 23.32119 ], [ -106.38745, 23.32043 ], [ -106.38763, 23.31935 ], [ -106.38761, 23.3188 ], [ -106.38753, 23.318 ], [ -106.38739, 23.31734 ], [ -106.38739, 23.31706 ], [ -106.38749, 23.31674 ], [ -106.38766, 23.3167 ], [ -106.38779, 23.31652 ], [ -106.38826, 23.31545 ], [ -106.38848, 23.31517 ], [ -106.38885, 23.31496 ], [ -106.38998, 23.31451 ], [ -106.39045, 23.31426 ], [ -106.39079, 23.31393 ], [ -106.39172, 23.31282 ], [ -106.39301, 23.31115 ], [ -106.39333, 23.31107 ], [ -106.39527, 23.311 ], [ -106.39863, 23.31078 ], [ -106.39998, 23.31071 ], [ -106.40094, 23.31056 ], [ -106.40298, 23.31048 ], [ -106.40372, 23.31041 ], [ -106.4029, 23.30977 ], [ -106.40249, 23.30928 ], [ -106.40227, 23.30879 ], [ -106.40213, 23.30825 ], [ -106.40205, 23.30758 ], [ -106.40201, 23.30704 ], [ -106.40206, 23.30657 ], [ -106.4022, 23.30591 ], [ -106.40224, 23.30525 ], [ -106.40219, 23.30278 ], [ -106.40218, 23.30065 ], [ -106.40234, 23.29968 ], [ -106.40276, 23.29767 ], [ -106.403, 23.29714 ], [ -106.40341, 23.2964 ], [ -106.40424, 23.29511 ], [ -106.40649, 23.29127 ], [ -106.40816, 23.28847 ], [ -106.40938, 23.28641 ], [ -106.41023, 23.28489 ], [ -106.41056, 23.28486 ], [ -106.41184, 23.28438 ], [ -106.41234, 23.28549 ], [ -106.41239, 23.28567 ], [ -106.41228, 23.28608 ], [ -106.41281, 23.28597 ], [ -106.41245, 23.28559 ], [ -106.41202, 23.28455 ], [ -106.41189, 23.28429 ], [ -106.41188, 23.28408 ], [ -106.41191, 23.28387 ], [ -106.41199, 23.28365 ], [ -106.4126, 23.28209 ], [ -106.41313, 23.28068 ], [ -106.41285, 23.28043 ], [ -106.41353, 23.27921 ], [ -106.4138, 23.27838 ], [ -106.41401, 23.27753 ], [ -106.41459, 23.27507 ], [ -106.41527, 23.27213 ], [ -106.4161, 23.26873 ], [ -106.41647, 23.26683 ], [ -106.41645, 23.26631 ], [ -106.41619, 23.2659 ], [ -106.41567, 23.26538 ], [ -106.41238, 23.26236 ], [ -106.40934, 23.25956 ], [ -106.40895, 23.25919 ], [ -106.40907, 23.25904 ], [ -106.40994, 23.25844 ], [ -106.41341, 23.25601 ], [ -106.41411, 23.25548 ], [ -106.4127, 23.25414 ], [ -106.41107, 23.25254 ], [ -106.41269, 23.2511 ], [ -106.41302, 23.25082 ], [ -106.41389, 23.25031 ], [ -106.41428, 23.2501 ], [ -106.41465, 23.2496 ], [ -106.41597, 23.2509 ], [ -106.41738, 23.25224 ], [ -106.41869, 23.25354 ], [ -106.41897, 23.25378 ], [ -106.41947, 23.25385 ], [ -106.41999, 23.25152 ], [ -106.42073, 23.24843 ], [ -106.42143, 23.2454 ], [ -106.42213, 23.24205 ], [ -106.42302, 23.23813 ], [ -106.42348, 23.23626 ], [ -106.42356, 23.23548 ], [ -106.42348, 23.23466 ], [ -106.42321, 23.2334 ], [ -106.42246, 23.22978 ], [ -106.42206, 23.2283 ], [ -106.42136, 23.22684 ], [ -106.42013, 23.22411 ], [ -106.4189, 23.22146 ], [ -106.41743, 23.21819 ], [ -106.41651, 23.21622 ], [ -106.41614, 23.21552 ], [ -106.416, 23.215 ], [ -106.41596, 23.21456 ], [ -106.41599, 23.21407 ], [ -106.41659, 23.21158 ], [ -106.41684, 23.21084 ], [ -106.41729, 23.20974 ], [ -106.41754, 23.20945 ], [ -106.41804, 23.20921 ], [ -106.41834, 23.20899 ], [ -106.41871, 23.20854 ], [ -106.42031, 23.20633 ], [ -106.4211, 23.20531 ] ] } },
{ "type": "Feature", "properties": { "city": "Mazatlán", "route_name": "Vía_Zaragoza Cerro del Vigía - Las Mañanitas", "route_name_short": "Zaragoza Cerro del Vigía - Las Mañanitas", "type": "Bus", "shape_id": "shape_3759" }, "geometry": { "type": "LineString", "coordinates": [ [ -106.42398, 23.19742 ], [ -106.42361, 23.19661 ], [ -106.42294, 23.19517 ], [ -106.42514, 23.1942 ], [ -106.42493, 23.19358 ], [ -106.42473, 23.19286 ], [ -106.42462, 23.19238 ], [ -106.42457, 23.19206 ], [ -106.42454, 23.19176 ], [ -106.42441, 23.19143 ], [ -106.42422, 23.19104 ], [ -106.42414, 23.19083 ], [ -106.42395, 23.19057 ], [ -106.42387, 23.19024 ], [ -106.42381, 23.18971 ], [ -106.42382, 23.18948 ], [ -106.42377, 23.18948 ], [ -106.42379, 23.18987 ], [ -106.42386, 23.19041 ], [ -106.42394, 23.19063 ], [ -106.42408, 23.19083 ], [ -106.42426, 23.19119 ], [ -106.42449, 23.19176 ], [ -106.42451, 23.19199 ], [ -106.42463, 23.19258 ], [ -106.42478, 23.19317 ], [ -106.42498, 23.19384 ], [ -106.42531, 23.19469 ], [ -106.42631, 23.19495 ], [ -106.42637, 23.1952 ], [ -106.42628, 23.1956 ], [ -106.42628, 23.19596 ], [ -106.42634, 23.19629 ], [ -106.42675, 23.19724 ], [ -106.42724, 23.19833 ], [ -106.42745, 23.19875 ], [ -106.42749, 23.19907 ], [ -106.42529, 23.19941 ], [ -106.42381, 23.19961 ], [ -106.42147, 23.20006 ], [ -106.42164, 23.20194 ], [ -106.42178, 23.20326 ], [ -106.42191, 23.20398 ], [ -106.42211, 23.20444 ], [ -106.42243, 23.20578 ], [ -106.41988, 23.20627 ], [ -106.41748, 23.20672 ], [ -106.417, 23.20468 ], [ -106.4143, 23.20525 ], [ -106.41233, 23.20567 ], [ -106.41284, 23.2077 ], [ -106.41301, 23.20838 ], [ -106.41426, 23.2088 ], [ -106.4163, 23.20962 ], [ -106.41656, 23.21092 ], [ -106.41665, 23.21104 ], [ -106.41645, 23.2118 ], [ -106.41601, 23.21362 ], [ -106.41586, 23.21432 ], [ -106.41585, 23.2148 ], [ -106.41602, 23.21539 ], [ -106.41654, 23.21667 ], [ -106.41784, 23.2195 ], [ -106.41882, 23.22168 ], [ -106.42006, 23.2244 ], [ -106.42164, 23.22775 ], [ -106.42197, 23.2286 ], [ -106.42223, 23.22954 ], [ -106.4225, 23.23085 ], [ -106.42292, 23.23307 ], [ -106.4234, 23.23505 ], [ -106.42341, 23.2355 ], [ -106.42388, 23.23545 ], [ -106.42428, 23.23548 ], [ -106.42463, 23.23561 ], [ -106.42531, 23.23597 ], [ -106.42858, 23.2376 ], [ -106.4297, 23.23818 ], [ -106.42974, 23.24043 ], [ -106.42817, 23.24057 ], [ -106.42694, 23.2407 ], [ -106.42522, 23.24093 ], [ -106.42519, 23.24106 ], [ -106.42553, 23.24103 ], [ -106.42578, 23.24172 ], [ -106.42597, 23.24199 ], [ -106.42627, 23.24304 ], [ -106.42669, 23.2446 ], [ -106.42747, 23.24742 ], [ -106.42765, 23.24815 ], [ -106.42481, 23.2488 ], [ -106.42437, 23.2489 ], [ -106.42455, 23.24952 ], [ -106.42455, 23.24973 ], [ -106.42425, 23.25113 ], [ -106.42363, 23.25406 ], [ -106.42336, 23.25538 ], [ -106.42313, 23.25523 ], [ -106.42192, 23.25423 ], [ -106.42175, 23.25413 ], [ -106.42019, 23.25382 ], [ -106.41913, 23.25366 ], [ -106.41887, 23.25356 ], [ -106.4184, 23.25311 ], [ -106.41629, 23.25107 ], [ -106.41465, 23.24945 ], [ -106.41418, 23.24997 ], [ -106.41387, 23.2502 ], [ -106.41274, 23.25085 ], [ -106.41225, 23.25134 ], [ -106.41088, 23.25252 ], [ -106.41388, 23.25543 ], [ -106.41241, 23.25651 ], [ -106.41085, 23.25757 ], [ -106.40891, 23.25889 ], [ -106.40876, 23.25903 ], [ -106.40669, 23.25712 ], [ -106.40303, 23.25365 ], [ -106.40162, 23.25496 ], [ -106.40026, 23.25619 ], [ -106.39824, 23.25804 ], [ -106.39715, 23.25907 ], [ -106.39574, 23.26034 ], [ -106.39522, 23.26076 ], [ -106.39407, 23.26183 ], [ -106.39214, 23.26363 ], [ -106.39078, 23.26491 ], [ -106.39004, 23.26554 ], [ -106.38938, 23.26612 ], [ -106.39023, 23.26685 ], [ -106.39052, 23.26714 ], [ -106.39059, 23.26736 ], [ -106.39066, 23.2678 ], [ -106.39093, 23.26895 ], [ -106.39094, 23.26931 ], [ -106.39093, 23.27062 ], [ -106.39094, 23.2723 ], [ -106.38928, 23.27227 ], [ -106.38832, 23.27227 ], [ -106.38641, 23.27227 ], [ -106.38531, 23.2722 ], [ -106.38397, 23.27215 ], [ -106.38397, 23.2722 ], [ -106.38629, 23.2723 ], [ -106.3877, 23.2723 ], [ -106.38969, 23.2723 ], [ -106.39099, 23.27235 ], [ -106.39099, 23.27017 ], [ -106.39096, 23.26922 ], [ -106.39093, 23.26877 ], [ -106.39074, 23.26795 ], [ -106.39064, 23.26732 ], [ -106.3905, 23.26706 ], [ -106.38985, 23.26646 ], [ -106.38957, 23.26618 ], [ -106.39058, 23.26535 ], [ -106.39221, 23.26385 ], [ -106.39485, 23.26144 ], [ -106.39834, 23.25823 ], [ -106.40307, 23.25387 ], [ -106.40584, 23.25646 ], [ -106.40831, 23.25874 ], [ -106.41125, 23.26148 ], [ -106.41281, 23.26299 ], [ -106.41302, 23.26291 ], [ -106.40989, 23.26008 ], [ -106.40895, 23.25919 ], [ -106.40912, 23.25902 ], [ -106.40974, 23.25857 ], [ -106.41107, 23.25763 ], [ -106.41298, 23.25632 ], [ -106.41414, 23.25553 ], [ -106.41225, 23.2537 ], [ -106.41107, 23.25254 ], [ -106.41263, 23.25112 ], [ -106.41291, 23.25093 ], [ -106.41369, 23.25046 ], [ -106.41423, 23.25012 ], [ -106.41464, 23.24956 ], [ -106.41632, 23.25119 ], [ -106.41832, 23.25316 ], [ -106.41874, 23.25359 ], [ -106.41896, 23.25378 ], [ -106.41969, 23.2539 ], [ -106.42175, 23.25431 ], [ -106.42207, 23.25452 ], [ -106.42326, 23.2555 ], [ -106.42328, 23.25562 ], [ -106.4235, 23.25573 ], [ -106.42359, 23.25559 ], [ -106.42358, 23.25541 ], [ -106.42387, 23.25409 ], [ -106.42479, 23.24969 ], [ -106.42469, 23.24896 ], [ -106.42856, 23.24806 ], [ -106.42798, 23.24592 ], [ -106.42744, 23.2438 ], [ -106.42645, 23.24204 ], [ -106.42583, 23.24092 ], [ -106.42943, 23.24058 ], [ -106.43006, 23.24053 ], [ -106.43131, 23.23993 ], [ -106.43238, 23.23935 ], [ -106.43217, 23.2392 ], [ -106.43146, 23.23893 ], [ -106.4309, 23.23863 ], [ -106.42924, 23.23781 ], [ -106.4264, 23.23641 ], [ -106.4244, 23.23539 ], [ -106.42393, 23.23532 ], [ -106.42365, 23.23503 ], [ -106.42349, 23.23483 ], [ -106.42328, 23.23381 ], [ -106.42272, 23.23114 ], [ -106.42218, 23.22869 ], [ -106.42193, 23.22797 ], [ -106.42164, 23.22741 ], [ -106.42003, 23.22392 ], [ -106.41827, 23.21997 ], [ -106.41656, 23.21634 ], [ -106.41605, 23.21515 ], [ -106.41595, 23.21474 ], [ -106.41593, 23.21436 ], [ -106.41617, 23.21345 ], [ -106.4167, 23.21127 ], [ -106.41728, 23.20985 ], [ -106.41657, 23.2096 ], [ -106.41316, 23.2083 ], [ -106.41188, 23.20779 ], [ -106.41172, 23.20721 ], [ -106.41559, 23.20643 ], [ -106.41894, 23.20575 ], [ -106.42301, 23.20492 ], [ -106.42442, 23.20463 ], [ -106.42441, 23.20274 ], [ -106.42431, 23.20002 ], [ -106.42425, 23.19896 ], [ -106.42416, 23.19804 ], [ -106.424, 23.19745 ] ] } },
{ "type": "Feature", "properties": { "city": "Mazatlán", "route_name": "Villa_Galaxia SHCP - ITMAZ Unidad II", "route_name_short": "Galaxia SHCP - ITMAZ Unidad II", "type": "Bus", "shape_id": "shape_3758" }, "geometry": { "type": "LineString", "coordinates": [ [ -106.42107, 23.20532 ], [ -106.42069, 23.20263 ], [ -106.42026, 23.19996 ], [ -106.4198, 23.19714 ], [ -106.41971, 23.19669 ], [ -106.4198, 23.19664 ], [ -106.41989, 23.19658 ], [ -106.42138, 23.19586 ], [ -106.42283, 23.19522 ], [ -106.42394, 23.19471 ], [ -106.42478, 23.19437 ], [ -106.42517, 23.19424 ], [ -106.4253, 23.19471 ], [ -106.42335, 23.19506 ], [ -106.42282, 23.19514 ], [ -106.42112, 23.19588 ], [ -106.42076, 23.19603 ], [ -106.4212, 23.19811 ], [ -106.42133, 23.19896 ], [ -106.42149, 23.20024 ], [ -106.42166, 23.20256 ], [ -106.42179, 23.20342 ], [ -106.42195, 23.20401 ], [ -106.42213, 23.2044 ], [ -106.42242, 23.20578 ], [ -106.42029, 23.20622 ], [ -106.41914, 23.20778 ], [ -106.41837, 23.20885 ], [ -106.41802, 23.20912 ], [ -106.4175, 23.20939 ], [ -106.41725, 23.20959 ], [ -106.41708, 23.20993 ], [ -106.41669, 23.21096 ], [ -106.41645, 23.21182 ], [ -106.4161, 23.21323 ], [ -106.41591, 23.21406 ], [ -106.41585, 23.21466 ], [ -106.41597, 23.21526 ], [ -106.41628, 23.21605 ], [ -106.41729, 23.21828 ], [ -106.41861, 23.22127 ], [ -106.4199, 23.22404 ], [ -106.42132, 23.22707 ], [ -106.42186, 23.22834 ], [ -106.42212, 23.22904 ], [ -106.42229, 23.22982 ], [ -106.42282, 23.23251 ], [ -106.42336, 23.23491 ], [ -106.42324, 23.23515 ], [ -106.423, 23.23539 ], [ -106.42218, 23.23547 ], [ -106.42115, 23.23553 ], [ -106.42032, 23.23549 ], [ -106.41938, 23.2353 ], [ -106.41813, 23.23502 ], [ -106.41515, 23.23436 ], [ -106.41443, 23.23404 ], [ -106.41394, 23.23383 ], [ -106.4137, 23.23381 ], [ -106.41279, 23.23378 ], [ -106.41274, 23.23375 ], [ -106.41227, 23.23549 ], [ -106.41174, 23.23757 ], [ -106.41167, 23.23799 ], [ -106.41149, 23.23809 ], [ -106.41081, 23.23798 ], [ -106.41041, 23.23954 ], [ -106.40978, 23.24205 ], [ -106.41089, 23.24232 ], [ -106.41145, 23.24247 ], [ -106.41138, 23.24276 ], [ -106.41102, 23.24346 ], [ -106.41077, 23.24446 ], [ -106.41051, 23.2456 ], [ -106.41038, 23.24644 ], [ -106.41033, 23.24686 ], [ -106.41016, 23.24721 ], [ -106.40934, 23.24796 ], [ -106.40731, 23.24975 ], [ -106.40569, 23.25115 ], [ -106.40437, 23.2524 ], [ -106.40201, 23.25459 ], [ -106.39937, 23.25703 ], [ -106.39711, 23.25913 ], [ -106.39454, 23.26143 ], [ -106.39298, 23.26288 ], [ -106.39188, 23.2639 ], [ -106.39091, 23.26477 ], [ -106.3903, 23.26531 ], [ -106.38941, 23.26605 ], [ -106.38815, 23.2649 ], [ -106.38777, 23.26455 ], [ -106.38639, 23.26583 ], [ -106.3852, 23.26691 ], [ -106.38489, 23.26717 ], [ -106.38426, 23.26714 ], [ -106.38405, 23.26712 ], [ -106.38408, 23.26669 ], [ -106.383, 23.26663 ], [ -106.38299, 23.26646 ], [ -106.3829, 23.26636 ], [ -106.38269, 23.26641 ], [ -106.38263, 23.26651 ], [ -106.3827, 23.26669 ], [ -106.38231, 23.26745 ], [ -106.38222, 23.26766 ], [ -106.38169, 23.26872 ], [ -106.38102, 23.26984 ], [ -106.38087, 23.27013 ], [ -106.37989, 23.27009 ], [ -106.37989, 23.26989 ], [ -106.37893, 23.26986 ], [ -106.37833, 23.26992 ], [ -106.37654, 23.27032 ], [ -106.37589, 23.27043 ], [ -106.37569, 23.27037 ], [ -106.37436, 23.26956 ], [ -106.37394, 23.26927 ], [ -106.37398, 23.26885 ], [ -106.37346, 23.26881 ], [ -106.37261, 23.26868 ], [ -106.37268, 23.26817 ], [ -106.37264, 23.26797 ], [ -106.37246, 23.26771 ], [ -106.37208, 23.26777 ], [ -106.3717, 23.26788 ], [ -106.37106, 23.26824 ], [ -106.3702, 23.26883 ], [ -106.36971, 23.26909 ], [ -106.36962, 23.26934 ], [ -106.36967, 23.26971 ], [ -106.36975, 23.27009 ], [ -106.3698, 23.2703 ], [ -106.36991, 23.2705 ], [ -106.37005, 23.27081 ], [ -106.37011, 23.27081 ], [ -106.36982, 23.27026 ], [ -106.36971, 23.26979 ], [ -106.36967, 23.2694 ], [ -106.36975, 23.26914 ], [ -106.37011, 23.26896 ], [ -106.37099, 23.26838 ], [ -106.37169, 23.26794 ], [ -106.37209, 23.26784 ], [ -106.37238, 23.26778 ], [ -106.37255, 23.26802 ], [ -106.37251, 23.26819 ], [ -106.37246, 23.26875 ], [ -106.37394, 23.26892 ], [ -106.37388, 23.2693 ], [ -106.37514, 23.27008 ], [ -106.37575, 23.27043 ], [ -106.3759, 23.27048 ], [ -106.37773, 23.27011 ], [ -106.37875, 23.26991 ], [ -106.37908, 23.26991 ], [ -106.37984, 23.26994 ], [ -106.37982, 23.27015 ], [ -106.38092, 23.27018 ], [ -106.38178, 23.26864 ], [ -106.38246, 23.26736 ], [ -106.38285, 23.26669 ], [ -106.38307, 23.26668 ], [ -106.38404, 23.26673 ], [ -106.384, 23.26717 ], [ -106.38493, 23.26722 ], [ -106.38624, 23.26603 ], [ -106.38777, 23.2646 ], [ -106.3895, 23.2662 ], [ -106.39071, 23.26524 ], [ -106.39171, 23.26429 ], [ -106.39355, 23.26261 ], [ -106.39488, 23.26143 ], [ -106.39728, 23.25919 ], [ -106.39965, 23.25702 ], [ -106.40131, 23.25552 ], [ -106.40321, 23.25373 ], [ -106.40445, 23.25252 ], [ -106.40516, 23.25182 ], [ -106.40599, 23.25109 ], [ -106.40776, 23.24948 ], [ -106.40959, 23.24783 ], [ -106.41025, 23.24724 ], [ -106.41046, 23.24683 ], [ -106.41063, 23.24628 ], [ -106.41093, 23.24521 ], [ -106.4114, 23.24337 ], [ -106.41164, 23.24247 ], [ -106.41189, 23.24207 ], [ -106.41084, 23.24187 ], [ -106.40993, 23.24165 ], [ -106.41084, 23.23802 ], [ -106.41151, 23.23816 ], [ -106.4116, 23.23827 ], [ -106.41173, 23.23825 ], [ -106.41174, 23.23813 ], [ -106.41173, 23.23793 ], [ -106.4123, 23.23568 ], [ -106.41276, 23.23397 ], [ -106.4159, 23.23466 ], [ -106.41961, 23.2355 ], [ -106.42037, 23.23564 ], [ -106.42106, 23.23565 ], [ -106.42215, 23.23561 ], [ -106.42358, 23.23546 ], [ -106.42351, 23.23484 ], [ -106.42327, 23.23378 ], [ -106.42262, 23.23068 ], [ -106.42224, 23.22881 ], [ -106.42189, 23.22791 ], [ -106.4214, 23.2269 ], [ -106.42015, 23.22413 ], [ -106.41827, 23.22002 ], [ -106.41684, 23.21682 ], [ -106.41645, 23.21603 ], [ -106.41598, 23.21499 ], [ -106.41597, 23.21462 ], [ -106.41599, 23.21406 ], [ -106.41667, 23.21136 ], [ -106.41691, 23.21062 ], [ -106.4173, 23.20968 ], [ -106.41764, 23.20945 ], [ -106.41822, 23.20912 ], [ -106.41853, 23.20882 ], [ -106.41981, 23.20704 ], [ -106.42109, 23.20535 ] ] } },
{ "type": "Feature", "properties": { "city": "Mazatlán", "route_name": "Zapata_Juárez Mercado Municipal Pino Suárez - Lucio Valverde", "route_name_short": "Juárez Mercado Municipal Pino Suárez - Lucio Valverde", "type": "Bus", "shape_id": "shape_3757" }, "geometry": { "type": "LineString", "coordinates": [ [ -106.41938, 23.20088 ], [ -106.41959, 23.20197 ], [ -106.42057, 23.20189 ], [ -106.4203, 23.20028 ], [ -106.41747, 23.2008 ], [ -106.41525, 23.20119 ], [ -106.41531, 23.20154 ], [ -106.41385, 23.2018 ], [ -106.41257, 23.20201 ], [ -106.41183, 23.20369 ], [ -106.41104, 23.20548 ], [ -106.41041, 23.20697 ], [ -106.40997, 23.20804 ], [ -106.40944, 23.20926 ], [ -106.4091, 23.20981 ], [ -106.40833, 23.21091 ], [ -106.40684, 23.21298 ], [ -106.40508, 23.21543 ], [ -106.40443, 23.21632 ], [ -106.40392, 23.21726 ], [ -106.40355, 23.21793 ], [ -106.40307, 23.21901 ], [ -106.40288, 23.21966 ], [ -106.40268, 23.22015 ], [ -106.40238, 23.22092 ], [ -106.40172, 23.22226 ], [ -106.40052, 23.22483 ], [ -106.40033, 23.22522 ], [ -106.40172, 23.22631 ], [ -106.4034, 23.22765 ], [ -106.4048, 23.22877 ], [ -106.40525, 23.22909 ], [ -106.40445, 23.23045 ], [ -106.40406, 23.2302 ], [ -106.40294, 23.22933 ], [ -106.39947, 23.22652 ], [ -106.39815, 23.2282 ], [ -106.39789, 23.22849 ], [ -106.39718, 23.22941 ], [ -106.39578, 23.23113 ], [ -106.394, 23.23336 ], [ -106.39353, 23.23381 ], [ -106.39316, 23.23395 ], [ -106.39269, 23.23394 ], [ -106.3923, 23.23374 ], [ -106.39129, 23.23285 ], [ -106.39005, 23.2316 ], [ -106.38975, 23.23153 ], [ -106.38942, 23.23152 ], [ -106.38951, 23.23202 ], [ -106.38967, 23.234 ], [ -106.39, 23.23841 ], [ -106.39001, 23.23907 ], [ -106.38999, 23.23927 ], [ -106.39014, 23.24131 ], [ -106.39028, 23.24185 ], [ -106.39067, 23.24246 ], [ -106.39214, 23.24383 ], [ -106.39351, 23.24501 ], [ -106.39677, 23.24804 ], [ -106.39985, 23.25095 ], [ -106.40057, 23.25164 ], [ -106.40194, 23.25285 ], [ -106.40294, 23.25376 ], [ -106.40299, 23.25366 ], [ -106.40153, 23.25235 ], [ -106.39952, 23.25056 ], [ -106.3992, 23.2502 ], [ -106.39902, 23.24983 ], [ -106.39931, 23.24954 ], [ -106.39946, 23.24948 ], [ -106.39981, 23.24934 ], [ -106.40059, 23.24869 ], [ -106.40299, 23.2466 ], [ -106.40561, 23.24915 ], [ -106.40675, 23.25021 ], [ -106.40362, 23.2531 ], [ -106.40099, 23.25551 ], [ -106.40035, 23.25611 ], [ -106.40132, 23.25681 ], [ -106.40128, 23.25709 ], [ -106.40127, 23.25744 ], [ -106.40143, 23.25812 ], [ -106.40188, 23.26025 ], [ -106.40209, 23.26149 ], [ -106.4022, 23.26167 ], [ -106.40246, 23.26204 ], [ -106.40347, 23.26147 ], [ -106.40354, 23.26169 ], [ -106.40372, 23.26194 ], [ -106.40326, 23.26246 ], [ -106.40105, 23.26512 ], [ -106.39953, 23.26691 ], [ -106.39773, 23.26905 ], [ -106.39718, 23.26973 ], [ -106.39723, 23.26988 ], [ -106.39736, 23.26975 ], [ -106.40082, 23.26562 ], [ -106.4033, 23.26271 ], [ -106.40384, 23.26203 ], [ -106.40366, 23.26176 ], [ -106.40353, 23.26148 ], [ -106.40347, 23.26138 ], [ -106.4025, 23.26196 ], [ -106.40229, 23.26167 ], [ -106.40215, 23.26148 ], [ -106.40203, 23.2609 ], [ -106.40146, 23.25803 ], [ -106.40132, 23.25744 ], [ -106.40135, 23.25708 ], [ -106.40138, 23.25678 ], [ -106.40054, 23.25619 ], [ -106.4033, 23.25366 ], [ -106.4051, 23.25192 ], [ -106.40539, 23.25163 ], [ -106.40686, 23.2503 ], [ -106.40859, 23.24875 ], [ -106.40854, 23.2487 ], [ -106.4068, 23.25019 ], [ -106.40546, 23.24894 ], [ -106.40352, 23.24706 ], [ -106.40303, 23.24656 ], [ -106.40437, 23.24534 ], [ -106.40268, 23.24366 ], [ -106.40161, 23.24263 ], [ -106.39954, 23.24442 ], [ -106.39914, 23.24476 ], [ -106.39892, 23.24513 ], [ -106.39869, 23.24574 ], [ -106.39845, 23.24611 ], [ -106.3981, 23.24643 ], [ -106.39772, 23.24674 ], [ -106.39734, 23.24701 ], [ -106.39697, 23.24734 ], [ -106.39671, 23.24759 ], [ -106.39606, 23.24701 ], [ -106.39576, 23.24695 ], [ -106.39443, 23.24571 ], [ -106.39197, 23.24347 ], [ -106.39102, 23.24244 ], [ -106.39059, 23.24188 ], [ -106.39039, 23.24129 ], [ -106.39033, 23.24023 ], [ -106.39019, 23.23908 ], [ -106.39014, 23.2389 ], [ -106.3899, 23.23548 ], [ -106.38968, 23.23199 ], [ -106.38992, 23.23185 ], [ -106.39014, 23.23187 ], [ -106.39188, 23.23349 ], [ -106.39239, 23.23389 ], [ -106.39282, 23.23407 ], [ -106.39328, 23.23403 ], [ -106.39374, 23.23383 ], [ -106.39418, 23.23337 ], [ -106.39495, 23.23231 ], [ -106.39709, 23.22963 ], [ -106.39786, 23.22877 ], [ -106.39794, 23.22871 ], [ -106.39818, 23.2289 ], [ -106.3988, 23.22918 ], [ -106.4, 23.23016 ], [ -106.40204, 23.23177 ], [ -106.40253, 23.23217 ], [ -106.40336, 23.23258 ], [ -106.4047, 23.23012 ], [ -106.40532, 23.22907 ], [ -106.40473, 23.22869 ], [ -106.4036, 23.22777 ], [ -106.40123, 23.22584 ], [ -106.40045, 23.22522 ], [ -106.40201, 23.22189 ], [ -106.40276, 23.2203 ], [ -106.40324, 23.21894 ], [ -106.40359, 23.21808 ], [ -106.40413, 23.2171 ], [ -106.40493, 23.21591 ], [ -106.40651, 23.21368 ], [ -106.40748, 23.21237 ], [ -106.40889, 23.21039 ], [ -106.40981, 23.20903 ], [ -106.41098, 23.20745 ], [ -106.41192, 23.20618 ], [ -106.41296, 23.20472 ], [ -106.41319, 23.20433 ], [ -106.41362, 23.20378 ], [ -106.41361, 23.20262 ], [ -106.41351, 23.20191 ], [ -106.41623, 23.20141 ], [ -106.41935, 23.20088 ] ] } }
]
}
