{
"type": "FeatureCollection",
"name": "reynosa",
"crs": { "type": "name", "properties": { "name": "urn:ogc:def:crs:OGC:1.3:CRS84" } },
"features": [
{ "type": "Feature", "properties": { "city": "Reynosa", "route_name": "1_Narciso Reynosa", "route_name_short": "Narciso Reynosa", "type": "Bus", "shape_id": "shape_3441" }, "geometry": { "type": "LineString", "coordinates": [ [ -98.28951, 26.08618 ], [ -98.28719, 26.08657 ], [ -98.28504, 26.08636 ], [ -98.2848, 26.08707 ], [ -98.28365, 26.09121 ], [ -98.2827, 26.09606 ], [ -98.27532, 26.09446 ], [ -98.27668, 26.08781 ], [ -98.2812, 26.08887 ], [ -98.28137, 26.08816 ], [ -98.28189, 26.08783 ], [ -98.28294, 26.08483 ], [ -98.28528, 26.08539 ], [ -98.28635, 26.0857 ], [ -98.28926, 26.08612 ], [ -98.29103, 26.08596 ], [ -98.29461, 26.08473 ], [ -98.3, 26.08259 ], [ -98.31058, 26.07833 ], [ -98.30837, 26.06157 ], [ -98.30616, 26.05948 ], [ -98.30341, 26.0591 ], [ -98.30352, 26.05825 ], [ -98.30365, 26.0574 ], [ -98.30392, 26.05741 ], [ -98.30405, 26.05752 ], [ -98.30431, 26.05467 ], [ -98.30259, 26.05458 ], [ -98.30099, 26.05484 ], [ -98.29908, 26.05312 ], [ -98.30054, 26.04377 ], [ -98.29725, 26.04355 ], [ -98.29791, 26.04339 ], [ -98.29865, 26.04338 ], [ -98.29852, 26.03988 ], [ -98.30367, 26.0414 ], [ -98.30367, 26.0414 ], [ -98.29852, 26.03988 ], [ -98.29865, 26.04338 ], [ -98.29791, 26.04339 ], [ -98.29725, 26.04355 ], [ -98.30054, 26.04377 ], [ -98.29908, 26.05312 ], [ -98.30099, 26.05484 ], [ -98.30259, 26.05458 ], [ -98.30431, 26.05467 ], [ -98.30405, 26.05752 ], [ -98.30392, 26.05741 ], [ -98.30365, 26.0574 ], [ -98.30352, 26.05825 ], [ -98.30341, 26.0591 ], [ -98.30616, 26.05948 ], [ -98.30837, 26.06157 ], [ -98.31058, 26.07833 ], [ -98.3, 26.08259 ], [ -98.29461, 26.08473 ], [ -98.29103, 26.08596 ], [ -98.28926, 26.08612 ], [ -98.28635, 26.0857 ], [ -98.28528, 26.08539 ], [ -98.28294, 26.08483 ], [ -98.28189, 26.08783 ], [ -98.28137, 26.08816 ], [ -98.2812, 26.08887 ], [ -98.27668, 26.08781 ], [ -98.27532, 26.09446 ], [ -98.2827, 26.09606 ], [ -98.28365, 26.09121 ], [ -98.2848, 26.08707 ], [ -98.28504, 26.08636 ], [ -98.28718, 26.08657 ] ] } },
{ "type": "Feature", "properties": { "city": "Reynosa", "route_name": "2_Ernesto Zedillo - clínica 18", "route_name_short": "Ernesto Zedillo - clínica 18", "type": "Bus", "shape_id": "shape_3442" }, "geometry": { "type": "LineString", "coordinates": [ [ -98.27918, 26.08481 ], [ -98.28507, 26.08631 ], [ -98.28361, 26.09117 ], [ -98.28266, 26.09608 ], [ -98.27524, 26.09452 ], [ -98.27672, 26.08787 ], [ -98.27766, 26.08812 ], [ -98.27755, 26.08689 ], [ -98.27818, 26.08377 ], [ -98.27908, 26.08298 ], [ -98.2798, 26.0822 ], [ -98.28155, 26.07729 ], [ -98.27558, 26.0765 ], [ -98.27573, 26.07344 ], [ -98.2762, 26.07037 ], [ -98.27217, 26.06904 ], [ -98.26856, 26.06872 ], [ -98.26522, 26.06814 ], [ -98.26238, 26.06767 ], [ -98.26318, 26.06415 ], [ -98.25839, 26.06322 ], [ -98.259, 26.05875 ], [ -98.26101, 26.05829 ], [ -98.26191, 26.05231 ], [ -98.26663, 26.04763 ], [ -98.27105, 26.04402 ], [ -98.2764, 26.04092 ], [ -98.27762, 26.03986 ], [ -98.27771, 26.03737 ], [ -98.26941, 26.03372 ], [ -98.26912, 26.03403 ], [ -98.26905, 26.03447 ], [ -98.26974, 26.03618 ], [ -98.27033, 26.03617 ], [ -98.27105, 26.03789 ], [ -98.27146, 26.0387 ], [ -98.272, 26.03942 ], [ -98.27132, 26.04027 ], [ -98.27132, 26.04027 ], [ -98.272, 26.03942 ], [ -98.27146, 26.0387 ], [ -98.27105, 26.03789 ], [ -98.27033, 26.03617 ], [ -98.26974, 26.03618 ], [ -98.26905, 26.03447 ], [ -98.26912, 26.03403 ], [ -98.26941, 26.03372 ], [ -98.27771, 26.03737 ], [ -98.27762, 26.03986 ], [ -98.2764, 26.04092 ], [ -98.27105, 26.04402 ], [ -98.26663, 26.04763 ], [ -98.26191, 26.05231 ], [ -98.26101, 26.05829 ], [ -98.26088, 26.05908 ], [ -98.2603, 26.06353 ], [ -98.26318, 26.06415 ], [ -98.26238, 26.06767 ], [ -98.26522, 26.06814 ], [ -98.26856, 26.06872 ], [ -98.27217, 26.06904 ], [ -98.2762, 26.07037 ], [ -98.27573, 26.07344 ], [ -98.27558, 26.0765 ], [ -98.28155, 26.07729 ], [ -98.2798, 26.0822 ], [ -98.27908, 26.08298 ], [ -98.27818, 26.08377 ], [ -98.27755, 26.08689 ], [ -98.27766, 26.08812 ], [ -98.27672, 26.08787 ], [ -98.27524, 26.09452 ], [ -98.28266, 26.09608 ], [ -98.28361, 26.09117 ], [ -98.28519, 26.08635 ], [ -98.27933, 26.08492 ], [ -98.27976, 26.0825 ] ] } },
{ "type": "Feature", "properties": { "city": "Reynosa", "route_name": "3_Vista Hermosa - 20 Aztlán", "route_name_short": "Vista Hermosa - 20 Aztlán", "type": "Bus", "shape_id": "shape_3443" }, "geometry": { "type": "LineString", "coordinates": [ [ -98.36317, 26.0812 ], [ -98.36087, 26.08055 ], [ -98.36171, 26.07854 ], [ -98.36182, 26.07747 ], [ -98.36459, 26.07014 ], [ -98.36002, 26.0687 ], [ -98.35854, 26.0595 ], [ -98.3409, 26.06642 ], [ -98.33017, 26.07068 ], [ -98.32377, 26.07035 ], [ -98.3256, 26.05989 ], [ -98.3231, 26.05988 ], [ -98.32351, 26.06097 ], [ -98.32358, 26.06193 ], [ -98.32153, 26.06184 ], [ -98.31762, 26.06137 ], [ -98.31577, 26.0609 ], [ -98.31018, 26.06019 ], [ -98.30798, 26.05993 ], [ -98.30625, 26.05951 ], [ -98.30484, 26.05812 ], [ -98.30388, 26.05737 ], [ -98.30365, 26.05739 ], [ -98.30349, 26.05846 ], [ -98.30048, 26.05812 ], [ -98.30028, 26.05966 ], [ -98.30023, 26.06002 ], [ -98.30016, 26.06054 ], [ -98.29616, 26.06006 ], [ -98.29667, 26.05654 ], [ -98.29298, 26.05599 ], [ -98.29545, 26.06152 ], [ -98.29549, 26.06241 ], [ -98.2952, 26.06342 ], [ -98.2937, 26.06475 ], [ -98.29223, 26.06598 ], [ -98.29048, 26.06746 ], [ -98.28871, 26.06907 ], [ -98.28657, 26.07084 ], [ -98.28464, 26.07253 ], [ -98.28284, 26.07433 ], [ -98.28242, 26.07505 ], [ -98.28183, 26.07649 ], [ -98.28135, 26.07771 ], [ -98.28074, 26.07949 ], [ -98.28019, 26.08108 ], [ -98.27969, 26.08225 ], [ -98.27925, 26.08285 ], [ -98.27841, 26.08338 ], [ -98.27818, 26.08385 ], [ -98.27797, 26.0849 ], [ -98.2776, 26.08683 ], [ -98.27769, 26.08793 ], [ -98.27762, 26.08807 ], [ -98.27663, 26.08782 ], [ -98.27528, 26.0945 ], [ -98.28262, 26.09603 ], [ -98.28262, 26.09603 ], [ -98.28365, 26.09125 ], [ -98.28427, 26.0888 ], [ -98.28511, 26.08642 ], [ -98.27925, 26.08481 ], [ -98.27953, 26.08359 ], [ -98.27963, 26.08314 ], [ -98.27971, 26.08277 ], [ -98.2798, 26.08239 ], [ -98.27983, 26.08231 ], [ -98.27986, 26.08219 ], [ -98.27989, 26.08209 ], [ -98.27991, 26.08199 ], [ -98.27988, 26.08195 ], [ -98.28019, 26.08108 ], [ -98.28084, 26.07949 ], [ -98.28152, 26.07776 ], [ -98.28197, 26.07655 ], [ -98.28251, 26.07509 ], [ -98.28297, 26.07434 ], [ -98.28464, 26.07253 ], [ -98.28657, 26.07084 ], [ -98.28871, 26.06907 ], [ -98.29048, 26.06746 ], [ -98.29223, 26.06598 ], [ -98.2937, 26.06475 ], [ -98.2952, 26.06342 ], [ -98.29549, 26.06241 ], [ -98.29545, 26.06152 ], [ -98.29401, 26.05803 ], [ -98.2965, 26.05828 ], [ -98.29654, 26.05828 ], [ -98.29649, 26.05829 ], [ -98.29728, 26.05839 ], [ -98.29842, 26.05852 ], [ -98.29951, 26.05865 ], [ -98.30003, 26.05872 ], [ -98.30018, 26.05872 ], [ -98.3005, 26.05872 ], [ -98.30032, 26.05874 ], [ -98.30078, 26.05877 ], [ -98.30133, 26.05885 ], [ -98.30174, 26.05889 ], [ -98.3031, 26.05905 ], [ -98.30357, 26.05911 ], [ -98.30414, 26.05918 ], [ -98.30472, 26.05928 ], [ -98.30625, 26.05951 ], [ -98.30798, 26.05993 ], [ -98.31018, 26.06019 ], [ -98.31577, 26.0609 ], [ -98.31762, 26.06137 ], [ -98.32153, 26.06184 ], [ -98.32358, 26.06193 ], [ -98.32351, 26.06097 ], [ -98.3231, 26.05988 ], [ -98.3256, 26.05989 ], [ -98.32377, 26.07035 ], [ -98.33017, 26.07068 ], [ -98.3409, 26.06642 ], [ -98.35854, 26.0595 ], [ -98.36002, 26.0687 ], [ -98.36459, 26.07014 ], [ -98.36182, 26.07747 ], [ -98.36171, 26.07854 ], [ -98.36093, 26.08059 ], [ -98.3632, 26.08129 ] ] } },
{ "type": "Feature", "properties": { "city": "Reynosa", "route_name": "5_Jarachina", "route_name_short": "Jarachina", "type": "Bus", "shape_id": "shape_3445" }, "geometry": { "type": "LineString", "coordinates": [ [ -98.27532, 26.09448 ], [ -98.2761, 26.09027 ], [ -98.27012, 26.08895 ], [ -98.27092, 26.08606 ], [ -98.27243, 26.08672 ], [ -98.27399, 26.0872 ], [ -98.27766, 26.08808 ], [ -98.2785, 26.08829 ], [ -98.27869, 26.08734 ], [ -98.2786, 26.08695 ], [ -98.27898, 26.08558 ], [ -98.28139, 26.08623 ], [ -98.28485, 26.08713 ], [ -98.28507, 26.08642 ], [ -98.28577, 26.08659 ], [ -98.28633, 26.08675 ], [ -98.2869, 26.08668 ], [ -98.29017, 26.08624 ], [ -98.29101, 26.08607 ], [ -98.29404, 26.08487 ], [ -98.29712, 26.08371 ], [ -98.30017, 26.08247 ], [ -98.30331, 26.08128 ], [ -98.30649, 26.08003 ], [ -98.31284, 26.07751 ], [ -98.32544, 26.07256 ], [ -98.32835, 26.07141 ], [ -98.33054, 26.07062 ], [ -98.34359, 26.06553 ], [ -98.35711, 26.06027 ], [ -98.35863, 26.05963 ], [ -98.35855, 26.05946 ], [ -98.35701, 26.06005 ], [ -98.35641, 26.05873 ], [ -98.35362, 26.05285 ], [ -98.35124, 26.05382 ], [ -98.35068, 26.0526 ], [ -98.34937, 26.05312 ], [ -98.34858, 26.05339 ], [ -98.34816, 26.05372 ], [ -98.34714, 26.05289 ], [ -98.34613, 26.05384 ], [ -98.3475, 26.05497 ], [ -98.3472, 26.05533 ], [ -98.34704, 26.05567 ], [ -98.34404, 26.05529 ], [ -98.34446, 26.05244 ], [ -98.34476, 26.0506 ], [ -98.34904, 26.05102 ], [ -98.34927, 26.049 ], [ -98.3495, 26.0488 ], [ -98.34976, 26.04866 ], [ -98.35539, 26.04926 ], [ -98.35823, 26.0495 ], [ -98.35825, 26.04921 ], [ -98.35543, 26.04892 ], [ -98.35623, 26.04358 ], [ -98.35647, 26.04253 ], [ -98.35706, 26.03867 ], [ -98.35684, 26.03868 ], [ -98.35629, 26.04251 ], [ -98.35616, 26.04361 ], [ -98.35537, 26.04896 ], [ -98.34935, 26.04828 ], [ -98.34925, 26.04862 ], [ -98.34899, 26.05098 ], [ -98.34473, 26.05055 ], [ -98.34437, 26.05249 ], [ -98.34398, 26.05533 ], [ -98.34709, 26.05571 ], [ -98.34726, 26.05536 ], [ -98.34757, 26.05497 ], [ -98.34622, 26.05383 ], [ -98.34714, 26.05295 ], [ -98.34814, 26.05381 ], [ -98.34866, 26.05343 ], [ -98.34943, 26.05314 ], [ -98.35065, 26.05264 ], [ -98.35122, 26.05387 ], [ -98.35358, 26.05291 ], [ -98.35697, 26.06006 ], [ -98.34351, 26.06537 ], [ -98.33064, 26.07041 ], [ -98.32999, 26.07077 ], [ -98.32544, 26.0725 ], [ -98.31275, 26.07745 ], [ -98.30652, 26.07995 ], [ -98.30328, 26.08113 ], [ -98.30018, 26.08235 ], [ -98.2971, 26.0836 ], [ -98.29397, 26.08483 ], [ -98.291, 26.08599 ], [ -98.29015, 26.08616 ], [ -98.28669, 26.0866 ], [ -98.28614, 26.08655 ], [ -98.28505, 26.08635 ], [ -98.28409, 26.08941 ], [ -98.28258, 26.09602 ], [ -98.28026, 26.09558 ], [ -98.27891, 26.09533 ], [ -98.2779, 26.09508 ], [ -98.27719, 26.09496 ], [ -98.27644, 26.09475 ], [ -98.27575, 26.09458 ], [ -98.27526, 26.09448 ] ] } },
{ "type": "Feature", "properties": { "city": "Reynosa", "route_name": "4_Balcones de Alcalá - col. México - Centro por los andes", "route_name_short": "Balcones de Alcalá - col. México - Centro por los andes", "type": "Bus", "shape_id": "shape_3444" }, "geometry": { "type": "LineString", "coordinates": [ [ -98.27519, 26.0945 ], [ -98.2826, 26.096 ], [ -98.28509, 26.08627 ], [ -98.28875, 26.07438 ], [ -98.29015, 26.06979 ], [ -98.2903, 26.06929 ], [ -98.28942, 26.06858 ], [ -98.29097, 26.06723 ], [ -98.295, 26.06361 ], [ -98.29564, 26.0622 ], [ -98.29459, 26.0594 ], [ -98.29302, 26.05578 ], [ -98.29002, 26.04948 ], [ -98.28622, 26.04155 ], [ -98.28517, 26.04038 ], [ -98.28279, 26.0397 ], [ -98.28131, 26.03876 ], [ -98.27807, 26.03729 ], [ -98.27835, 26.03444 ], [ -98.27871, 26.03247 ], [ -98.2788, 26.02929 ], [ -98.27843, 26.02613 ], [ -98.27811, 26.02216 ], [ -98.27755, 26.01772 ], [ -98.27725, 26.01414 ], [ -98.27668, 26.00912 ], [ -98.27648, 26.00719 ], [ -98.27577, 26.00731 ], [ -98.27292, 26.00685 ], [ -98.26747, 26.00621 ], [ -98.26537, 26.00592 ], [ -98.26404, 26.00644 ], [ -98.26356, 26.00661 ], [ -98.26337, 26.00723 ], [ -98.26025, 26.00688 ], [ -98.26024, 26.00644 ], [ -98.25799, 26.00609 ], [ -98.25646, 26.006 ], [ -98.25627, 26.00632 ], [ -98.25423, 26.0061 ], [ -98.25109, 26.00568 ], [ -98.25094, 26.00656 ], [ -98.2487, 26.0063 ], [ -98.24932, 26.00248 ], [ -98.2517, 26.00283 ], [ -98.25188, 26.00164 ], [ -98.2533, 26.00184 ], [ -98.25349, 26.00066 ], [ -98.25153, 26.00048 ], [ -98.25141, 26.00164 ], [ -98.24952, 26.00135 ], [ -98.24979, 25.99942 ], [ -98.25071, 25.99957 ], [ -98.25166, 25.9997 ], [ -98.25364, 25.99988 ], [ -98.25378, 25.99874 ], [ -98.24999, 25.99823 ], [ -98.25003, 25.99825 ], [ -98.24994, 25.99864 ], [ -98.25176, 25.99888 ], [ -98.25183, 25.9985 ], [ -98.25378, 25.99874 ], [ -98.25364, 25.99988 ], [ -98.25166, 25.9997 ], [ -98.25071, 25.99957 ], [ -98.24979, 25.99942 ], [ -98.24952, 26.00135 ], [ -98.25141, 26.00164 ], [ -98.25153, 26.00048 ], [ -98.25349, 26.00066 ], [ -98.2533, 26.00184 ], [ -98.25188, 26.00164 ], [ -98.2517, 26.00283 ], [ -98.24932, 26.00248 ], [ -98.2487, 26.0063 ], [ -98.25094, 26.00656 ], [ -98.25109, 26.00568 ], [ -98.25423, 26.0061 ], [ -98.25627, 26.00632 ], [ -98.25646, 26.006 ], [ -98.25799, 26.00609 ], [ -98.26024, 26.00644 ], [ -98.26025, 26.00688 ], [ -98.26337, 26.00723 ], [ -98.26356, 26.00661 ], [ -98.26404, 26.00644 ], [ -98.26537, 26.00592 ], [ -98.26747, 26.00621 ], [ -98.27292, 26.00685 ], [ -98.27577, 26.00731 ], [ -98.27648, 26.00719 ], [ -98.27668, 26.00912 ], [ -98.27725, 26.01414 ], [ -98.27755, 26.01772 ], [ -98.27811, 26.02216 ], [ -98.27843, 26.02613 ], [ -98.2788, 26.02929 ], [ -98.27871, 26.03247 ], [ -98.27691, 26.03398 ], [ -98.27528, 26.035 ], [ -98.27436, 26.03542 ], [ -98.27328, 26.03562 ], [ -98.28131, 26.03876 ], [ -98.28279, 26.0397 ], [ -98.28517, 26.04038 ], [ -98.28622, 26.04155 ], [ -98.29002, 26.04948 ], [ -98.29302, 26.05578 ], [ -98.29459, 26.0594 ], [ -98.29564, 26.0622 ], [ -98.295, 26.06361 ], [ -98.29097, 26.06723 ], [ -98.28942, 26.06858 ], [ -98.2903, 26.06929 ], [ -98.29015, 26.06979 ], [ -98.28875, 26.07438 ], [ -98.28509, 26.08627 ], [ -98.2826, 26.096 ] ] } },
{ "type": "Feature", "properties": { "city": "Reynosa", "route_name": "6_villas la Joya - IMSS", "route_name_short": "villas la Joya - IMSS", "type": "Bus", "shape_id": "shape_3446" }, "geometry": { "type": "LineString", "coordinates": [ [ -98.23863, 25.99359 ], [ -98.24039, 25.99331 ], [ -98.24073, 25.99583 ], [ -98.24117, 25.99866 ], [ -98.23961, 25.9988 ], [ -98.23938, 25.99933 ], [ -98.23894, 25.99938 ], [ -98.23822, 26.00014 ], [ -98.23806, 26.0011 ], [ -98.23867, 26.00108 ], [ -98.2391, 26.00106 ], [ -98.23977, 26.00114 ], [ -98.24023, 25.99986 ], [ -98.24151, 25.99981 ], [ -98.24057, 26.00274 ], [ -98.24263, 26.00328 ], [ -98.24345, 26.00084 ], [ -98.24377, 25.99999 ], [ -98.2476, 26.00102 ], [ -98.24692, 26.00303 ], [ -98.24529, 26.00781 ], [ -98.24403, 26.00712 ], [ -98.24022, 26.00523 ], [ -98.23889, 26.00722 ], [ -98.24809, 26.00984 ], [ -98.24794, 26.01119 ], [ -98.25132, 26.01166 ], [ -98.25143, 26.01148 ], [ -98.2532, 26.01146 ], [ -98.2592, 26.01146 ], [ -98.26016, 26.01139 ], [ -98.26075, 26.01138 ], [ -98.26169, 26.01146 ], [ -98.26523, 26.01146 ], [ -98.26497, 26.01291 ], [ -98.26218, 26.01286 ], [ -98.26221, 26.01762 ], [ -98.26297, 26.0176 ], [ -98.26404, 26.01777 ], [ -98.26492, 26.01783 ], [ -98.2647, 26.01873 ], [ -98.26451, 26.01892 ], [ -98.26438, 26.01962 ], [ -98.26399, 26.02155 ], [ -98.26837, 26.02216 ], [ -98.27007, 26.02235 ], [ -98.27194, 26.02179 ], [ -98.27363, 26.02123 ], [ -98.27438, 26.02096 ], [ -98.27511, 26.02088 ], [ -98.27573, 26.02088 ], [ -98.27775, 26.02125 ], [ -98.27848, 26.02829 ], [ -98.27858, 26.02954 ], [ -98.27858, 26.0302 ], [ -98.27869, 26.0308 ], [ -98.27871, 26.03128 ], [ -98.27871, 26.03161 ], [ -98.27867, 26.03197 ], [ -98.27843, 26.03247 ], [ -98.27765, 26.03337 ], [ -98.27761, 26.03352 ], [ -98.2776, 26.03361 ], [ -98.27767, 26.0337 ], [ -98.27806, 26.03417 ], [ -98.27817, 26.03438 ], [ -98.27814, 26.03465 ], [ -98.2779, 26.03572 ], [ -98.27777, 26.03673 ], [ -98.27777, 26.03719 ], [ -98.27774, 26.03762 ], [ -98.27792, 26.03773 ], [ -98.28041, 26.03888 ], [ -98.28256, 26.03982 ], [ -98.28458, 26.04066 ], [ -98.28516, 26.04092 ], [ -98.28542, 26.04106 ], [ -98.28563, 26.04125 ], [ -98.28584, 26.04144 ], [ -98.28601, 26.04167 ], [ -98.2863, 26.04216 ], [ -98.28686, 26.04322 ], [ -98.28869, 26.04719 ], [ -98.2901, 26.04958 ], [ -98.29124, 26.05225 ], [ -98.2921, 26.05424 ], [ -98.29356, 26.05717 ], [ -98.29463, 26.05958 ], [ -98.29534, 26.06122 ], [ -98.29552, 26.06166 ], [ -98.29556, 26.06222 ], [ -98.29552, 26.06262 ], [ -98.29539, 26.06301 ], [ -98.29515, 26.06347 ], [ -98.29496, 26.0638 ], [ -98.29446, 26.06409 ], [ -98.29202, 26.06629 ], [ -98.29039, 26.0676 ], [ -98.2893, 26.0686 ], [ -98.29034, 26.06937 ], [ -98.29016, 26.06987 ], [ -98.29324, 26.07269 ], [ -98.29586, 26.07498 ], [ -98.30019, 26.0791 ], [ -98.30287, 26.08161 ], [ -98.30974, 26.0786 ], [ -98.30287, 26.08161 ], [ -98.30054, 26.07966 ], [ -98.29611, 26.07531 ], [ -98.29345, 26.07284 ], [ -98.29016, 26.06987 ], [ -98.29034, 26.06937 ], [ -98.2893, 26.0686 ], [ -98.29073, 26.06752 ], [ -98.29215, 26.06628 ], [ -98.29455, 26.06418 ], [ -98.29517, 26.06365 ], [ -98.29558, 26.06308 ], [ -98.29575, 26.06276 ], [ -98.29575, 26.0624 ], [ -98.29571, 26.06176 ], [ -98.29547, 26.06118 ], [ -98.29476, 26.05953 ], [ -98.29412, 26.05819 ], [ -98.29376, 26.05723 ], [ -98.29225, 26.05424 ], [ -98.29139, 26.05226 ], [ -98.2901, 26.04958 ], [ -98.28867, 26.04659 ], [ -98.28696, 26.0432 ], [ -98.28603, 26.04115 ], [ -98.2859, 26.04088 ], [ -98.28562, 26.04064 ], [ -98.28429, 26.04003 ], [ -98.28367, 26.0399 ], [ -98.28318, 26.03974 ], [ -98.28264, 26.03953 ], [ -98.28109, 26.03864 ], [ -98.28064, 26.03833 ], [ -98.27906, 26.0377 ], [ -98.27803, 26.03724 ], [ -98.27604, 26.03657 ], [ -98.27559, 26.03626 ], [ -98.27532, 26.03598 ], [ -98.27518, 26.03576 ], [ -98.27515, 26.03552 ], [ -98.27522, 26.03523 ], [ -98.27552, 26.03484 ], [ -98.27713, 26.03367 ], [ -98.27758, 26.03361 ], [ -98.27795, 26.03401 ], [ -98.27808, 26.03419 ], [ -98.27817, 26.03439 ], [ -98.27831, 26.03444 ], [ -98.27847, 26.03442 ], [ -98.27861, 26.03403 ], [ -98.27865, 26.03379 ], [ -98.27868, 26.0335 ], [ -98.27872, 26.03259 ], [ -98.27879, 26.03198 ], [ -98.27888, 26.03164 ], [ -98.27892, 26.03131 ], [ -98.27888, 26.03062 ], [ -98.27875, 26.02873 ], [ -98.27831, 26.02466 ], [ -98.27811, 26.0215 ], [ -98.27762, 26.02114 ], [ -98.27573, 26.02088 ], [ -98.27438, 26.02096 ], [ -98.27363, 26.02123 ], [ -98.27194, 26.02179 ], [ -98.27007, 26.02235 ], [ -98.26837, 26.02216 ], [ -98.26399, 26.02155 ], [ -98.26438, 26.01962 ], [ -98.26492, 26.01783 ], [ -98.26404, 26.01777 ], [ -98.26297, 26.0176 ], [ -98.26221, 26.01762 ], [ -98.26218, 26.01286 ], [ -98.26497, 26.01291 ], [ -98.26523, 26.01146 ], [ -98.26169, 26.01146 ], [ -98.26086, 26.0114 ], [ -98.26016, 26.01139 ], [ -98.2592, 26.01146 ], [ -98.25633, 26.01146 ], [ -98.2532, 26.01146 ], [ -98.25143, 26.01148 ], [ -98.25132, 26.01166 ], [ -98.24794, 26.01119 ], [ -98.24809, 26.00984 ], [ -98.24434, 26.00874 ], [ -98.24151, 26.00798 ], [ -98.23889, 26.00722 ], [ -98.24022, 26.00523 ], [ -98.24403, 26.00712 ], [ -98.24529, 26.00781 ], [ -98.24612, 26.00548 ], [ -98.24692, 26.00303 ], [ -98.2476, 26.00102 ], [ -98.24377, 25.99999 ], [ -98.24345, 26.00084 ], [ -98.24263, 26.00328 ], [ -98.24057, 26.00274 ], [ -98.24151, 25.99981 ], [ -98.24023, 25.99986 ], [ -98.23977, 26.00114 ], [ -98.23806, 26.0011 ], [ -98.23822, 26.00014 ], [ -98.23894, 25.99938 ], [ -98.23938, 25.99933 ], [ -98.23961, 25.9988 ], [ -98.24117, 25.99866 ], [ -98.24039, 25.99331 ], [ -98.23863, 25.99359 ] ] } },
{ "type": "Feature", "properties": { "city": "Reynosa", "route_name": "7_Almaguer por Cerro del Cubilete", "route_name_short": "Almaguer por Cerro del Cubilete", "type": "Bus", "shape_id": "shape_3448" }, "geometry": { "type": "LineString", "coordinates": [ [ -98.2812, 26.09574 ], [ -98.27519, 26.09452 ], [ -98.27588, 26.09202 ], [ -98.2767, 26.08789 ], [ -98.27758, 26.08808 ], [ -98.278, 26.08469 ], [ -98.27822, 26.08367 ], [ -98.27961, 26.08259 ], [ -98.28032, 26.08078 ], [ -98.28273, 26.07454 ], [ -98.29476, 26.06397 ], [ -98.29566, 26.06239 ], [ -98.29485, 26.05993 ], [ -98.29217, 26.05422 ], [ -98.28599, 26.04134 ], [ -98.28502, 26.0402 ], [ -98.28262, 26.03959 ], [ -98.27798, 26.03727 ], [ -98.25992, 26.02956 ], [ -98.25172, 26.0259 ], [ -98.24095, 26.0232 ], [ -98.23395, 26.02141 ], [ -98.2272, 26.01982 ], [ -98.22673, 26.02116 ], [ -98.22645, 26.02194 ], [ -98.2258, 26.02363 ], [ -98.22494, 26.02619 ], [ -98.22587, 26.02684 ], [ -98.22655, 26.02491 ], [ -98.22763, 26.02522 ], [ -98.22344, 26.0372 ], [ -98.22121, 26.03685 ], [ -98.22125, 26.03683 ], [ -98.22176, 26.03535 ], [ -98.22003, 26.03486 ], [ -98.21825, 26.0349 ], [ -98.21817, 26.03796 ], [ -98.22194, 26.04105 ], [ -98.22194, 26.04105 ], [ -98.21817, 26.03796 ], [ -98.21825, 26.0349 ], [ -98.22003, 26.03486 ], [ -98.22176, 26.03535 ], [ -98.22125, 26.03683 ], [ -98.22121, 26.03685 ], [ -98.22344, 26.0372 ], [ -98.22763, 26.02522 ], [ -98.22655, 26.02491 ], [ -98.22587, 26.02684 ], [ -98.22494, 26.02619 ], [ -98.2258, 26.02363 ], [ -98.22645, 26.02194 ], [ -98.22673, 26.02116 ], [ -98.2272, 26.01982 ], [ -98.23395, 26.02141 ], [ -98.24095, 26.0232 ], [ -98.25172, 26.0259 ], [ -98.25992, 26.02956 ], [ -98.27798, 26.03727 ], [ -98.28262, 26.03959 ], [ -98.28502, 26.0402 ], [ -98.28599, 26.04134 ], [ -98.29217, 26.05422 ], [ -98.29485, 26.05993 ], [ -98.29566, 26.06239 ], [ -98.29476, 26.06397 ], [ -98.28273, 26.07454 ], [ -98.28032, 26.08078 ], [ -98.27966, 26.08288 ], [ -98.27927, 26.08465 ], [ -98.28215, 26.08558 ], [ -98.28515, 26.08639 ], [ -98.2826, 26.09607 ] ] } },
{ "type": "Feature", "properties": { "city": "Reynosa", "route_name": "6_villas la Joya IMSS", "route_name_short": "villas la Joya IMSS", "type": "Bus", "shape_id": "shape_3447" }, "geometry": { "type": "LineString", "coordinates": [ [ -98.30974, 26.0786 ], [ -98.30287, 26.08161 ], [ -98.30054, 26.07966 ], [ -98.29611, 26.07531 ], [ -98.29345, 26.07284 ], [ -98.29016, 26.06987 ], [ -98.29034, 26.06937 ], [ -98.2893, 26.0686 ], [ -98.29073, 26.06752 ], [ -98.29215, 26.06628 ], [ -98.29455, 26.06418 ], [ -98.29517, 26.06365 ], [ -98.29558, 26.06308 ], [ -98.29575, 26.06276 ], [ -98.29575, 26.0624 ], [ -98.29571, 26.06176 ], [ -98.29547, 26.06118 ], [ -98.29476, 26.05953 ], [ -98.29412, 26.05819 ], [ -98.29376, 26.05723 ], [ -98.29225, 26.05424 ], [ -98.29139, 26.05226 ], [ -98.2901, 26.04958 ], [ -98.28867, 26.04659 ], [ -98.28696, 26.0432 ], [ -98.28603, 26.04115 ], [ -98.2859, 26.04088 ], [ -98.28562, 26.04064 ], [ -98.28429, 26.04003 ], [ -98.28367, 26.0399 ], [ -98.28318, 26.03974 ], [ -98.28264, 26.03953 ], [ -98.28109, 26.03864 ], [ -98.28064, 26.03833 ], [ -98.27906, 26.0377 ], [ -98.27803, 26.03724 ], [ -98.27604, 26.03657 ], [ -98.27559, 26.03626 ], [ -98.27532, 26.03598 ], [ -98.27518, 26.03576 ], [ -98.27515, 26.03552 ], [ -98.27522, 26.03523 ], [ -98.27552, 26.03484 ], [ -98.27713, 26.03367 ], [ -98.27758, 26.03361 ], [ -98.27795, 26.03401 ], [ -98.27808, 26.03419 ], [ -98.27817, 26.03439 ], [ -98.27831, 26.03444 ], [ -98.27847, 26.03442 ], [ -98.27861, 26.03403 ], [ -98.27865, 26.03379 ], [ -98.27868, 26.0335 ], [ -98.27872, 26.03259 ], [ -98.27879, 26.03198 ], [ -98.27888, 26.03164 ], [ -98.27892, 26.03131 ], [ -98.27888, 26.03062 ], [ -98.27875, 26.02873 ], [ -98.27831, 26.02466 ], [ -98.27811, 26.0215 ], [ -98.27762, 26.02114 ], [ -98.27573, 26.02088 ], [ -98.27438, 26.02096 ], [ -98.27363, 26.02123 ], [ -98.27194, 26.02179 ], [ -98.27007, 26.02235 ], [ -98.26837, 26.02216 ], [ -98.26399, 26.02155 ], [ -98.26438, 26.01962 ], [ -98.26492, 26.01783 ], [ -98.26404, 26.01777 ], [ -98.26297, 26.0176 ], [ -98.26221, 26.01762 ], [ -98.26218, 26.01286 ], [ -98.26497, 26.01291 ], [ -98.26523, 26.01146 ], [ -98.26169, 26.01146 ], [ -98.26086, 26.0114 ], [ -98.26016, 26.01139 ], [ -98.2592, 26.01146 ], [ -98.25633, 26.01146 ], [ -98.2532, 26.01146 ], [ -98.25143, 26.01148 ], [ -98.25132, 26.01166 ], [ -98.24794, 26.01119 ], [ -98.24809, 26.00984 ], [ -98.24434, 26.00874 ], [ -98.24151, 26.00798 ], [ -98.23889, 26.00722 ], [ -98.24022, 26.00523 ], [ -98.24403, 26.00712 ], [ -98.24529, 26.00781 ], [ -98.24612, 26.00548 ], [ -98.24692, 26.00303 ], [ -98.2476, 26.00102 ], [ -98.24377, 25.99999 ], [ -98.24345, 26.00084 ], [ -98.24263, 26.00328 ], [ -98.24057, 26.00274 ], [ -98.24151, 25.99981 ], [ -98.24023, 25.99986 ], [ -98.23977, 26.00114 ], [ -98.23806, 26.0011 ], [ -98.23822, 26.00014 ], [ -98.23894, 25.99938 ], [ -98.23938, 25.99933 ], [ -98.23961, 25.9988 ], [ -98.24117, 25.99866 ], [ -98.24039, 25.99331 ], [ -98.23863, 25.99359 ], [ -98.23863, 25.99359 ], [ -98.24039, 25.99331 ], [ -98.24073, 25.99583 ], [ -98.24117, 25.99866 ], [ -98.23961, 25.9988 ], [ -98.23938, 25.99933 ], [ -98.23894, 25.99938 ], [ -98.23822, 26.00014 ], [ -98.23806, 26.0011 ], [ -98.23867, 26.00108 ], [ -98.2391, 26.00106 ], [ -98.23977, 26.00114 ], [ -98.24023, 25.99986 ], [ -98.24151, 25.99981 ], [ -98.24057, 26.00274 ], [ -98.24263, 26.00328 ], [ -98.24345, 26.00084 ], [ -98.24377, 25.99999 ], [ -98.2476, 26.00102 ], [ -98.24692, 26.00303 ], [ -98.24529, 26.00781 ], [ -98.24403, 26.00712 ], [ -98.24022, 26.00523 ], [ -98.23889, 26.00722 ], [ -98.24809, 26.00984 ], [ -98.24794, 26.01119 ], [ -98.25132, 26.01166 ], [ -98.25143, 26.01148 ], [ -98.2532, 26.01146 ], [ -98.2592, 26.01146 ], [ -98.26016, 26.01139 ], [ -98.26075, 26.01138 ], [ -98.26169, 26.01146 ], [ -98.26523, 26.01146 ], [ -98.26497, 26.01291 ], [ -98.26218, 26.01286 ], [ -98.26221, 26.01762 ], [ -98.26297, 26.0176 ], [ -98.26404, 26.01777 ], [ -98.26492, 26.01783 ], [ -98.2647, 26.01873 ], [ -98.26451, 26.01892 ], [ -98.26438, 26.01962 ], [ -98.26399, 26.02155 ], [ -98.26837, 26.02216 ], [ -98.27007, 26.02235 ], [ -98.27194, 26.02179 ], [ -98.27363, 26.02123 ], [ -98.27438, 26.02096 ], [ -98.27511, 26.02088 ], [ -98.27573, 26.02088 ], [ -98.27775, 26.02125 ], [ -98.27848, 26.02829 ], [ -98.27858, 26.02954 ], [ -98.27858, 26.0302 ], [ -98.27869, 26.0308 ], [ -98.27871, 26.03128 ], [ -98.27871, 26.03161 ], [ -98.27867, 26.03197 ], [ -98.27843, 26.03247 ], [ -98.27765, 26.03337 ], [ -98.27761, 26.03352 ], [ -98.2776, 26.03361 ], [ -98.27767, 26.0337 ], [ -98.27806, 26.03417 ], [ -98.27817, 26.03438 ], [ -98.27814, 26.03465 ], [ -98.2779, 26.03572 ], [ -98.27777, 26.03673 ], [ -98.27777, 26.03719 ], [ -98.27774, 26.03762 ], [ -98.27792, 26.03773 ], [ -98.28041, 26.03888 ], [ -98.28256, 26.03982 ], [ -98.28458, 26.04066 ], [ -98.28516, 26.04092 ], [ -98.28542, 26.04106 ], [ -98.28563, 26.04125 ], [ -98.28584, 26.04144 ], [ -98.28601, 26.04167 ], [ -98.2863, 26.04216 ], [ -98.28686, 26.04322 ], [ -98.28869, 26.04719 ], [ -98.2901, 26.04958 ], [ -98.29124, 26.05225 ], [ -98.2921, 26.05424 ], [ -98.29356, 26.05717 ], [ -98.29463, 26.05958 ], [ -98.29534, 26.06122 ], [ -98.29552, 26.06166 ], [ -98.29556, 26.06222 ], [ -98.29552, 26.06262 ], [ -98.29539, 26.06301 ], [ -98.29515, 26.06347 ], [ -98.29496, 26.0638 ], [ -98.29446, 26.06409 ], [ -98.29202, 26.06629 ], [ -98.29039, 26.0676 ], [ -98.2893, 26.0686 ], [ -98.29034, 26.06937 ], [ -98.29016, 26.06987 ], [ -98.29324, 26.07269 ], [ -98.29586, 26.07498 ], [ -98.30019, 26.0791 ], [ -98.30287, 26.08161 ] ] } },
{ "type": "Feature", "properties": { "city": "Reynosa", "route_name": "9_- 12 Cañada - Loma linda - Centro", "route_name_short": "- 12 Cañada - Loma linda - Centro", "type": "Bus", "shape_id": "shape_3449" }, "geometry": { "type": "LineString", "coordinates": [ [ -98.2826, 26.09604 ], [ -98.27526, 26.09456 ], [ -98.2756, 26.0929 ], [ -98.27469, 26.09278 ], [ -98.27599, 26.08643 ], [ -98.28186, 26.08777 ], [ -98.28294, 26.08484 ], [ -98.28548, 26.08552 ], [ -98.28813, 26.08596 ], [ -98.28916, 26.08618 ], [ -98.29029, 26.08623 ], [ -98.29236, 26.08649 ], [ -98.29236, 26.08595 ], [ -98.29253, 26.08539 ], [ -98.29257, 26.08455 ], [ -98.2928, 26.08316 ], [ -98.29292, 26.08232 ], [ -98.29315, 26.08058 ], [ -98.29327, 26.07973 ], [ -98.29337, 26.07887 ], [ -98.29349, 26.07806 ], [ -98.29377, 26.07633 ], [ -98.29433, 26.07259 ], [ -98.29447, 26.07167 ], [ -98.29783, 26.0721 ], [ -98.29827, 26.07217 ], [ -98.29848, 26.07247 ], [ -98.29954, 26.07261 ], [ -98.30129, 26.07282 ], [ -98.30213, 26.0729 ], [ -98.30279, 26.07299 ], [ -98.3041, 26.07313 ], [ -98.30631, 26.07342 ], [ -98.30644, 26.07255 ], [ -98.30779, 26.07269 ], [ -98.30974, 26.07257 ], [ -98.30917, 26.06838 ], [ -98.30887, 26.06518 ], [ -98.30882, 26.06436 ], [ -98.31069, 26.06416 ], [ -98.31133, 26.06034 ], [ -98.31281, 26.0605 ], [ -98.31511, 26.05636 ], [ -98.3155, 26.05659 ], [ -98.31609, 26.05524 ], [ -98.31721, 26.05231 ], [ -98.31762, 26.0509 ], [ -98.31779, 26.05003 ], [ -98.31779, 26.05003 ], [ -98.31762, 26.0509 ], [ -98.31721, 26.05231 ], [ -98.31609, 26.05524 ], [ -98.3155, 26.05659 ], [ -98.31511, 26.05636 ], [ -98.31281, 26.0605 ], [ -98.31133, 26.06034 ], [ -98.31069, 26.06416 ], [ -98.30882, 26.06436 ], [ -98.30887, 26.06518 ], [ -98.30917, 26.06838 ], [ -98.30974, 26.07257 ], [ -98.30779, 26.07269 ], [ -98.30644, 26.07255 ], [ -98.30631, 26.07342 ], [ -98.3041, 26.07313 ], [ -98.30279, 26.07299 ], [ -98.30213, 26.0729 ], [ -98.30129, 26.07282 ], [ -98.29954, 26.07261 ], [ -98.29848, 26.07247 ], [ -98.29827, 26.07217 ], [ -98.29783, 26.0721 ], [ -98.29447, 26.07167 ], [ -98.29433, 26.07259 ], [ -98.29377, 26.07633 ], [ -98.29349, 26.07806 ], [ -98.29337, 26.07887 ], [ -98.29327, 26.07973 ], [ -98.29315, 26.08058 ], [ -98.29292, 26.08232 ], [ -98.2928, 26.08316 ], [ -98.29257, 26.08455 ], [ -98.29253, 26.08539 ], [ -98.29236, 26.08595 ], [ -98.29236, 26.08649 ], [ -98.29029, 26.08623 ], [ -98.28916, 26.08618 ], [ -98.28765, 26.08648 ], [ -98.28667, 26.08659 ], [ -98.28514, 26.08646 ], [ -98.28425, 26.08863 ], [ -98.28273, 26.09602 ], [ -98.2826, 26.09595 ] ] } },
{ "type": "Feature", "properties": { "city": "Reynosa", "route_name": "10_Rancho Grande - 15 Rivera", "route_name_short": "Rancho Grande - 15 Rivera", "type": "Bus", "shape_id": "shape_3450" }, "geometry": { "type": "LineString", "coordinates": [ [ -98.2826, 26.09599 ], [ -98.28423, 26.08872 ], [ -98.28511, 26.08633 ], [ -98.28592, 26.08344 ], [ -98.28946, 26.08438 ], [ -98.28987, 26.08242 ], [ -98.29016, 26.08025 ], [ -98.2903, 26.07941 ], [ -98.29054, 26.07766 ], [ -98.2907, 26.07685 ], [ -98.29072, 26.07663 ], [ -98.29075, 26.07625 ], [ -98.2908, 26.07597 ], [ -98.29137, 26.07222 ], [ -98.29156, 26.07114 ], [ -98.29136, 26.07201 ], [ -98.29082, 26.0719 ], [ -98.29112, 26.071 ], [ -98.29144, 26.07109 ], [ -98.29195, 26.0715 ], [ -98.29335, 26.07278 ], [ -98.3004, 26.0794 ], [ -98.30031, 26.0801 ], [ -98.30016, 26.08126 ], [ -98.29995, 26.08239 ], [ -98.30064, 26.08441 ], [ -98.30134, 26.08592 ], [ -98.30286, 26.086 ], [ -98.30344, 26.0823 ], [ -98.30898, 26.08759 ], [ -98.3099, 26.08731 ], [ -98.31014, 26.08716 ], [ -98.31191, 26.08704 ], [ -98.31269, 26.08693 ], [ -98.31302, 26.08752 ], [ -98.31089, 26.08872 ], [ -98.31064, 26.08893 ], [ -98.3107, 26.08923 ], [ -98.31195, 26.09043 ], [ -98.31676, 26.09502 ], [ -98.31759, 26.09419 ], [ -98.32324, 26.09901 ], [ -98.32452, 26.09781 ], [ -98.32506, 26.09718 ], [ -98.32575, 26.09627 ], [ -98.32663, 26.09547 ], [ -98.32716, 26.09259 ], [ -98.32744, 26.09043 ], [ -98.32749, 26.09017 ], [ -98.32911, 26.09028 ], [ -98.33004, 26.09038 ], [ -98.33069, 26.09015 ], [ -98.33069, 26.09015 ], [ -98.33004, 26.09038 ], [ -98.32911, 26.09028 ], [ -98.32749, 26.09017 ], [ -98.32744, 26.09043 ], [ -98.32716, 26.09259 ], [ -98.32663, 26.09547 ], [ -98.32575, 26.09627 ], [ -98.32506, 26.09718 ], [ -98.32452, 26.09781 ], [ -98.32324, 26.09901 ], [ -98.31759, 26.09419 ], [ -98.31676, 26.09502 ], [ -98.31195, 26.09043 ], [ -98.3107, 26.08923 ], [ -98.31064, 26.08893 ], [ -98.31089, 26.08872 ], [ -98.31302, 26.08752 ], [ -98.31269, 26.08693 ], [ -98.31191, 26.08704 ], [ -98.31014, 26.08716 ], [ -98.3099, 26.08731 ], [ -98.30898, 26.08759 ], [ -98.30704, 26.08574 ], [ -98.30555, 26.08432 ], [ -98.30463, 26.08473 ], [ -98.30464, 26.08428 ], [ -98.30345, 26.08474 ], [ -98.30306, 26.0849 ], [ -98.30286, 26.086 ], [ -98.30134, 26.08592 ], [ -98.30064, 26.08441 ], [ -98.29995, 26.08239 ], [ -98.30016, 26.08126 ], [ -98.30031, 26.0801 ], [ -98.3004, 26.0794 ], [ -98.29335, 26.07278 ], [ -98.29195, 26.0715 ], [ -98.29156, 26.07114 ], [ -98.29115, 26.07102 ], [ -98.2909, 26.07192 ], [ -98.29138, 26.07203 ], [ -98.2908, 26.07597 ], [ -98.29075, 26.07625 ], [ -98.29072, 26.07663 ], [ -98.2907, 26.07685 ], [ -98.29054, 26.07766 ], [ -98.2903, 26.07941 ], [ -98.29016, 26.08025 ], [ -98.28987, 26.08242 ], [ -98.28946, 26.08438 ], [ -98.28592, 26.08344 ], [ -98.28474, 26.08319 ], [ -98.28384, 26.08598 ], [ -98.28268, 26.08571 ], [ -98.28242, 26.08652 ], [ -98.28191, 26.08781 ], [ -98.28107, 26.08886 ], [ -98.27663, 26.08783 ], [ -98.27526, 26.0946 ], [ -98.28283, 26.0961 ] ] } },
{ "type": "Feature", "properties": { "city": "Reynosa", "route_name": "11_Col. Satélite - Centro", "route_name_short": "Col. Satélite - Centro", "type": "Bus", "shape_id": "shape_3451" }, "geometry": { "type": "LineString", "coordinates": [ [ -98.2826, 26.096 ], [ -98.28376, 26.09065 ], [ -98.285, 26.08627 ], [ -98.29032, 26.06929 ], [ -98.28929, 26.06848 ], [ -98.29502, 26.06363 ], [ -98.29562, 26.06205 ], [ -98.29491, 26.06023 ], [ -98.29184, 26.05337 ], [ -98.28886, 26.04695 ], [ -98.28644, 26.04204 ], [ -98.2856, 26.04059 ], [ -98.28386, 26.03974 ], [ -98.28266, 26.03959 ], [ -98.27803, 26.03729 ], [ -98.27528, 26.03623 ], [ -98.27534, 26.03598 ], [ -98.27511, 26.03519 ], [ -98.27886, 26.03209 ], [ -98.2779, 26.02114 ], [ -98.27524, 26.0209 ], [ -98.27288, 26.02148 ], [ -98.27131, 26.02216 ], [ -98.27, 26.02241 ], [ -98.26773, 26.02208 ], [ -98.26361, 26.02158 ], [ -98.26289, 26.0207 ], [ -98.2606, 26.02082 ], [ -98.25968, 26.02091 ], [ -98.25856, 26.02088 ], [ -98.25859, 26.02188 ], [ -98.25664, 26.02175 ], [ -98.25424, 26.02142 ], [ -98.24995, 26.02088 ], [ -98.24653, 26.02046 ], [ -98.24685, 26.01852 ], [ -98.2431, 26.01807 ], [ -98.24434, 26.01075 ], [ -98.23979, 26.00936 ], [ -98.24043, 26.00766 ], [ -98.24043, 26.00766 ], [ -98.23979, 26.00936 ], [ -98.24434, 26.01075 ], [ -98.2431, 26.01807 ], [ -98.24685, 26.01852 ], [ -98.24653, 26.02046 ], [ -98.24995, 26.02088 ], [ -98.25424, 26.02142 ], [ -98.25664, 26.02175 ], [ -98.25859, 26.02188 ], [ -98.25856, 26.02088 ], [ -98.25968, 26.02091 ], [ -98.2606, 26.02082 ], [ -98.26289, 26.0207 ], [ -98.26361, 26.02158 ], [ -98.26773, 26.02208 ], [ -98.27, 26.02241 ], [ -98.27131, 26.02216 ], [ -98.27288, 26.02148 ], [ -98.27524, 26.0209 ], [ -98.2779, 26.02114 ], [ -98.27886, 26.03209 ], [ -98.27835, 26.03469 ], [ -98.27798, 26.0354 ], [ -98.27785, 26.03606 ], [ -98.2777, 26.0365 ], [ -98.27803, 26.03729 ], [ -98.28266, 26.03959 ], [ -98.28386, 26.03974 ], [ -98.2856, 26.04059 ], [ -98.28644, 26.04204 ], [ -98.28886, 26.04695 ], [ -98.29184, 26.05337 ], [ -98.29491, 26.06023 ], [ -98.29562, 26.06205 ], [ -98.29502, 26.06363 ], [ -98.28929, 26.06848 ], [ -98.28897, 26.06897 ], [ -98.2897, 26.06954 ], [ -98.28899, 26.07039 ], [ -98.28631, 26.07853 ], [ -98.28382, 26.08602 ], [ -98.28264, 26.08575 ], [ -98.28193, 26.08785 ], [ -98.28137, 26.08814 ], [ -98.28107, 26.08882 ], [ -98.2767, 26.08787 ], [ -98.27526, 26.09456 ], [ -98.28251, 26.096 ] ] } },
{ "type": "Feature", "properties": { "city": "Reynosa", "route_name": "12_Cavazos - Centro", "route_name_short": "Cavazos - Centro", "type": "Bus", "shape_id": "shape_3452" }, "geometry": { "type": "LineString", "coordinates": [ [ -98.2798, 26.0873 ], [ -98.2818, 26.08781 ], [ -98.28237, 26.08649 ], [ -98.28482, 26.08713 ], [ -98.2851, 26.08642 ], [ -98.28612, 26.08667 ], [ -98.2885, 26.08786 ], [ -98.2899, 26.08855 ], [ -98.29236, 26.08968 ], [ -98.29378, 26.09025 ], [ -98.29401, 26.08879 ], [ -98.30089, 26.08607 ], [ -98.30133, 26.08593 ], [ -98.30076, 26.09057 ], [ -98.3003, 26.09293 ], [ -98.3091, 26.09693 ], [ -98.31807, 26.10117 ], [ -98.31942, 26.10179 ], [ -98.32043, 26.10288 ], [ -98.32128, 26.10462 ], [ -98.32272, 26.10562 ], [ -98.3268, 26.1073 ], [ -98.32839, 26.10861 ], [ -98.3298, 26.11194 ], [ -98.33828, 26.13063 ], [ -98.3424, 26.1391 ], [ -98.3424, 26.1391 ], [ -98.33828, 26.13063 ], [ -98.3298, 26.11194 ], [ -98.32839, 26.10861 ], [ -98.3268, 26.1073 ], [ -98.32272, 26.10562 ], [ -98.32128, 26.10462 ], [ -98.32043, 26.10288 ], [ -98.31942, 26.10179 ], [ -98.31807, 26.10117 ], [ -98.3091, 26.09693 ], [ -98.30167, 26.0934 ], [ -98.30223, 26.09067 ], [ -98.30283, 26.08593 ], [ -98.30142, 26.08602 ], [ -98.30103, 26.08947 ], [ -98.30028, 26.09284 ], [ -98.29704, 26.09138 ], [ -98.29541, 26.09063 ], [ -98.29378, 26.09025 ], [ -98.29236, 26.08968 ], [ -98.2899, 26.08855 ], [ -98.2885, 26.08786 ], [ -98.28691, 26.08712 ], [ -98.287, 26.08655 ], [ -98.28266, 26.08571 ], [ -98.28247, 26.08629 ], [ -98.28237, 26.08649 ], [ -98.28188, 26.08781 ], [ -98.27932, 26.08723 ] ] } },
{ "type": "Feature", "properties": { "city": "Reynosa", "route_name": "16_Rancho Grande", "route_name_short": "Rancho Grande", "type": "Bus", "shape_id": "shape_3456" }, "geometry": { "type": "LineString", "coordinates": [ [ -98.2826, 26.096 ], [ -98.27989, 26.09548 ], [ -98.28103, 26.08941 ], [ -98.28129, 26.08812 ], [ -98.28195, 26.08772 ], [ -98.28294, 26.08479 ], [ -98.28719, 26.08581 ], [ -98.28936, 26.08625 ], [ -98.29515, 26.0844 ], [ -98.29985, 26.08253 ], [ -98.3012, 26.08585 ], [ -98.30287, 26.08602 ], [ -98.30268, 26.0876 ], [ -98.30708, 26.08818 ], [ -98.30669, 26.09097 ], [ -98.30986, 26.09136 ], [ -98.30954, 26.09355 ], [ -98.30993, 26.0941 ], [ -98.31545, 26.0939 ], [ -98.32134, 26.09943 ], [ -98.322, 26.10007 ], [ -98.31971, 26.10208 ], [ -98.32045, 26.10294 ], [ -98.32097, 26.1041 ], [ -98.32152, 26.10488 ], [ -98.32242, 26.10546 ], [ -98.32308, 26.10571 ], [ -98.32351, 26.10588 ], [ -98.32434, 26.10514 ], [ -98.32497, 26.10433 ], [ -98.32589, 26.10401 ], [ -98.32687, 26.10354 ], [ -98.32769, 26.10312 ], [ -98.32897, 26.10238 ], [ -98.32897, 26.10238 ], [ -98.32769, 26.10312 ], [ -98.32687, 26.10354 ], [ -98.32589, 26.10401 ], [ -98.32497, 26.10433 ], [ -98.32434, 26.10514 ], [ -98.32351, 26.10588 ], [ -98.32308, 26.10571 ], [ -98.32242, 26.10546 ], [ -98.32152, 26.10488 ], [ -98.32097, 26.1041 ], [ -98.32045, 26.10294 ], [ -98.31971, 26.10208 ], [ -98.322, 26.10007 ], [ -98.32136, 26.09946 ], [ -98.32288, 26.09811 ], [ -98.32308, 26.09679 ], [ -98.3235, 26.0954 ], [ -98.32445, 26.09267 ], [ -98.32412, 26.09402 ], [ -98.32356, 26.09537 ], [ -98.32312, 26.09671 ], [ -98.32285, 26.09808 ], [ -98.32134, 26.09943 ], [ -98.31936, 26.09758 ], [ -98.31545, 26.0939 ], [ -98.30993, 26.0941 ], [ -98.30954, 26.09355 ], [ -98.30986, 26.09136 ], [ -98.30669, 26.09097 ], [ -98.30708, 26.08818 ], [ -98.30268, 26.0876 ], [ -98.30287, 26.08602 ], [ -98.3012, 26.08585 ], [ -98.29985, 26.08253 ], [ -98.29515, 26.0844 ], [ -98.28936, 26.08625 ], [ -98.28704, 26.08654 ], [ -98.28515, 26.08635 ], [ -98.28483, 26.08716 ], [ -98.28352, 26.09157 ], [ -98.28266, 26.09606 ] ] } },
{ "type": "Feature", "properties": { "city": "Reynosa", "route_name": "14_Las lomas - cañadas", "route_name_short": "Las lomas - cañadas", "type": "Bus", "shape_id": "shape_3454" }, "geometry": { "type": "LineString", "coordinates": [ [ -98.28262, 26.09601 ], [ -98.28507, 26.08642 ], [ -98.28626, 26.0867 ], [ -98.28854, 26.08641 ], [ -98.29076, 26.08601 ], [ -98.30261, 26.08152 ], [ -98.30536, 26.08034 ], [ -98.31078, 26.07821 ], [ -98.31335, 26.07714 ], [ -98.31429, 26.07006 ], [ -98.31562, 26.06222 ], [ -98.31435, 26.06207 ], [ -98.31425, 26.06247 ], [ -98.31381, 26.06245 ], [ -98.31365, 26.06373 ], [ -98.3108, 26.0634 ], [ -98.31107, 26.06206 ], [ -98.31217, 26.06222 ], [ -98.31243, 26.06046 ], [ -98.31277, 26.06052 ], [ -98.31509, 26.05638 ], [ -98.3155, 26.05657 ], [ -98.3161, 26.05523 ], [ -98.31742, 26.05602 ], [ -98.31711, 26.05694 ], [ -98.31855, 26.05781 ], [ -98.32006, 26.05544 ], [ -98.32021, 26.05507 ], [ -98.31977, 26.05489 ], [ -98.31961, 26.05501 ], [ -98.31905, 26.05468 ], [ -98.31855, 26.05443 ], [ -98.31927, 26.05272 ], [ -98.31978, 26.05221 ], [ -98.32018, 26.05155 ], [ -98.31883, 26.05114 ], [ -98.31844, 26.05099 ], [ -98.31999, 26.04875 ], [ -98.31999, 26.04875 ], [ -98.31844, 26.05099 ], [ -98.31883, 26.05114 ], [ -98.32018, 26.05155 ], [ -98.31978, 26.05221 ], [ -98.31927, 26.05272 ], [ -98.31855, 26.05443 ], [ -98.31905, 26.05468 ], [ -98.31961, 26.05501 ], [ -98.31977, 26.05489 ], [ -98.32021, 26.05507 ], [ -98.32006, 26.05544 ], [ -98.31855, 26.05781 ], [ -98.31711, 26.05694 ], [ -98.31742, 26.05602 ], [ -98.3161, 26.05523 ], [ -98.3155, 26.05657 ], [ -98.31509, 26.05638 ], [ -98.31277, 26.06052 ], [ -98.31243, 26.06046 ], [ -98.31217, 26.06222 ], [ -98.31107, 26.06206 ], [ -98.3108, 26.0634 ], [ -98.31365, 26.06373 ], [ -98.31381, 26.06245 ], [ -98.31425, 26.06247 ], [ -98.31435, 26.06207 ], [ -98.31562, 26.06222 ], [ -98.31429, 26.07006 ], [ -98.31335, 26.07714 ], [ -98.31078, 26.07821 ], [ -98.30536, 26.08034 ], [ -98.30261, 26.08152 ], [ -98.29076, 26.08601 ], [ -98.28978, 26.08625 ], [ -98.2888, 26.086 ], [ -98.28657, 26.08573 ], [ -98.28294, 26.08485 ], [ -98.28189, 26.08783 ], [ -98.27592, 26.08652 ], [ -98.27459, 26.09276 ], [ -98.27562, 26.09296 ], [ -98.27524, 26.09454 ], [ -98.28251, 26.09602 ] ] } },
{ "type": "Feature", "properties": { "city": "Reynosa", "route_name": "13_Hacienda las Fuentes - Olmos 1 - 2 - 3", "route_name_short": "Hacienda las Fuentes - Olmos 1 - 2 - 3", "type": "Bus", "shape_id": "shape_3453" }, "geometry": { "type": "LineString", "coordinates": [ [ -98.33789, 26.08767 ], [ -98.33829, 26.0868 ], [ -98.33698, 26.08616 ], [ -98.33826, 26.0841 ], [ -98.33906, 26.08276 ], [ -98.33902, 26.08219 ], [ -98.33884, 26.08185 ], [ -98.33848, 26.08158 ], [ -98.3377, 26.08148 ], [ -98.33685, 26.08161 ], [ -98.33651, 26.08159 ], [ -98.33667, 26.08199 ], [ -98.33628, 26.08246 ], [ -98.33573, 26.08344 ], [ -98.33528, 26.0841 ], [ -98.33515, 26.08411 ], [ -98.33446, 26.08378 ], [ -98.33422, 26.08387 ], [ -98.33413, 26.08412 ], [ -98.33305, 26.08368 ], [ -98.33204, 26.08348 ], [ -98.33049, 26.08384 ], [ -98.32731, 26.08534 ], [ -98.32487, 26.08662 ], [ -98.32378, 26.0871 ], [ -98.32162, 26.08689 ], [ -98.32094, 26.0868 ], [ -98.3197, 26.08686 ], [ -98.3187, 26.08684 ], [ -98.31981, 26.08731 ], [ -98.31984, 26.08912 ], [ -98.31719, 26.08932 ], [ -98.31552, 26.0868 ], [ -98.31188, 26.08704 ], [ -98.31222, 26.08445 ], [ -98.31396, 26.08439 ], [ -98.31276, 26.08265 ], [ -98.30954, 26.08397 ], [ -98.30837, 26.08443 ], [ -98.30752, 26.0827 ], [ -98.30711, 26.08182 ], [ -98.30831, 26.08137 ], [ -98.30748, 26.07957 ], [ -98.3027, 26.08153 ], [ -98.29929, 26.08276 ], [ -98.29443, 26.0847 ], [ -98.29091, 26.08605 ], [ -98.28768, 26.0865 ], [ -98.28501, 26.08637 ], [ -98.28431, 26.08871 ], [ -98.28378, 26.09072 ], [ -98.28328, 26.09317 ], [ -98.28262, 26.09605 ], [ -98.28262, 26.09605 ], [ -98.27522, 26.09452 ], [ -98.27559, 26.09291 ], [ -98.27632, 26.08954 ], [ -98.27341, 26.08879 ], [ -98.2718, 26.08861 ], [ -98.27041, 26.0882 ], [ -98.27098, 26.08604 ], [ -98.27826, 26.08822 ], [ -98.27932, 26.08849 ], [ -98.28118, 26.08882 ], [ -98.28142, 26.0882 ], [ -98.28197, 26.08789 ], [ -98.283, 26.08479 ], [ -98.28736, 26.08587 ], [ -98.28953, 26.08623 ], [ -98.29091, 26.08605 ], [ -98.29443, 26.0847 ], [ -98.29929, 26.08276 ], [ -98.3027, 26.08153 ], [ -98.30748, 26.07957 ], [ -98.30831, 26.08137 ], [ -98.30711, 26.08182 ], [ -98.30752, 26.0827 ], [ -98.30837, 26.08443 ], [ -98.30954, 26.08397 ], [ -98.31276, 26.08265 ], [ -98.31396, 26.08439 ], [ -98.31222, 26.08445 ], [ -98.31188, 26.08704 ], [ -98.31552, 26.0868 ], [ -98.31719, 26.08932 ], [ -98.31984, 26.08912 ], [ -98.31981, 26.08731 ], [ -98.3187, 26.08684 ], [ -98.3197, 26.08686 ], [ -98.32094, 26.0868 ], [ -98.32162, 26.08689 ], [ -98.32378, 26.0871 ], [ -98.32487, 26.08662 ], [ -98.32731, 26.08534 ], [ -98.33049, 26.08384 ], [ -98.33204, 26.08348 ], [ -98.33305, 26.08368 ], [ -98.33413, 26.08412 ], [ -98.33422, 26.08387 ], [ -98.33446, 26.08378 ], [ -98.33515, 26.08411 ], [ -98.33528, 26.0841 ], [ -98.33573, 26.08344 ], [ -98.33628, 26.08246 ], [ -98.33667, 26.08199 ], [ -98.33651, 26.08159 ], [ -98.33685, 26.08161 ], [ -98.3377, 26.08148 ], [ -98.33848, 26.08158 ], [ -98.33884, 26.08185 ], [ -98.33902, 26.08219 ], [ -98.33906, 26.08276 ], [ -98.33826, 26.0841 ], [ -98.33698, 26.08616 ], [ -98.33829, 26.0868 ] ] } },
{ "type": "Feature", "properties": { "city": "Reynosa", "route_name": "15_Colonia Nuevo Milenio - Juárez Plaza - PEMEX", "route_name_short": "Colonia Nuevo Milenio - Juárez Plaza - PEMEX", "type": "Bus", "shape_id": "shape_3455" }, "geometry": { "type": "LineString", "coordinates": [ [ -98.28258, 26.09604 ], [ -98.27519, 26.09452 ], [ -98.27663, 26.08782 ], [ -98.27765, 26.08805 ], [ -98.27761, 26.08693 ], [ -98.27778, 26.08578 ], [ -98.27805, 26.0845 ], [ -98.27824, 26.08355 ], [ -98.27894, 26.08299 ], [ -98.27982, 26.08216 ], [ -98.28043, 26.08054 ], [ -98.28126, 26.07829 ], [ -98.28263, 26.07483 ], [ -98.28364, 26.07344 ], [ -98.28636, 26.07114 ], [ -98.28897, 26.06887 ], [ -98.29153, 26.06683 ], [ -98.29442, 26.06432 ], [ -98.29562, 26.06293 ], [ -98.29581, 26.06207 ], [ -98.2952, 26.06067 ], [ -98.29432, 26.05869 ], [ -98.29343, 26.05661 ], [ -98.29248, 26.0547 ], [ -98.29118, 26.05203 ], [ -98.28986, 26.04914 ], [ -98.28796, 26.0451 ], [ -98.28636, 26.0419 ], [ -98.28573, 26.04076 ], [ -98.28412, 26.03992 ], [ -98.28254, 26.03955 ], [ -98.28132, 26.03877 ], [ -98.27813, 26.0375 ], [ -98.27582, 26.03639 ], [ -98.27518, 26.03579 ], [ -98.27523, 26.03506 ], [ -98.27618, 26.03432 ], [ -98.27752, 26.03338 ], [ -98.27821, 26.03269 ], [ -98.27897, 26.03165 ], [ -98.27888, 26.03093 ], [ -98.27785, 26.02681 ], [ -98.2781, 26.02437 ], [ -98.27781, 26.02123 ], [ -98.28341, 26.02194 ], [ -98.28341, 26.02232 ], [ -98.28417, 26.02238 ], [ -98.2843, 26.02206 ], [ -98.29048, 26.02288 ], [ -98.29238, 26.01889 ], [ -98.29708, 26.01874 ], [ -98.29507, 26.02305 ], [ -98.29437, 26.02447 ], [ -98.30131, 26.02455 ], [ -98.3015, 26.02675 ], [ -98.30299, 26.02702 ], [ -98.30324, 26.02591 ], [ -98.30322, 26.0247 ], [ -98.30358, 26.0238 ], [ -98.30383, 26.02234 ], [ -98.30604, 26.02252 ], [ -98.30628, 26.02072 ], [ -98.30628, 26.02072 ], [ -98.30604, 26.02252 ], [ -98.30383, 26.02234 ], [ -98.30358, 26.0238 ], [ -98.30322, 26.0247 ], [ -98.30324, 26.02591 ], [ -98.30299, 26.02702 ], [ -98.3015, 26.02675 ], [ -98.30131, 26.02455 ], [ -98.29437, 26.02447 ], [ -98.29507, 26.02305 ], [ -98.29708, 26.01874 ], [ -98.29238, 26.01889 ], [ -98.29048, 26.02288 ], [ -98.2843, 26.02206 ], [ -98.28417, 26.02238 ], [ -98.28341, 26.02232 ], [ -98.28341, 26.02194 ], [ -98.27781, 26.02123 ], [ -98.2781, 26.02437 ], [ -98.27837, 26.02679 ], [ -98.27888, 26.03093 ], [ -98.27897, 26.03165 ], [ -98.27841, 26.03274 ], [ -98.27764, 26.03355 ], [ -98.27809, 26.03419 ], [ -98.27846, 26.03454 ], [ -98.27811, 26.03498 ], [ -98.27803, 26.03571 ], [ -98.27779, 26.03648 ], [ -98.27785, 26.03697 ], [ -98.27813, 26.0375 ], [ -98.28132, 26.03877 ], [ -98.28254, 26.03955 ], [ -98.28412, 26.03992 ], [ -98.28573, 26.04076 ], [ -98.28636, 26.0419 ], [ -98.28796, 26.0451 ], [ -98.28986, 26.04914 ], [ -98.29118, 26.05203 ], [ -98.29248, 26.0547 ], [ -98.29343, 26.05661 ], [ -98.29432, 26.05869 ], [ -98.2952, 26.06067 ], [ -98.29581, 26.06207 ], [ -98.29562, 26.06293 ], [ -98.29442, 26.06432 ], [ -98.29153, 26.06683 ], [ -98.28953, 26.06862 ], [ -98.29013, 26.06983 ], [ -98.28942, 26.07261 ], [ -98.28848, 26.07515 ], [ -98.28715, 26.07937 ], [ -98.28691, 26.08051 ], [ -98.28633, 26.08226 ], [ -98.28569, 26.0845 ], [ -98.28496, 26.08645 ], [ -98.28489, 26.08687 ], [ -98.28485, 26.08718 ], [ -98.28464, 26.08778 ], [ -98.28433, 26.08855 ], [ -98.28412, 26.08889 ], [ -98.28372, 26.09111 ], [ -98.28356, 26.09159 ], [ -98.28275, 26.09614 ] ] } },
{ "type": "Feature", "properties": { "city": "Reynosa", "route_name": "18_Colonias voluntad y Trabajo - Arco iris - Centro", "route_name_short": "Colonias voluntad y Trabajo - Arco iris - Centro", "type": "Bus", "shape_id": "shape_3457" }, "geometry": { "type": "LineString", "coordinates": [ [ -98.28264, 26.096 ], [ -98.28427, 26.08882 ], [ -98.28513, 26.08625 ], [ -98.28637, 26.0819 ], [ -98.29032, 26.06933 ], [ -98.28923, 26.06848 ], [ -98.29536, 26.06345 ], [ -98.29558, 26.06135 ], [ -98.29388, 26.05757 ], [ -98.29017, 26.04998 ], [ -98.28631, 26.04155 ], [ -98.28496, 26.04015 ], [ -98.2827, 26.03957 ], [ -98.27863, 26.03751 ], [ -98.27543, 26.03617 ], [ -98.27524, 26.03502 ], [ -98.27758, 26.03332 ], [ -98.27865, 26.03216 ], [ -98.27869, 26.02968 ], [ -98.27794, 26.02999 ], [ -98.27359, 26.03024 ], [ -98.27322, 26.02511 ], [ -98.26979, 26.02538 ], [ -98.26998, 26.0281 ], [ -98.2682, 26.02825 ], [ -98.26547, 26.02422 ], [ -98.26369, 26.02439 ], [ -98.25671, 26.02471 ], [ -98.2564, 26.02446 ], [ -98.25667, 26.02322 ], [ -98.24654, 26.02191 ], [ -98.24654, 26.02191 ], [ -98.25667, 26.02322 ], [ -98.2564, 26.02446 ], [ -98.25671, 26.02471 ], [ -98.26369, 26.02439 ], [ -98.26547, 26.02422 ], [ -98.2682, 26.02825 ], [ -98.26998, 26.0281 ], [ -98.26979, 26.02538 ], [ -98.27322, 26.02511 ], [ -98.27359, 26.03024 ], [ -98.27794, 26.02999 ], [ -98.27869, 26.02968 ], [ -98.27865, 26.03216 ], [ -98.27768, 26.03355 ], [ -98.27815, 26.03452 ], [ -98.27796, 26.03544 ], [ -98.2777, 26.03704 ], [ -98.27863, 26.03751 ], [ -98.28026, 26.03876 ], [ -98.2827, 26.03957 ], [ -98.28496, 26.04015 ], [ -98.28631, 26.04155 ], [ -98.29017, 26.04998 ], [ -98.29388, 26.05757 ], [ -98.29558, 26.06135 ], [ -98.29536, 26.06345 ], [ -98.28908, 26.06891 ], [ -98.28955, 26.06951 ], [ -98.28725, 26.07577 ], [ -98.2853, 26.08188 ], [ -98.28384, 26.08593 ], [ -98.2827, 26.08575 ], [ -98.28193, 26.08776 ], [ -98.28109, 26.08884 ], [ -98.27665, 26.08791 ], [ -98.27537, 26.09456 ], [ -98.28245, 26.096 ] ] } },
{ "type": "Feature", "properties": { "city": "Reynosa", "route_name": "19_Paseo las flores - Escuela México PEMEX", "route_name_short": "Paseo las flores - Escuela México PEMEX", "type": "Bus", "shape_id": "shape_3458" }, "geometry": { "type": "LineString", "coordinates": [ [ -98.28261, 26.09603 ], [ -98.28416, 26.08897 ], [ -98.28509, 26.08622 ], [ -98.28736, 26.07891 ], [ -98.29036, 26.06929 ], [ -98.28942, 26.0685 ], [ -98.29536, 26.06338 ], [ -98.29566, 26.06195 ], [ -98.2923, 26.05435 ], [ -98.28567, 26.04113 ], [ -98.28472, 26.04017 ], [ -98.28206, 26.03918 ], [ -98.2788, 26.03751 ], [ -98.2776, 26.037 ], [ -98.278, 26.03542 ], [ -98.27854, 26.03402 ], [ -98.27878, 26.03209 ], [ -98.27863, 26.02759 ], [ -98.27796, 26.02115 ], [ -98.28333, 26.02183 ], [ -98.28337, 26.02231 ], [ -98.28416, 26.02237 ], [ -98.28438, 26.02156 ], [ -98.28388, 26.02133 ], [ -98.28537, 26.01271 ], [ -98.28159, 26.01227 ], [ -98.28179, 26.01113 ], [ -98.27686, 26.01059 ], [ -98.27461, 25.98715 ], [ -98.2741, 25.98715 ], [ -98.2735, 25.99184 ], [ -98.2714, 25.99391 ], [ -98.2709, 25.99581 ], [ -98.26824, 25.99545 ], [ -98.26916, 25.99136 ], [ -98.27101, 25.99171 ], [ -98.27112, 25.98997 ], [ -98.27159, 25.98681 ], [ -98.2564, 25.98474 ], [ -98.2564, 25.98474 ], [ -98.27159, 25.98681 ], [ -98.27112, 25.98997 ], [ -98.27101, 25.99171 ], [ -98.26916, 25.99136 ], [ -98.26824, 25.99545 ], [ -98.2709, 25.99581 ], [ -98.2714, 25.99391 ], [ -98.2735, 25.99184 ], [ -98.2741, 25.98715 ], [ -98.27461, 25.98715 ], [ -98.27686, 26.01059 ], [ -98.28179, 26.01113 ], [ -98.28159, 26.01227 ], [ -98.28537, 26.01271 ], [ -98.28388, 26.02133 ], [ -98.28438, 26.02156 ], [ -98.28416, 26.02237 ], [ -98.28337, 26.02231 ], [ -98.28333, 26.02183 ], [ -98.27796, 26.02115 ], [ -98.27863, 26.02759 ], [ -98.27878, 26.03209 ], [ -98.27854, 26.03402 ], [ -98.278, 26.03542 ], [ -98.2776, 26.037 ], [ -98.2788, 26.03751 ], [ -98.28206, 26.03918 ], [ -98.28472, 26.04017 ], [ -98.28567, 26.04113 ], [ -98.2923, 26.05435 ], [ -98.29566, 26.06195 ], [ -98.29536, 26.06338 ], [ -98.28942, 26.0685 ], [ -98.28835, 26.06952 ], [ -98.28412, 26.07307 ], [ -98.28247, 26.07504 ], [ -98.28159, 26.07743 ], [ -98.2803, 26.08111 ], [ -98.27809, 26.08438 ], [ -98.27773, 26.0862 ], [ -98.2776, 26.08803 ], [ -98.2767, 26.08789 ], [ -98.27528, 26.09452 ], [ -98.28266, 26.09608 ] ] } },
{ "type": "Feature", "properties": { "city": "Reynosa", "route_name": "20_Col. Lázaro Cárdenas - Obrera", "route_name_short": "Col. Lázaro Cárdenas - Obrera", "type": "Bus", "shape_id": "shape_3459" }, "geometry": { "type": "LineString", "coordinates": [ [ -98.2826, 26.09602 ], [ -98.28326, 26.09317 ], [ -98.2839, 26.08989 ], [ -98.28207, 26.0896 ], [ -98.28222, 26.089 ], [ -98.28017, 26.08862 ], [ -98.27572, 26.08761 ], [ -98.27297, 26.0869 ], [ -98.27097, 26.08603 ], [ -98.27155, 26.08408 ], [ -98.2741, 26.0814 ], [ -98.27601, 26.0794 ], [ -98.27657, 26.07653 ], [ -98.27562, 26.07643 ], [ -98.27576, 26.07256 ], [ -98.27622, 26.07055 ], [ -98.27677, 26.06829 ], [ -98.27737, 26.0664 ], [ -98.27806, 26.06667 ], [ -98.2789, 26.06674 ], [ -98.28089, 26.06679 ], [ -98.28167, 26.06226 ], [ -98.28219, 26.05825 ], [ -98.2826, 26.05483 ], [ -98.28445, 26.0551 ], [ -98.28335, 26.05159 ], [ -98.28435, 26.05035 ], [ -98.28386, 26.04981 ], [ -98.28061, 26.04818 ], [ -98.28017, 26.04811 ], [ -98.27931, 26.049 ], [ -98.27817, 26.05017 ], [ -98.27817, 26.05017 ], [ -98.27931, 26.049 ], [ -98.28017, 26.04811 ], [ -98.28061, 26.04818 ], [ -98.28386, 26.04981 ], [ -98.28435, 26.05035 ], [ -98.28335, 26.05159 ], [ -98.28445, 26.0551 ], [ -98.2826, 26.05483 ], [ -98.28206, 26.05786 ], [ -98.2815, 26.06149 ], [ -98.2812, 26.06384 ], [ -98.28089, 26.06679 ], [ -98.2789, 26.06674 ], [ -98.27806, 26.06667 ], [ -98.27737, 26.0664 ], [ -98.27677, 26.06829 ], [ -98.27622, 26.0702 ], [ -98.27576, 26.07256 ], [ -98.27562, 26.07643 ], [ -98.27567, 26.07829 ], [ -98.27561, 26.07914 ], [ -98.27601, 26.0794 ], [ -98.2741, 26.0814 ], [ -98.27155, 26.08408 ], [ -98.27097, 26.08603 ], [ -98.27297, 26.0869 ], [ -98.27383, 26.08716 ], [ -98.27352, 26.08888 ], [ -98.2763, 26.08947 ], [ -98.27528, 26.09452 ], [ -98.28258, 26.09599 ] ] } },
{ "type": "Feature", "properties": { "city": "Reynosa", "route_name": "22_Modulo 2000 - Constitución del 16", "route_name_short": "Modulo 2000 - Constitución del 16", "type": "Bus", "shape_id": "shape_3460" }, "geometry": { "type": "LineString", "coordinates": [ [ 0.0, 0.0 ], [ -98.32459, 26.11279 ], [ -98.31902, 26.10437 ], [ -98.31874, 26.10417 ], [ -98.31807, 26.10371 ], [ -98.31733, 26.10331 ], [ -98.31696, 26.10267 ], [ -98.30821, 26.0987 ], [ -98.30844, 26.09819 ], [ -98.30419, 26.09625 ], [ -98.30394, 26.09683 ], [ -98.30116, 26.09573 ], [ -98.29988, 26.09526 ], [ -98.29883, 26.0945 ], [ -98.29371, 26.09211 ], [ -98.29248, 26.09182 ], [ -98.29169, 26.09102 ], [ -98.29199, 26.0904 ], [ -98.28891, 26.08893 ], [ -98.28483, 26.08714 ], [ -98.28422, 26.08876 ], [ -98.28233, 26.08795 ], [ -98.28204, 26.08782 ], [ -98.2818, 26.08787 ], [ -98.28148, 26.08801 ], [ -98.28137, 26.08821 ], [ -98.28131, 26.08852 ], [ -98.28114, 26.08887 ] ] } },
{ "type": "Feature", "properties": { "city": "Reynosa", "route_name": "24_Granjas Económicas - componentes", "route_name_short": "Granjas Económicas - componentes", "type": "Bus", "shape_id": "shape_3462" }, "geometry": { "type": "LineString", "coordinates": [ [ -98.28264, 26.09604 ], [ -98.28394, 26.08991 ], [ -98.28501, 26.08653 ], [ -98.2851, 26.08641 ], [ -98.28641, 26.08666 ], [ -98.28713, 26.08662 ], [ -98.29064, 26.08611 ], [ -98.29408, 26.08488 ], [ -98.29856, 26.08313 ], [ -98.30201, 26.08178 ], [ -98.30567, 26.08033 ], [ -98.30899, 26.07904 ], [ -98.31213, 26.0778 ], [ -98.31594, 26.07626 ], [ -98.37403, 26.05364 ], [ -98.37407, 26.06148 ], [ -98.37452, 26.06419 ], [ -98.38279, 26.06621 ], [ -98.38322, 26.06484 ], [ -98.37898, 26.06382 ], [ -98.37984, 26.06103 ], [ -98.38412, 26.06203 ], [ -98.38416, 26.06126 ], [ -98.38442, 26.06109 ], [ -98.38477, 26.06124 ], [ -98.38489, 26.06092 ], [ -98.38659, 26.06035 ], [ -98.38881, 26.06569 ], [ -98.38816, 26.06592 ], [ -98.38897, 26.06805 ], [ -98.3866, 26.06881 ], [ -98.38685, 26.06944 ], [ -98.38736, 26.06925 ], [ -98.38736, 26.06925 ], [ -98.38685, 26.06944 ], [ -98.3866, 26.06881 ], [ -98.38897, 26.06805 ], [ -98.38816, 26.06592 ], [ -98.38881, 26.06569 ], [ -98.38659, 26.06035 ], [ -98.38489, 26.06092 ], [ -98.38477, 26.06124 ], [ -98.38442, 26.06109 ], [ -98.38416, 26.06126 ], [ -98.38412, 26.06203 ], [ -98.37984, 26.06103 ], [ -98.37898, 26.06382 ], [ -98.38322, 26.06484 ], [ -98.38279, 26.06621 ], [ -98.37452, 26.06419 ], [ -98.37407, 26.06148 ], [ -98.37403, 26.05364 ], [ -98.31594, 26.07626 ], [ -98.31213, 26.0778 ], [ -98.30899, 26.07904 ], [ -98.30567, 26.08033 ], [ -98.30201, 26.08178 ], [ -98.29856, 26.08313 ], [ -98.29408, 26.08488 ], [ -98.29064, 26.08611 ], [ -98.28729, 26.0858 ], [ -98.28629, 26.08564 ], [ -98.28529, 26.08543 ], [ -98.28291, 26.08486 ], [ -98.2819, 26.08774 ], [ -98.28138, 26.08812 ], [ -98.27985, 26.09551 ] ] } },
{ "type": "Feature", "properties": { "city": "Reynosa", "route_name": "23_Jardines Coloniales", "route_name_short": "Jardines Coloniales", "type": "Bus", "shape_id": "shape_3461" }, "geometry": { "type": "LineString", "coordinates": [ [ -98.28253, 26.09602 ], [ -98.28418, 26.08878 ], [ -98.28507, 26.08633 ], [ -98.28644, 26.08664 ], [ -98.28921, 26.08625 ], [ -98.29094, 26.08598 ], [ -98.29487, 26.08454 ], [ -98.29783, 26.08323 ], [ -98.30268, 26.08145 ], [ -98.31326, 26.07731 ], [ -98.3203, 26.07444 ], [ -98.33037, 26.07069 ], [ -98.3305, 26.06911 ], [ -98.33063, 26.06666 ], [ -98.33266, 26.06655 ], [ -98.33282, 26.06424 ], [ -98.33501, 26.0633 ], [ -98.3351, 26.06088 ], [ -98.33464, 26.06068 ], [ -98.33388, 26.06063 ], [ -98.33445, 26.05743 ], [ -98.33642, 26.05672 ], [ -98.33805, 26.05713 ], [ -98.3388, 26.05859 ], [ -98.33913, 26.05842 ], [ -98.34058, 26.06108 ], [ -98.34418, 26.05966 ], [ -98.34408, 26.05881 ], [ -98.34168, 26.05816 ], [ -98.34157, 26.0556 ], [ -98.34109, 26.05583 ], [ -98.3395, 26.05594 ], [ -98.33952, 26.054 ], [ -98.33861, 26.05407 ], [ -98.33874, 26.05531 ], [ -98.33879, 26.05595 ], [ -98.33942, 26.05593 ], [ -98.33944, 26.05506 ], [ -98.33956, 26.05402 ], [ -98.34125, 26.05386 ], [ -98.34131, 26.05562 ], [ -98.34161, 26.05547 ], [ -98.34161, 26.05449 ], [ -98.34214, 26.05315 ], [ -98.34378, 26.05352 ], [ -98.34331, 26.05478 ], [ -98.3432, 26.05605 ], [ -98.34283, 26.05721 ], [ -98.34246, 26.05842 ], [ -98.34418, 26.05886 ], [ -98.34589, 26.05869 ], [ -98.34566, 26.0565 ], [ -98.34525, 26.05644 ], [ -98.34512, 26.05632 ], [ -98.34529, 26.05545 ], [ -98.34401, 26.05533 ], [ -98.34418, 26.05405 ], [ -98.34577, 26.05428 ], [ -98.34629, 26.05388 ], [ -98.34664, 26.05414 ], [ -98.3475, 26.0532 ], [ -98.34821, 26.05268 ], [ -98.34898, 26.05245 ], [ -98.34899, 26.051 ], [ -98.34899, 26.051 ], [ -98.34898, 26.05245 ], [ -98.34821, 26.05268 ], [ -98.3475, 26.0532 ], [ -98.34664, 26.05414 ], [ -98.34629, 26.05388 ], [ -98.34577, 26.05428 ], [ -98.34418, 26.05405 ], [ -98.34401, 26.05533 ], [ -98.34529, 26.05545 ], [ -98.34512, 26.05632 ], [ -98.34525, 26.05644 ], [ -98.34566, 26.0565 ], [ -98.34589, 26.05869 ], [ -98.34418, 26.05886 ], [ -98.34246, 26.05842 ], [ -98.34283, 26.05721 ], [ -98.3432, 26.05605 ], [ -98.34331, 26.05478 ], [ -98.34378, 26.05352 ], [ -98.34214, 26.05315 ], [ -98.34161, 26.05449 ], [ -98.34161, 26.05547 ], [ -98.34131, 26.05562 ], [ -98.34125, 26.05386 ], [ -98.33956, 26.05402 ], [ -98.33944, 26.05506 ], [ -98.33942, 26.05593 ], [ -98.33879, 26.05595 ], [ -98.33874, 26.05531 ], [ -98.33861, 26.05407 ], [ -98.33952, 26.054 ], [ -98.3395, 26.05594 ], [ -98.34109, 26.05583 ], [ -98.34157, 26.0556 ], [ -98.34168, 26.05816 ], [ -98.34408, 26.05881 ], [ -98.34418, 26.05966 ], [ -98.34058, 26.06108 ], [ -98.33913, 26.05842 ], [ -98.3388, 26.05859 ], [ -98.33805, 26.05713 ], [ -98.33642, 26.05672 ], [ -98.33445, 26.05743 ], [ -98.33388, 26.06063 ], [ -98.33464, 26.06068 ], [ -98.3351, 26.06088 ], [ -98.33501, 26.0633 ], [ -98.33282, 26.06424 ], [ -98.33266, 26.06655 ], [ -98.33063, 26.06666 ], [ -98.3305, 26.06911 ], [ -98.33037, 26.07069 ], [ -98.3203, 26.07444 ], [ -98.31326, 26.07731 ], [ -98.30268, 26.08145 ], [ -98.29783, 26.08323 ], [ -98.29487, 26.08454 ], [ -98.29094, 26.08598 ], [ -98.28921, 26.08625 ], [ -98.28755, 26.08577 ], [ -98.28646, 26.08569 ], [ -98.28545, 26.08546 ], [ -98.28303, 26.08483 ], [ -98.28185, 26.08789 ], [ -98.28114, 26.08876 ], [ -98.27994, 26.09548 ], [ -98.28247, 26.096 ] ] } },
{ "type": "Feature", "properties": { "city": "Reynosa", "route_name": "28_Ej. Corrales - 14 Correo", "route_name_short": "Ej. Corrales - 14 Correo", "type": "Bus", "shape_id": "shape_3464" }, "geometry": { "type": "LineString", "coordinates": [ [ -98.28262, 26.09602 ], [ -98.28342, 26.09237 ], [ -98.28157, 26.09211 ], [ -98.28221, 26.08897 ], [ -98.2784, 26.08826 ], [ -98.27302, 26.08689 ], [ -98.27097, 26.08604 ], [ -98.2714, 26.08438 ], [ -98.27199, 26.08357 ], [ -98.27225, 26.08309 ], [ -98.26792, 26.0781 ], [ -98.26562, 26.07556 ], [ -98.26318, 26.07378 ], [ -98.25962, 26.07139 ], [ -98.23638, 26.0554 ], [ -98.23638, 26.0554 ], [ -98.25962, 26.07139 ], [ -98.26318, 26.07378 ], [ -98.26562, 26.07556 ], [ -98.26792, 26.0781 ], [ -98.27225, 26.08309 ], [ -98.27199, 26.08357 ], [ -98.2714, 26.08438 ], [ -98.27097, 26.08604 ], [ -98.27302, 26.08689 ], [ -98.27382, 26.08711 ], [ -98.27355, 26.08887 ], [ -98.27629, 26.08951 ], [ -98.27524, 26.0945 ], [ -98.28266, 26.09604 ] ] } },
{ "type": "Feature", "properties": { "city": "Reynosa", "route_name": "26_Penal", "route_name_short": "Penal", "type": "Bus", "shape_id": "shape_3463" }, "geometry": { "type": "LineString", "coordinates": [ [ -98.2771, 26.08794 ], [ -98.27663, 26.08782 ], [ -98.27524, 26.09452 ], [ -98.28646, 26.09679 ], [ -98.28891, 26.09747 ], [ -98.28852, 26.09799 ], [ -98.28822, 26.09969 ], [ -98.28901, 26.09982 ], [ -98.29004, 26.09863 ], [ -98.29116, 26.09955 ], [ -98.29395, 26.09649 ], [ -98.29154, 26.09458 ], [ -98.29287, 26.09317 ], [ -98.29532, 26.09426 ], [ -98.29579, 26.09424 ], [ -98.29629, 26.09451 ], [ -98.29703, 26.09485 ], [ -98.29703, 26.09485 ], [ -98.29629, 26.09451 ], [ -98.29579, 26.09424 ], [ -98.29532, 26.09426 ], [ -98.29287, 26.09317 ], [ -98.29154, 26.09458 ], [ -98.29395, 26.09649 ], [ -98.29116, 26.09955 ], [ -98.29004, 26.09863 ], [ -98.28901, 26.09982 ], [ -98.28822, 26.09969 ], [ -98.28852, 26.09799 ], [ -98.28891, 26.09747 ], [ -98.28672, 26.09695 ], [ -98.28751, 26.09593 ], [ -98.28288, 26.0952 ], [ -98.28388, 26.08993 ], [ -98.2821, 26.08963 ], [ -98.28225, 26.08903 ], [ -98.27663, 26.08782 ] ] } },
{ "type": "Feature", "properties": { "city": "Reynosa", "route_name": "29_Unidos Podemos - Doctores", "route_name_short": "Unidos Podemos - Doctores", "type": "Bus", "shape_id": "shape_3465" }, "geometry": { "type": "LineString", "coordinates": [ [ -98.28264, 26.09603 ], [ -98.27524, 26.09448 ], [ -98.27661, 26.08787 ], [ -98.27763, 26.08807 ], [ -98.27762, 26.08662 ], [ -98.278, 26.08452 ], [ -98.27833, 26.0835 ], [ -98.27986, 26.08202 ], [ -98.28173, 26.07714 ], [ -98.28304, 26.07412 ], [ -98.28807, 26.06977 ], [ -98.29006, 26.06792 ], [ -98.29502, 26.06371 ], [ -98.29559, 26.06283 ], [ -98.2955, 26.06153 ], [ -98.29371, 26.05733 ], [ -98.29131, 26.05246 ], [ -98.28941, 26.04804 ], [ -98.28678, 26.04286 ], [ -98.28616, 26.04126 ], [ -98.28464, 26.04005 ], [ -98.28285, 26.03965 ], [ -98.27576, 26.03645 ], [ -98.27516, 26.03581 ], [ -98.2754, 26.03489 ], [ -98.27643, 26.03415 ], [ -98.2773, 26.03346 ], [ -98.27817, 26.03447 ], [ -98.27782, 26.0359 ], [ -98.27782, 26.03715 ], [ -98.28126, 26.03869 ], [ -98.28203, 26.03693 ], [ -98.2901, 26.04014 ], [ -98.29187, 26.03958 ], [ -98.29284, 26.04174 ], [ -98.2927, 26.04311 ], [ -98.29802, 26.04361 ], [ -98.30044, 26.04375 ], [ -98.30089, 26.04039 ], [ -98.30423, 26.04193 ], [ -98.30496, 26.04069 ], [ -98.30606, 26.04143 ], [ -98.30899, 26.04191 ], [ -98.30841, 26.04473 ], [ -98.318, 26.04559 ], [ -98.31749, 26.04276 ], [ -98.32015, 26.04308 ], [ -98.31959, 26.03939 ], [ -98.32075, 26.0356 ], [ -98.32201, 26.04051 ], [ -98.32207, 26.04018 ], [ -98.32186, 26.03943 ], [ -98.32195, 26.03841 ], [ -98.32321, 26.03777 ], [ -98.32286, 26.04044 ], [ -98.31978, 26.04091 ], [ -98.32015, 26.04308 ], [ -98.31749, 26.04276 ], [ -98.318, 26.04559 ], [ -98.30841, 26.04473 ], [ -98.30899, 26.04191 ], [ -98.30606, 26.04143 ], [ -98.30496, 26.04069 ], [ -98.30423, 26.04193 ], [ -98.30089, 26.04039 ], [ -98.30044, 26.04375 ], [ -98.29802, 26.04361 ], [ -98.2927, 26.04311 ], [ -98.29284, 26.04174 ], [ -98.29187, 26.03958 ], [ -98.2901, 26.04014 ], [ -98.28203, 26.03693 ], [ -98.28128, 26.03873 ], [ -98.28285, 26.03965 ], [ -98.28464, 26.04005 ], [ -98.28616, 26.04126 ], [ -98.28678, 26.04286 ], [ -98.28941, 26.04804 ], [ -98.29131, 26.05246 ], [ -98.29371, 26.05733 ], [ -98.2955, 26.06153 ], [ -98.29559, 26.06283 ], [ -98.29502, 26.06371 ], [ -98.29006, 26.06792 ], [ -98.28807, 26.06977 ], [ -98.28304, 26.07412 ], [ -98.28173, 26.07714 ], [ -98.27986, 26.08202 ], [ -98.2795, 26.08378 ], [ -98.27927, 26.08482 ], [ -98.28507, 26.08625 ], [ -98.28425, 26.08882 ] ] } },
{ "type": "Feature", "properties": { "city": "Reynosa", "route_name": "30_Real de Jarachina Sur - cumbres 1 y 2 - Encinos - Tecnológico - Centro", "route_name_short": "Real de Jarachina Sur - cumbres 1 y 2 - Encinos - Tecnológico - Centro", "type": "Bus", "shape_id": "shape_3466" }, "geometry": { "type": "LineString", "coordinates": [ [ -98.2826, 26.09605 ], [ -98.28412, 26.08902 ], [ -98.28507, 26.08644 ], [ -98.2875, 26.08656 ], [ -98.29106, 26.08596 ], [ -98.2978, 26.08343 ], [ -98.30259, 26.08156 ], [ -98.3185, 26.07523 ], [ -98.32359, 26.07327 ], [ -98.32386, 26.07043 ], [ -98.32552, 26.0705 ], [ -98.32673, 26.06328 ], [ -98.33382, 26.06062 ], [ -98.3345, 26.05734 ], [ -98.33483, 26.05295 ], [ -98.33506, 26.04711 ], [ -98.34934, 26.04862 ], [ -98.35077, 26.03935 ], [ -98.35257, 26.03916 ], [ -98.35281, 26.04089 ], [ -98.35508, 26.0406 ], [ -98.35522, 26.04184 ], [ -98.35658, 26.04173 ], [ -98.35672, 26.04082 ], [ -98.36292, 26.04015 ], [ -98.36263, 26.03801 ], [ -98.36263, 26.03801 ], [ -98.36292, 26.04015 ], [ -98.35672, 26.04082 ], [ -98.35658, 26.04173 ], [ -98.35522, 26.04184 ], [ -98.35508, 26.0406 ], [ -98.35281, 26.04089 ], [ -98.35257, 26.03916 ], [ -98.35077, 26.03935 ], [ -98.34934, 26.04862 ], [ -98.33506, 26.04711 ], [ -98.33483, 26.05295 ], [ -98.3345, 26.05734 ], [ -98.33382, 26.06062 ], [ -98.32673, 26.06328 ], [ -98.32552, 26.0705 ], [ -98.32386, 26.07043 ], [ -98.32359, 26.07327 ], [ -98.3185, 26.07523 ], [ -98.30259, 26.08156 ], [ -98.2978, 26.08343 ], [ -98.29106, 26.08596 ], [ -98.28963, 26.08625 ], [ -98.28821, 26.08597 ], [ -98.283, 26.08485 ], [ -98.28197, 26.08791 ], [ -98.28135, 26.08816 ], [ -98.27981, 26.09549 ], [ -98.28266, 26.09602 ] ] } },
{ "type": "Feature", "properties": { "city": "Reynosa", "route_name": "31_Componentes - Esfuerzo - Campestre", "route_name_short": "Componentes - Esfuerzo - Campestre", "type": "Bus", "shape_id": "shape_3467" }, "geometry": { "type": "LineString", "coordinates": [ [ -98.2826, 26.09604 ], [ -98.28502, 26.08636 ], [ -98.28631, 26.08665 ], [ -98.29084, 26.08602 ], [ -98.29743, 26.08352 ], [ -98.30644, 26.08 ], [ -98.31664, 26.07597 ], [ -98.32558, 26.07249 ], [ -98.33014, 26.07074 ], [ -98.33626, 26.06842 ], [ -98.34256, 26.06591 ], [ -98.34774, 26.06385 ], [ -98.36804, 26.0559 ], [ -98.37738, 26.05223 ], [ -98.37171, 26.04025 ], [ -98.37625, 26.03845 ], [ -98.37632, 26.03888 ], [ -98.37804, 26.03858 ], [ -98.37915, 26.04447 ], [ -98.38114, 26.04411 ], [ -98.38017, 26.03819 ], [ -98.3821, 26.03809 ], [ -98.38219, 26.03797 ], [ -98.38734, 26.03779 ], [ -98.38729, 26.03541 ], [ -98.38271, 26.03563 ], [ -98.38265, 26.0357 ], [ -98.38128, 26.03576 ], [ -98.37986, 26.03594 ], [ -98.37974, 26.03552 ], [ -98.37924, 26.03261 ], [ -98.3798, 26.0323 ], [ -98.38306, 26.03278 ], [ -98.38997, 26.02486 ], [ -98.39184, 26.00945 ], [ -98.39564, 26.00955 ], [ -98.39564, 26.00881 ], [ -98.39235, 26.00866 ], [ -98.39218, 26.0093 ], [ -98.39218, 26.0093 ], [ -98.39235, 26.00866 ], [ -98.39564, 26.00881 ], [ -98.39564, 26.00955 ], [ -98.39184, 26.00945 ], [ -98.38997, 26.02486 ], [ -98.38306, 26.03278 ], [ -98.3798, 26.0323 ], [ -98.37924, 26.03261 ], [ -98.37974, 26.03552 ], [ -98.37986, 26.03594 ], [ -98.38128, 26.03576 ], [ -98.38265, 26.0357 ], [ -98.38271, 26.03563 ], [ -98.38729, 26.03541 ], [ -98.38734, 26.03779 ], [ -98.38219, 26.03797 ], [ -98.3821, 26.03809 ], [ -98.38017, 26.03819 ], [ -98.38114, 26.04411 ], [ -98.37915, 26.04447 ], [ -98.37804, 26.03858 ], [ -98.37632, 26.03888 ], [ -98.37625, 26.03845 ], [ -98.37171, 26.04025 ], [ -98.37738, 26.05223 ], [ -98.36804, 26.0559 ], [ -98.34774, 26.06385 ], [ -98.34256, 26.06591 ], [ -98.33626, 26.06842 ], [ -98.33014, 26.07074 ], [ -98.32558, 26.07249 ], [ -98.31664, 26.07597 ], [ -98.30644, 26.08 ], [ -98.29743, 26.08352 ], [ -98.29084, 26.08602 ], [ -98.28949, 26.08625 ], [ -98.28638, 26.08567 ], [ -98.28298, 26.08479 ], [ -98.28202, 26.08778 ], [ -98.28139, 26.08824 ], [ -98.27985, 26.09547 ], [ -98.28264, 26.09606 ] ] } },
{ "type": "Feature", "properties": { "city": "Reynosa", "route_name": "32_Col Independencia - Satélite - Centro", "route_name_short": "Col Independencia - Satélite - Centro", "type": "Bus", "shape_id": "shape_3468" }, "geometry": { "type": "LineString", "coordinates": [ [ -98.28261, 26.09602 ], [ -98.28414, 26.08898 ], [ -98.28507, 26.0863 ], [ -98.2859, 26.08357 ], [ -98.28717, 26.07946 ], [ -98.28838, 26.07568 ], [ -98.2902, 26.06991 ], [ -98.29031, 26.06934 ], [ -98.28944, 26.06867 ], [ -98.29116, 26.06714 ], [ -98.29449, 26.06421 ], [ -98.29575, 26.06266 ], [ -98.29568, 26.06179 ], [ -98.29467, 26.05954 ], [ -98.29322, 26.06044 ], [ -98.29444, 26.05901 ], [ -98.29301, 26.05578 ], [ -98.28733, 26.04392 ], [ -98.28632, 26.04175 ], [ -98.28582, 26.04077 ], [ -98.28424, 26.03993 ], [ -98.28264, 26.03959 ], [ -98.28106, 26.03854 ], [ -98.27779, 26.03736 ], [ -98.27792, 26.03608 ], [ -98.27852, 26.03433 ], [ -98.27877, 26.0326 ], [ -98.27792, 26.02117 ], [ -98.27494, 26.02092 ], [ -98.27, 26.02239 ], [ -98.26509, 26.02176 ], [ -98.26603, 26.01799 ], [ -98.26411, 26.01777 ], [ -98.26446, 26.01571 ], [ -98.26055, 26.01575 ], [ -98.26061, 26.0134 ], [ -98.25508, 26.0134 ], [ -98.2531, 26.0133 ], [ -98.24778, 26.0125 ], [ -98.24407, 26.0125 ], [ -98.24432, 26.0108 ], [ -98.24681, 26.01108 ], [ -98.24685, 26.01153 ], [ -98.2479, 26.01169 ], [ -98.24951, 26.00108 ], [ -98.24951, 26.00108 ], [ -98.2479, 26.01169 ], [ -98.24685, 26.01153 ], [ -98.24681, 26.01108 ], [ -98.24432, 26.0108 ], [ -98.24407, 26.0125 ], [ -98.24778, 26.0125 ], [ -98.2531, 26.0133 ], [ -98.25508, 26.0134 ], [ -98.26061, 26.0134 ], [ -98.26055, 26.01575 ], [ -98.26446, 26.01571 ], [ -98.26411, 26.01777 ], [ -98.26603, 26.01799 ], [ -98.26509, 26.02176 ], [ -98.27, 26.02239 ], [ -98.27494, 26.02092 ], [ -98.27792, 26.02117 ], [ -98.27877, 26.0326 ], [ -98.27513, 26.03517 ], [ -98.27558, 26.03652 ], [ -98.27779, 26.03736 ], [ -98.28106, 26.03854 ], [ -98.28264, 26.03959 ], [ -98.28424, 26.03993 ], [ -98.28582, 26.04077 ], [ -98.28632, 26.04175 ], [ -98.28733, 26.04392 ], [ -98.29301, 26.05578 ], [ -98.29444, 26.05901 ], [ -98.29444, 26.05927 ], [ -98.29467, 26.05954 ], [ -98.29568, 26.06179 ], [ -98.29575, 26.06266 ], [ -98.29449, 26.06421 ], [ -98.29116, 26.06714 ], [ -98.28944, 26.06867 ], [ -98.28897, 26.06897 ], [ -98.28955, 26.06941 ], [ -98.28891, 26.07037 ], [ -98.288, 26.07309 ], [ -98.28639, 26.07841 ], [ -98.28573, 26.08011 ], [ -98.28474, 26.08321 ], [ -98.28375, 26.08594 ], [ -98.28264, 26.08573 ], [ -98.28238, 26.08682 ], [ -98.28187, 26.08785 ], [ -98.28142, 26.08806 ], [ -98.28119, 26.08884 ], [ -98.27666, 26.08788 ], [ -98.27522, 26.09458 ], [ -98.28264, 26.09612 ] ] } },
{ "type": "Feature", "properties": { "city": "Reynosa", "route_name": "34_López Portillo - Pirámides - Centro", "route_name_short": "López Portillo - Pirámides - Centro", "type": "Bus", "shape_id": "shape_3470" }, "geometry": { "type": "LineString", "coordinates": [ [ -98.28255, 26.09599 ], [ -98.28507, 26.08629 ], [ -98.2874, 26.0786 ], [ -98.29032, 26.06931 ], [ -98.28942, 26.06846 ], [ -98.29558, 26.06328 ], [ -98.29566, 26.06207 ], [ -98.29373, 26.05738 ], [ -98.29182, 26.05339 ], [ -98.28867, 26.0467 ], [ -98.28652, 26.04236 ], [ -98.28584, 26.04078 ], [ -98.28427, 26.03992 ], [ -98.28253, 26.03959 ], [ -98.28107, 26.0386 ], [ -98.27779, 26.03733 ], [ -98.27839, 26.03442 ], [ -98.27871, 26.03363 ], [ -98.27884, 26.03137 ], [ -98.27414, 25.98278 ], [ -98.26961, 25.98212 ], [ -98.26961, 25.98212 ], [ -98.27414, 25.98278 ], [ -98.27884, 26.03137 ], [ -98.28002, 26.03317 ], [ -98.28077, 26.03425 ], [ -98.28161, 26.03606 ], [ -98.28205, 26.03688 ], [ -98.28154, 26.03799 ], [ -98.28131, 26.0387 ], [ -98.28282, 26.03965 ], [ -98.28369, 26.03985 ], [ -98.28427, 26.03992 ], [ -98.28584, 26.04078 ], [ -98.28652, 26.04236 ], [ -98.28867, 26.0467 ], [ -98.29182, 26.05339 ], [ -98.29373, 26.05738 ], [ -98.29566, 26.06207 ], [ -98.29558, 26.06328 ], [ -98.28899, 26.0689 ], [ -98.2897, 26.06952 ], [ -98.28895, 26.07043 ], [ -98.28646, 26.07849 ], [ -98.28386, 26.08602 ], [ -98.28266, 26.08575 ], [ -98.28187, 26.08789 ], [ -98.28137, 26.08812 ], [ -98.28116, 26.08884 ], [ -98.27661, 26.08781 ], [ -98.2753, 26.09454 ], [ -98.28273, 26.09603 ] ] } },
{ "type": "Feature", "properties": { "city": "Reynosa", "route_name": "33_Puerta del Sol - Cumbres 3 - Centro", "route_name_short": "Puerta del Sol - Cumbres 3 - Centro", "type": "Bus", "shape_id": "shape_3469" }, "geometry": { "type": "LineString", "coordinates": [ [ -98.2826, 26.09602 ], [ -98.28507, 26.08641 ], [ -98.28674, 26.0867 ], [ -98.29079, 26.086 ], [ -98.29481, 26.08454 ], [ -98.29991, 26.08259 ], [ -98.30257, 26.08155 ], [ -98.32352, 26.07332 ], [ -98.32382, 26.07038 ], [ -98.32555, 26.07044 ], [ -98.32816, 26.05577 ], [ -98.33154, 26.05583 ], [ -98.33162, 26.05247 ], [ -98.3284, 26.05245 ], [ -98.32864, 26.0467 ], [ -98.33515, 26.04695 ], [ -98.33547, 26.04412 ], [ -98.33606, 26.04309 ], [ -98.33618, 26.04145 ], [ -98.33869, 26.03906 ], [ -98.33901, 26.03893 ], [ -98.33924, 26.03929 ], [ -98.33966, 26.039 ], [ -98.3439, 26.03954 ], [ -98.34368, 26.04115 ], [ -98.34588, 26.04142 ], [ -98.3469, 26.03474 ], [ -98.34554, 26.03462 ], [ -98.34528, 26.0367 ], [ -98.34433, 26.03655 ], [ -98.34422, 26.03783 ], [ -98.34105, 26.03735 ], [ -98.34051, 26.03685 ], [ -98.34014, 26.03686 ], [ -98.33983, 26.03671 ], [ -98.33983, 26.03671 ], [ -98.34014, 26.03686 ], [ -98.34051, 26.03685 ], [ -98.34105, 26.03735 ], [ -98.34422, 26.03783 ], [ -98.34433, 26.03655 ], [ -98.34528, 26.0367 ], [ -98.34554, 26.03462 ], [ -98.3469, 26.03474 ], [ -98.34588, 26.04142 ], [ -98.34368, 26.04115 ], [ -98.3439, 26.03954 ], [ -98.33966, 26.039 ], [ -98.33924, 26.03929 ], [ -98.33901, 26.03893 ], [ -98.33869, 26.03906 ], [ -98.33618, 26.04145 ], [ -98.33606, 26.04309 ], [ -98.33547, 26.04412 ], [ -98.33515, 26.04695 ], [ -98.32864, 26.0467 ], [ -98.3284, 26.05245 ], [ -98.33162, 26.05247 ], [ -98.33154, 26.05583 ], [ -98.32816, 26.05577 ], [ -98.32555, 26.07044 ], [ -98.32382, 26.07038 ], [ -98.32352, 26.07332 ], [ -98.30257, 26.08155 ], [ -98.29991, 26.08259 ], [ -98.29481, 26.08454 ], [ -98.29079, 26.086 ], [ -98.2894, 26.08627 ], [ -98.28298, 26.08483 ], [ -98.282, 26.08772 ], [ -98.28139, 26.08824 ], [ -98.27989, 26.0955 ], [ -98.28242, 26.09593 ] ] } },
{ "type": "Feature", "properties": { "city": "Reynosa", "route_name": "37_Col Jacinto II - 8 Aztlán - Centro", "route_name_short": "Col Jacinto II - 8 Aztlán - Centro", "type": "Bus", "shape_id": "shape_3472" }, "geometry": { "type": "LineString", "coordinates": [ [ -98.28263, 26.09603 ], [ -98.28417, 26.08898 ], [ -98.28504, 26.08645 ], [ -98.2865, 26.08664 ], [ -98.29083, 26.08603 ], [ -98.29437, 26.0847 ], [ -98.3009, 26.08218 ], [ -98.32351, 26.07327 ], [ -98.32386, 26.07037 ], [ -98.32028, 26.07031 ], [ -98.32137, 26.06826 ], [ -98.31953, 26.06825 ], [ -98.32011, 26.06411 ], [ -98.31729, 26.06393 ], [ -98.318, 26.05932 ], [ -98.31601, 26.05903 ], [ -98.31504, 26.05853 ], [ -98.31595, 26.05686 ], [ -98.31905, 26.05875 ], [ -98.31988, 26.05876 ], [ -98.32071, 26.05831 ], [ -98.32303, 26.05691 ], [ -98.32353, 26.05407 ], [ -98.32551, 26.05402 ], [ -98.32551, 26.05317 ], [ -98.325, 26.05264 ], [ -98.32571, 26.05227 ], [ -98.32694, 26.05213 ], [ -98.32667, 26.0505 ], [ -98.32768, 26.05071 ], [ -98.32841, 26.05054 ], [ -98.32871, 26.04668 ], [ -98.31345, 26.04512 ], [ -98.31386, 26.04821 ], [ -98.31679, 26.04792 ], [ -98.31766, 26.04662 ], [ -98.31583, 26.04675 ], [ -98.31423, 26.04689 ], [ -98.31418, 26.04647 ], [ -98.31372, 26.04651 ], [ -98.31372, 26.04651 ], [ -98.31418, 26.04647 ], [ -98.31423, 26.04689 ], [ -98.31583, 26.04675 ], [ -98.31766, 26.04662 ], [ -98.31679, 26.04792 ], [ -98.31386, 26.04821 ], [ -98.31345, 26.04512 ], [ -98.32871, 26.04668 ], [ -98.32841, 26.05054 ], [ -98.32768, 26.05071 ], [ -98.32667, 26.0505 ], [ -98.32694, 26.05213 ], [ -98.32571, 26.05227 ], [ -98.325, 26.05264 ], [ -98.32551, 26.05317 ], [ -98.32551, 26.05402 ], [ -98.32353, 26.05407 ], [ -98.32303, 26.05691 ], [ -98.32071, 26.05831 ], [ -98.31988, 26.05876 ], [ -98.31905, 26.05875 ], [ -98.31595, 26.05686 ], [ -98.31504, 26.05853 ], [ -98.31601, 26.05903 ], [ -98.318, 26.05932 ], [ -98.31729, 26.06393 ], [ -98.32011, 26.06411 ], [ -98.31953, 26.06825 ], [ -98.32137, 26.06826 ], [ -98.32028, 26.07031 ], [ -98.32386, 26.07037 ], [ -98.32351, 26.07327 ], [ -98.3009, 26.08218 ], [ -98.29437, 26.0847 ], [ -98.28955, 26.08622 ], [ -98.2868, 26.08569 ], [ -98.28296, 26.08485 ], [ -98.28187, 26.08783 ], [ -98.28133, 26.08816 ], [ -98.27989, 26.0955 ], [ -98.28255, 26.09602 ] ] } },
{ "type": "Feature", "properties": { "city": "Reynosa", "route_name": "36_LG - Ejido el Guerreño", "route_name_short": "LG - Ejido el Guerreño", "type": "Bus", "shape_id": "shape_3471" }, "geometry": { "type": "LineString", "coordinates": [ [ -98.2826, 26.09601 ], [ -98.27528, 26.09462 ], [ -98.2767, 26.08793 ], [ -98.27764, 26.08801 ], [ -98.27775, 26.08625 ], [ -98.27807, 26.0845 ], [ -98.27821, 26.08363 ], [ -98.27983, 26.08231 ], [ -98.28251, 26.07492 ], [ -98.28376, 26.07328 ], [ -98.28798, 26.06983 ], [ -98.29077, 26.0674 ], [ -98.29496, 26.06368 ], [ -98.29573, 26.06235 ], [ -98.29481, 26.05977 ], [ -98.29172, 26.05347 ], [ -98.2882, 26.0457 ], [ -98.28607, 26.0413 ], [ -98.2853, 26.04038 ], [ -98.28236, 26.03957 ], [ -98.28024, 26.03808 ], [ -98.27824, 26.03731 ], [ -98.27105, 26.03363 ], [ -98.26086, 26.02972 ], [ -98.25155, 26.02586 ], [ -98.21842, 26.01803 ], [ -98.21803, 26.03787 ], [ -98.21082, 26.03238 ], [ -98.20943, 26.03249 ], [ -98.20859, 26.02829 ], [ -98.20683, 26.02935 ], [ -98.20376, 26.02709 ], [ -98.2031, 26.02655 ], [ -98.20114, 26.02503 ], [ -98.19885, 26.02376 ], [ -98.19866, 26.02063 ], [ -98.20063, 26.01334 ], [ -98.20825, 26.01533 ], [ -98.2082, 26.01342 ], [ -98.20745, 26.0114 ], [ -98.20741, 26.0082 ], [ -98.20752, 26.00141 ], [ -98.21241, 26.00165 ], [ -98.21423, 26.00373 ], [ -98.21494, 26.00376 ], [ -98.21855, 26.00746 ], [ -98.21842, 26.01803 ], [ -98.25155, 26.02586 ], [ -98.26086, 26.02972 ], [ -98.27105, 26.03363 ], [ -98.27824, 26.03731 ], [ -98.28024, 26.03808 ], [ -98.28236, 26.03957 ], [ -98.2853, 26.04038 ], [ -98.28607, 26.0413 ], [ -98.2882, 26.0457 ], [ -98.29172, 26.05347 ], [ -98.29481, 26.05977 ], [ -98.29573, 26.06235 ], [ -98.29496, 26.06368 ], [ -98.29077, 26.0674 ], [ -98.28798, 26.06983 ], [ -98.28376, 26.07328 ], [ -98.28251, 26.07492 ], [ -98.27921, 26.08479 ], [ -98.28515, 26.08645 ], [ -98.28399, 26.08993 ], [ -98.28258, 26.09606 ] ] } },
{ "type": "Feature", "properties": { "city": "Reynosa", "route_name": "38_Carlos Cantú - Lomas del Pedregal", "route_name_short": "Carlos Cantú - Lomas del Pedregal", "type": "Bus", "shape_id": "shape_3473" }, "geometry": { "type": "LineString", "coordinates": [ [ -98.28263, 26.09605 ], [ -98.28512, 26.08635 ], [ -98.29018, 26.06995 ], [ -98.29034, 26.06935 ], [ -98.28939, 26.06862 ], [ -98.29231, 26.06621 ], [ -98.29511, 26.06368 ], [ -98.29574, 26.0626 ], [ -98.29572, 26.06167 ], [ -98.29382, 26.05754 ], [ -98.29257, 26.05505 ], [ -98.291, 26.0515 ], [ -98.28828, 26.0458 ], [ -98.28711, 26.04346 ], [ -98.28613, 26.04124 ], [ -98.28556, 26.04057 ], [ -98.28427, 26.03992 ], [ -98.28278, 26.03962 ], [ -98.28203, 26.03918 ], [ -98.2808, 26.03844 ], [ -98.27925, 26.03777 ], [ -98.27718, 26.03704 ], [ -98.27625, 26.03666 ], [ -98.27534, 26.0361 ], [ -98.27512, 26.03554 ], [ -98.27534, 26.0349 ], [ -98.27678, 26.03386 ], [ -98.27749, 26.03339 ], [ -98.2782, 26.03277 ], [ -98.27878, 26.03221 ], [ -98.27895, 26.03064 ], [ -98.27863, 26.02749 ], [ -98.28764, 26.02867 ], [ -98.28892, 26.02634 ], [ -98.29118, 26.03046 ], [ -98.28763, 26.03 ], [ -98.28735, 26.03169 ], [ -98.28723, 26.03264 ], [ -98.29172, 26.03322 ], [ -98.29193, 26.03178 ], [ -98.2919, 26.03139 ], [ -98.29203, 26.03127 ], [ -98.29947, 26.03819 ], [ -98.30032, 26.03778 ], [ -98.30122, 26.03785 ], [ -98.30221, 26.03823 ], [ -98.30315, 26.03774 ], [ -98.30328, 26.03685 ], [ -98.30235, 26.03561 ], [ -98.30252, 26.03454 ], [ -98.30293, 26.03173 ], [ -98.30843, 26.03255 ], [ -98.30943, 26.02593 ], [ -98.31102, 26.02612 ], [ -98.31112, 26.02563 ], [ -98.31112, 26.02563 ], [ -98.31102, 26.02612 ], [ -98.30943, 26.02593 ], [ -98.30843, 26.03255 ], [ -98.30293, 26.03173 ], [ -98.30252, 26.03454 ], [ -98.30235, 26.03561 ], [ -98.30328, 26.03685 ], [ -98.30315, 26.03774 ], [ -98.30221, 26.03823 ], [ -98.30122, 26.03785 ], [ -98.30032, 26.03778 ], [ -98.29947, 26.03819 ], [ -98.29203, 26.03127 ], [ -98.2919, 26.03139 ], [ -98.29193, 26.03178 ], [ -98.29172, 26.03322 ], [ -98.28723, 26.03264 ], [ -98.28735, 26.03169 ], [ -98.28763, 26.03 ], [ -98.29118, 26.03046 ], [ -98.28892, 26.02634 ], [ -98.28764, 26.02867 ], [ -98.27863, 26.02749 ], [ -98.27895, 26.03064 ], [ -98.27878, 26.03221 ], [ -98.27872, 26.03283 ], [ -98.27875, 26.03332 ], [ -98.27871, 26.03378 ], [ -98.27828, 26.0349 ], [ -98.27813, 26.03552 ], [ -98.27788, 26.03635 ], [ -98.27786, 26.03688 ], [ -98.2778, 26.03729 ], [ -98.27902, 26.03799 ], [ -98.28052, 26.03889 ], [ -98.28172, 26.03945 ], [ -98.28259, 26.03985 ], [ -98.28392, 26.04039 ], [ -98.28464, 26.04073 ], [ -98.28535, 26.04101 ], [ -98.28583, 26.04146 ], [ -98.28711, 26.04346 ], [ -98.28828, 26.0458 ], [ -98.291, 26.0515 ], [ -98.29257, 26.05505 ], [ -98.29382, 26.05754 ], [ -98.29572, 26.06167 ], [ -98.29574, 26.0626 ], [ -98.29511, 26.06368 ], [ -98.29231, 26.06621 ], [ -98.28897, 26.06891 ], [ -98.28976, 26.06949 ], [ -98.28886, 26.07048 ], [ -98.28393, 26.08602 ], [ -98.28268, 26.08575 ], [ -98.28188, 26.0878 ], [ -98.28135, 26.08809 ], [ -98.28117, 26.08882 ], [ -98.27668, 26.08788 ], [ -98.27524, 26.09453 ], [ -98.2826, 26.09608 ] ] } },
{ "type": "Feature", "properties": { "city": "Reynosa", "route_name": "39_Col. Mano con Mano - por PEMEX", "route_name_short": "Col. Mano con Mano - por PEMEX", "type": "Bus", "shape_id": "shape_3474" }, "geometry": { "type": "LineString", "coordinates": [ [ -98.29009, 25.98688 ], [ -98.27442, 25.98474 ], [ -98.2767, 26.00926 ], [ -98.27957, 26.00926 ], [ -98.2797, 26.00978 ], [ -98.29054, 26.01126 ], [ -98.2904, 26.01225 ], [ -98.29225, 26.01244 ], [ -98.29157, 26.01667 ], [ -98.28911, 26.01633 ], [ -98.28851, 26.0204 ], [ -98.28424, 26.01984 ], [ -98.28394, 26.02149 ], [ -98.28438, 26.02188 ], [ -98.28415, 26.02239 ], [ -98.28366, 26.02239 ], [ -98.28348, 26.02231 ], [ -98.28335, 26.02193 ], [ -98.27792, 26.02114 ], [ -98.27877, 26.03193 ], [ -98.2788, 26.03278 ], [ -98.2787, 26.03375 ], [ -98.27818, 26.03533 ], [ -98.27795, 26.0359 ], [ -98.27768, 26.03641 ], [ -98.27792, 26.03707 ], [ -98.27894, 26.03776 ], [ -98.28093, 26.03844 ], [ -98.28261, 26.03956 ], [ -98.28423, 26.03995 ], [ -98.28567, 26.0406 ], [ -98.28632, 26.04162 ], [ -98.28675, 26.04264 ], [ -98.2882, 26.04559 ], [ -98.29004, 26.04939 ], [ -98.29209, 26.05399 ], [ -98.29388, 26.0576 ], [ -98.29542, 26.06101 ], [ -98.29583, 26.06213 ], [ -98.2955, 26.06308 ], [ -98.29377, 26.06493 ], [ -98.28925, 26.06855 ], [ -98.28446, 26.07286 ], [ -98.28258, 26.07496 ], [ -98.27968, 26.08232 ], [ -98.27815, 26.08364 ], [ -98.27761, 26.08689 ], [ -98.2777, 26.08806 ], [ -98.27672, 26.08786 ], [ -98.27522, 26.09457 ], [ -98.28267, 26.09604 ], [ -98.29009, 25.98688 ], [ -98.27442, 25.98474 ], [ -98.2767, 26.00926 ], [ -98.27957, 26.00926 ], [ -98.2797, 26.00978 ], [ -98.29054, 26.01126 ], [ -98.2904, 26.01225 ], [ -98.29225, 26.01244 ], [ -98.29157, 26.01667 ], [ -98.28911, 26.01633 ], [ -98.28851, 26.0204 ], [ -98.28424, 26.01984 ], [ -98.28394, 26.02149 ], [ -98.28438, 26.02188 ], [ -98.28415, 26.02239 ], [ -98.28366, 26.02239 ], [ -98.28348, 26.02231 ], [ -98.28335, 26.02193 ], [ -98.27792, 26.02114 ], [ -98.27877, 26.03193 ], [ -98.2788, 26.03278 ], [ -98.2787, 26.03375 ], [ -98.27818, 26.03533 ], [ -98.27795, 26.0359 ], [ -98.27768, 26.03641 ], [ -98.27792, 26.03707 ], [ -98.27894, 26.03776 ], [ -98.28093, 26.03844 ], [ -98.28261, 26.03956 ], [ -98.28423, 26.03995 ], [ -98.28567, 26.0406 ], [ -98.28632, 26.04162 ], [ -98.28675, 26.04264 ], [ -98.2882, 26.04559 ], [ -98.29004, 26.04939 ], [ -98.29209, 26.05399 ], [ -98.29388, 26.0576 ], [ -98.29542, 26.06101 ], [ -98.29583, 26.06213 ], [ -98.2955, 26.06308 ], [ -98.29377, 26.06493 ], [ -98.28925, 26.06855 ], [ -98.28446, 26.07286 ], [ -98.28258, 26.07496 ], [ -98.27968, 26.08232 ], [ -98.27815, 26.08364 ], [ -98.27761, 26.08689 ], [ -98.2777, 26.08806 ], [ -98.27672, 26.08786 ], [ -98.27522, 26.09457 ], [ -98.28267, 26.09604 ] ] } },
{ "type": "Feature", "properties": { "city": "Reynosa", "route_name": "40_Almaguer - 6", "route_name_short": "Almaguer - 6", "type": "Bus", "shape_id": "shape_3475" }, "geometry": { "type": "LineString", "coordinates": [ [ -98.23561, 26.04112 ], [ -98.23585, 26.04081 ], [ -98.23582, 26.04004 ], [ -98.23599, 26.03936 ], [ -98.23663, 26.03446 ], [ -98.23803, 26.03444 ], [ -98.23622, 26.0339 ], [ -98.23951, 26.02304 ], [ -98.24836, 26.02521 ], [ -98.25263, 26.02643 ], [ -98.25628, 26.02817 ], [ -98.26164, 26.03049 ], [ -98.26689, 26.03282 ], [ -98.27304, 26.03551 ], [ -98.27884, 26.03784 ], [ -98.28106, 26.03916 ], [ -98.2852, 26.04091 ], [ -98.28604, 26.04175 ], [ -98.28844, 26.04681 ], [ -98.29205, 26.05408 ], [ -98.29571, 26.06177 ], [ -98.29524, 26.06357 ], [ -98.28726, 26.07035 ], [ -98.28321, 26.07388 ], [ -98.27974, 26.08234 ], [ -98.27819, 26.0836 ], [ -98.2776, 26.08807 ], [ -98.27657, 26.08789 ], [ -98.27532, 26.09448 ], [ -98.28262, 26.09595 ], [ -98.28262, 26.09595 ], [ -98.28515, 26.08658 ], [ -98.283, 26.08573 ], [ -98.27918, 26.08481 ], [ -98.27947, 26.08383 ], [ -98.27974, 26.08234 ], [ -98.28321, 26.07388 ], [ -98.28726, 26.07035 ], [ -98.29524, 26.06357 ], [ -98.29571, 26.06177 ], [ -98.29205, 26.05408 ], [ -98.28844, 26.04681 ], [ -98.28604, 26.04175 ], [ -98.2852, 26.04091 ], [ -98.28106, 26.03916 ], [ -98.27884, 26.03784 ], [ -98.27304, 26.03551 ], [ -98.26689, 26.03282 ], [ -98.26164, 26.03049 ], [ -98.25628, 26.02817 ], [ -98.25263, 26.02643 ], [ -98.24836, 26.02521 ], [ -98.23951, 26.02304 ], [ -98.23622, 26.0339 ], [ -98.23803, 26.03444 ], [ -98.23663, 26.03446 ], [ -98.23599, 26.03936 ], [ -98.23582, 26.04004 ], [ -98.23585, 26.04081 ] ] } },
{ "type": "Feature", "properties": { "city": "Reynosa", "route_name": "42_15 de Enero", "route_name_short": "15 de Enero", "type": "Bus", "shape_id": "shape_3476" }, "geometry": { "type": "LineString", "coordinates": [ [ -98.28264, 26.09605 ], [ -98.28507, 26.08635 ], [ -98.27923, 26.08473 ], [ -98.27974, 26.08223 ], [ -98.2827, 26.07465 ], [ -98.28828, 26.06958 ], [ -98.29556, 26.0632 ], [ -98.29564, 26.06174 ], [ -98.29247, 26.05478 ], [ -98.28878, 26.04682 ], [ -98.28586, 26.04082 ], [ -98.28356, 26.03974 ], [ -98.28232, 26.03949 ], [ -98.27931, 26.03772 ], [ -98.27571, 26.03646 ], [ -98.25715, 26.02837 ], [ -98.25547, 26.02783 ], [ -98.25383, 26.03081 ], [ -98.25351, 26.0327 ], [ -98.25535, 26.03301 ], [ -98.25719, 26.03307 ], [ -98.25718, 26.03351 ], [ -98.2581, 26.03357 ], [ -98.25785, 26.03565 ], [ -98.25746, 26.03774 ], [ -98.25746, 26.03774 ], [ -98.25785, 26.03565 ], [ -98.2581, 26.03357 ], [ -98.25718, 26.03351 ], [ -98.25719, 26.03307 ], [ -98.25535, 26.03301 ], [ -98.25541, 26.03165 ], [ -98.25541, 26.03072 ], [ -98.25543, 26.02901 ], [ -98.2556, 26.02853 ], [ -98.25603, 26.02814 ], [ -98.25715, 26.02837 ], [ -98.27571, 26.03646 ], [ -98.27931, 26.03772 ], [ -98.28232, 26.03949 ], [ -98.28356, 26.03974 ], [ -98.28586, 26.04082 ], [ -98.28878, 26.04682 ], [ -98.29247, 26.05478 ], [ -98.29564, 26.06174 ], [ -98.29556, 26.0632 ], [ -98.28828, 26.06958 ], [ -98.2827, 26.07465 ], [ -98.27974, 26.08223 ], [ -98.27831, 26.08361 ], [ -98.278, 26.0845 ], [ -98.27759, 26.08688 ], [ -98.27767, 26.08807 ], [ -98.27662, 26.08786 ], [ -98.27526, 26.09451 ], [ -98.28266, 26.09595 ] ] } },
{ "type": "Feature", "properties": { "city": "Reynosa", "route_name": "44_Azteca", "route_name_short": "Azteca", "type": "Bus", "shape_id": "shape_3477" }, "geometry": { "type": "LineString", "coordinates": [ [ -98.28263, 26.09605 ], [ -98.28418, 26.08868 ], [ -98.28511, 26.08633 ], [ -98.27921, 26.08477 ], [ -98.27974, 26.08217 ], [ -98.28157, 26.07748 ], [ -98.283, 26.07407 ], [ -98.28918, 26.06873 ], [ -98.29403, 26.06451 ], [ -98.29564, 26.06264 ], [ -98.29422, 26.05861 ], [ -98.29299, 26.05608 ], [ -98.2888, 26.05556 ], [ -98.28868, 26.05621 ], [ -98.29048, 26.06025 ], [ -98.28759, 26.06284 ], [ -98.28663, 26.0634 ], [ -98.28586, 26.06365 ], [ -98.28369, 26.06546 ], [ -98.28253, 26.0664 ], [ -98.28191, 26.06655 ], [ -98.27945, 26.06636 ], [ -98.27862, 26.06588 ], [ -98.27683, 26.06569 ], [ -98.27188, 26.06515 ], [ -98.26883, 26.06494 ], [ -98.26705, 26.06582 ], [ -98.26572, 26.06739 ], [ -98.26595, 26.06454 ], [ -98.26643, 26.06165 ], [ -98.2636, 26.06126 ], [ -98.26336, 26.06272 ], [ -98.26056, 26.0618 ], [ -98.26187, 26.05221 ], [ -98.26582, 26.04846 ], [ -98.26582, 26.04846 ], [ -98.26187, 26.05221 ], [ -98.26056, 26.0618 ], [ -98.26336, 26.06272 ], [ -98.2636, 26.06126 ], [ -98.26643, 26.06165 ], [ -98.26595, 26.06454 ], [ -98.26572, 26.06739 ], [ -98.26705, 26.06582 ], [ -98.26883, 26.06494 ], [ -98.27188, 26.06515 ], [ -98.27683, 26.06569 ], [ -98.27862, 26.06588 ], [ -98.27945, 26.06636 ], [ -98.28191, 26.06655 ], [ -98.28253, 26.0664 ], [ -98.28369, 26.06546 ], [ -98.28586, 26.06365 ], [ -98.28663, 26.0634 ], [ -98.28759, 26.06284 ], [ -98.2894, 26.06113 ], [ -98.28869, 26.06044 ], [ -98.29007, 26.05934 ], [ -98.28868, 26.05621 ], [ -98.2888, 26.05556 ], [ -98.29299, 26.05608 ], [ -98.29422, 26.05861 ], [ -98.29564, 26.06264 ], [ -98.29403, 26.06451 ], [ -98.28918, 26.06873 ], [ -98.283, 26.07407 ], [ -98.28157, 26.07748 ], [ -98.27974, 26.08217 ], [ -98.27822, 26.08375 ], [ -98.27798, 26.08456 ], [ -98.27764, 26.08685 ], [ -98.27765, 26.08743 ], [ -98.27766, 26.08807 ], [ -98.27672, 26.08783 ], [ -98.27524, 26.09452 ], [ -98.28251, 26.09593 ] ] } },
{ "type": "Feature", "properties": { "city": "Reynosa", "route_name": "45_La Joya - Villa esmeralda - Riveras del Carmen", "route_name_short": "La Joya - Villa esmeralda - Riveras del Carmen", "type": "Bus", "shape_id": "shape_3478" }, "geometry": { "type": "LineString", "coordinates": [ [ -98.28262, 26.09601 ], [ -98.27526, 26.09452 ], [ -98.27665, 26.08793 ], [ -98.27758, 26.08808 ], [ -98.278, 26.08448 ], [ -98.27822, 26.08373 ], [ -98.27984, 26.08203 ], [ -98.28205, 26.07615 ], [ -98.2835, 26.07357 ], [ -98.28947, 26.06852 ], [ -98.29519, 26.0637 ], [ -98.29578, 26.06248 ], [ -98.2939, 26.05781 ], [ -98.29153, 26.05276 ], [ -98.2891, 26.04763 ], [ -98.28807, 26.04522 ], [ -98.28644, 26.04196 ], [ -98.28558, 26.04058 ], [ -98.28422, 26.03995 ], [ -98.28252, 26.03958 ], [ -98.28089, 26.03848 ], [ -98.27788, 26.03735 ], [ -98.27599, 26.03662 ], [ -98.27331, 26.03542 ], [ -98.26879, 26.0334 ], [ -98.26106, 26.02996 ], [ -98.25185, 26.02584 ], [ -98.23292, 26.02134 ], [ -98.23856, 26.02278 ], [ -98.24045, 26.0206 ], [ -98.24255, 26.02066 ], [ -98.24285, 26.01866 ], [ -98.24316, 26.01807 ], [ -98.24424, 26.01821 ], [ -98.24532, 26.01091 ], [ -98.24435, 26.01076 ], [ -98.24459, 26.00893 ], [ -98.24509, 26.00817 ], [ -98.24528, 26.00785 ], [ -98.24545, 26.00746 ], [ -98.23811, 26.00397 ], [ -98.23809, 26.00116 ], [ -98.23842, 25.99981 ], [ -98.23951, 25.99919 ], [ -98.23951, 25.99919 ], [ -98.23842, 25.99981 ], [ -98.23809, 26.00116 ], [ -98.2382, 26.00381 ], [ -98.24545, 26.00746 ], [ -98.24528, 26.00785 ], [ -98.24429, 26.00739 ], [ -98.24328, 26.0068 ], [ -98.24025, 26.00526 ], [ -98.23903, 26.00733 ], [ -98.24461, 26.00893 ], [ -98.24435, 26.01076 ], [ -98.24532, 26.01091 ], [ -98.24424, 26.01821 ], [ -98.24316, 26.01807 ], [ -98.24285, 26.01866 ], [ -98.24255, 26.02066 ], [ -98.24045, 26.0206 ], [ -98.23856, 26.02278 ], [ -98.24075, 26.02318 ], [ -98.25185, 26.02584 ], [ -98.26106, 26.02996 ], [ -98.26879, 26.0334 ], [ -98.27331, 26.03542 ], [ -98.27599, 26.03662 ], [ -98.27788, 26.03735 ], [ -98.28089, 26.03848 ], [ -98.28252, 26.03958 ], [ -98.28422, 26.03995 ], [ -98.28558, 26.04058 ], [ -98.28644, 26.04196 ], [ -98.28807, 26.04522 ], [ -98.2891, 26.04763 ], [ -98.29153, 26.05276 ], [ -98.2939, 26.05781 ], [ -98.29578, 26.06248 ], [ -98.29519, 26.0637 ], [ -98.28947, 26.06852 ], [ -98.2835, 26.07357 ], [ -98.28205, 26.07615 ], [ -98.27984, 26.08203 ], [ -98.27964, 26.08309 ], [ -98.2794, 26.08371 ], [ -98.27951, 26.08408 ], [ -98.27929, 26.08492 ], [ -98.28524, 26.08635 ], [ -98.2826, 26.096 ] ] } },
{ "type": "Feature", "properties": { "city": "Reynosa", "route_name": "47_Villa Florida - Vista Hermosa - Periférico", "route_name_short": "Villa Florida - Vista Hermosa - Periférico", "type": "Bus", "shape_id": "shape_3479" }, "geometry": { "type": "LineString", "coordinates": [ [ -98.28265, 26.09601 ], [ -98.28421, 26.08894 ], [ -98.28503, 26.08641 ], [ -98.28665, 26.08662 ], [ -98.2899, 26.08609 ], [ -98.29459, 26.08462 ], [ -98.30051, 26.08232 ], [ -98.30698, 26.0798 ], [ -98.31462, 26.07682 ], [ -98.32432, 26.07288 ], [ -98.33083, 26.07047 ], [ -98.33676, 26.06818 ], [ -98.34736, 26.06398 ], [ -98.35463, 26.06121 ], [ -98.35812, 26.05979 ], [ -98.35856, 26.05998 ], [ -98.35897, 26.0626 ], [ -98.35946, 26.06581 ], [ -98.35961, 26.06599 ], [ -98.35984, 26.06758 ], [ -98.35975, 26.06777 ], [ -98.36038, 26.07143 ], [ -98.35907, 26.07489 ], [ -98.35743, 26.07925 ], [ -98.35718, 26.07948 ], [ -98.35744, 26.0796 ], [ -98.35924, 26.08003 ], [ -98.36322, 26.08128 ], [ -98.36096, 26.08051 ], [ -98.36179, 26.07853 ], [ -98.36178, 26.07757 ], [ -98.36426, 26.07834 ], [ -98.36329, 26.08128 ], [ -98.36766, 26.08264 ], [ -98.36872, 26.07974 ], [ -98.37098, 26.08045 ], [ -98.36988, 26.08331 ], [ -98.37411, 26.08463 ], [ -98.37522, 26.08179 ], [ -98.37721, 26.08237 ], [ -98.37604, 26.08573 ], [ -98.37622, 26.08531 ], [ -98.37721, 26.08237 ], [ -98.37522, 26.08179 ], [ -98.37411, 26.08463 ], [ -98.36988, 26.08331 ], [ -98.37098, 26.08045 ], [ -98.36872, 26.07974 ], [ -98.36766, 26.08264 ], [ -98.36329, 26.08128 ], [ -98.36426, 26.07834 ], [ -98.36178, 26.07757 ], [ -98.36179, 26.07853 ], [ -98.36096, 26.08051 ], [ -98.36322, 26.08128 ], [ -98.35924, 26.08003 ], [ -98.35744, 26.0796 ], [ -98.35718, 26.07948 ], [ -98.35743, 26.07925 ], [ -98.35907, 26.07489 ], [ -98.36038, 26.07143 ], [ -98.35975, 26.06777 ], [ -98.35984, 26.06758 ], [ -98.35961, 26.06599 ], [ -98.35946, 26.06581 ], [ -98.35897, 26.0626 ], [ -98.35839, 26.05979 ], [ -98.36905, 26.05522 ], [ -98.36886, 26.05403 ], [ -98.36377, 26.0505 ], [ -98.3627, 26.05274 ], [ -98.36321, 26.05526 ], [ -98.36448, 26.05703 ], [ -98.35879, 26.05929 ], [ -98.35812, 26.05979 ], [ -98.35463, 26.06121 ], [ -98.34736, 26.06398 ], [ -98.33676, 26.06818 ], [ -98.33083, 26.07047 ], [ -98.32432, 26.07288 ], [ -98.31462, 26.07682 ], [ -98.30698, 26.0798 ], [ -98.30051, 26.08232 ], [ -98.29459, 26.08462 ], [ -98.2899, 26.08609 ], [ -98.28827, 26.0859 ], [ -98.28685, 26.08573 ], [ -98.2854, 26.08542 ], [ -98.28296, 26.08479 ], [ -98.28248, 26.08634 ], [ -98.28186, 26.08785 ], [ -98.28142, 26.08813 ], [ -98.28086, 26.09021 ], [ -98.27985, 26.09546 ], [ -98.28264, 26.09608 ] ] } }
]
}
