{
"type": "FeatureCollection",
"name": "shape_89A",
"crs": { "type": "name", "properties": { "name": "urn:ogc:def:crs:OGC:1.3:CRS84" } },
"features": [
{ "type": "Feature", "properties": { "data.route.shortName": "89A", "data.route.longName": "Altamira - Tampiquito por Soriana", "shape_id": "shape_89A" }, "geometry": { "type": "LineString", "coordinates": [ [ -97.92128, 22.41213 ], [ -97.92228, 22.41225 ], [ -97.92268, 22.40937 ], [ -97.92171, 22.40925 ], [ -97.92292, 22.40031 ], [ -97.92318, 22.39947 ], [ -97.92904, 22.39746 ], [ -97.92962, 22.39713 ], [ -97.93185, 22.39464 ], [ -97.93247, 22.39449 ], [ -97.93337, 22.3953 ], [ -97.93419, 22.39558 ], [ -97.9353, 22.39574 ], [ -97.93493, 22.39745 ], [ -97.93578, 22.39762 ], [ -97.93599, 22.3967 ], [ -97.93692, 22.39691 ], [ -97.93692, 22.39691 ], [ -97.936, 22.39676 ], [ -97.93462, 22.39652 ], [ -97.93316, 22.3962 ], [ -97.93338, 22.39533 ], [ -97.933, 22.39505 ], [ -97.93268, 22.39481 ], [ -97.93251, 22.39457 ], [ -97.93247, 22.39449 ], [ -97.93185, 22.39464 ], [ -97.92962, 22.39713 ], [ -97.92838, 22.39748 ], [ -97.92749, 22.39765 ], [ -97.92525, 22.39733 ], [ -97.924, 22.39764 ], [ -97.92278, 22.39839 ], [ -97.92175, 22.39937 ], [ -97.92197, 22.39962 ], [ -97.92234, 22.39976 ], [ -97.92322, 22.39953 ], [ -97.92292, 22.40031 ], [ -97.92171, 22.40925 ], [ -97.92268, 22.40937 ], [ -97.92228, 22.41225 ] ] } }
]
}
