{
"type": "FeatureCollection",
"name": "shape_23",
"crs": { "type": "name", "properties": { "name": "urn:ogc:def:crs:OGC:1.3:CRS84" } },
"features": [
{ "type": "Feature", "properties": { "data.route.shortName": "23", "data.route.longName": "E. Cárdenas González - Universidad", "shape_id": "shape_23" }, "geometry": { "type": "LineString", "coordinates": [ [ -97.85912, 22.32382 ], [ -97.8584, 22.32213 ], [ -97.85795, 22.32232 ], [ -97.85668, 22.32275 ], [ -97.85633, 22.32186 ], [ -97.85588, 22.32187 ], [ -97.85448, 22.31783 ], [ -97.85541, 22.31759 ], [ -97.85537, 22.31728 ], [ -97.85503, 22.31646 ], [ -97.85491, 22.31598 ], [ -97.85428, 22.31414 ], [ -97.85301, 22.31052 ], [ -97.85166, 22.30737 ], [ -97.8551, 22.30615 ], [ -97.85367, 22.30261 ], [ -97.85629, 22.30172 ], [ -97.85764, 22.30494 ], [ -97.86419, 22.30263 ], [ -97.86909, 22.30335 ], [ -97.86892, 22.31071 ], [ -97.87512, 22.31098 ], [ -97.88053, 22.3106 ], [ -97.88185, 22.30615 ], [ -97.88178, 22.30487 ], [ -97.87954, 22.30082 ], [ -97.87667, 22.2963 ], [ -97.8741, 22.29225 ], [ -97.87341, 22.29119 ], [ -97.87316, 22.29002 ], [ -97.87272, 22.28944 ], [ -97.87052, 22.2881 ], [ -97.86763, 22.28608 ], [ -97.8653, 22.2842 ], [ -97.8631, 22.28142 ], [ -97.86077, 22.27932 ], [ -97.85633, 22.27559 ], [ -97.85806, 22.27115 ], [ -97.8589, 22.26901 ], [ -97.85949, 22.26695 ], [ -97.85993, 22.26534 ], [ -97.86056, 22.26336 ], [ -97.86129, 22.26212 ], [ -97.86214, 22.26032 ], [ -97.86285, 22.25927 ], [ -97.86345, 22.25826 ], [ -97.86395, 22.25726 ], [ -97.8644, 22.25623 ], [ -97.86473, 22.25511 ], [ -97.86474, 22.25456 ], [ -97.86563, 22.25319 ], [ -97.86685, 22.25087 ], [ -97.86724, 22.24938 ], [ -97.86758, 22.24753 ], [ -97.86766, 22.24705 ], [ -97.86712, 22.24523 ], [ -97.86699, 22.2444 ], [ -97.86707, 22.24272 ], [ -97.8663, 22.23717 ], [ -97.86505, 22.23353 ], [ -97.86413, 22.23022 ], [ -97.865, 22.23357 ], [ -97.86097, 22.23371 ], [ -97.86114, 22.23166 ], [ -97.86147, 22.22883 ], [ -97.85906, 22.22787 ], [ -97.85847, 22.22581 ], [ -97.85724, 22.22541 ], [ -97.85658, 22.22523 ], [ -97.85616, 22.22461 ], [ -97.85664, 22.22336 ], [ -97.85666, 22.22245 ], [ -97.85613, 22.22195 ], [ -97.85472, 22.22178 ], [ -97.85324, 22.22126 ], [ -97.85541, 22.21718 ], [ -97.85802, 22.21833 ], [ -97.85613, 22.22195 ], [ -97.85613, 22.22195 ], [ -97.85802, 22.21833 ], [ -97.85541, 22.21718 ], [ -97.85324, 22.22126 ], [ -97.85472, 22.22178 ], [ -97.85613, 22.22195 ], [ -97.85666, 22.22245 ], [ -97.85664, 22.22336 ], [ -97.85616, 22.22461 ], [ -97.85658, 22.22523 ], [ -97.85724, 22.22541 ], [ -97.85847, 22.22581 ], [ -97.85906, 22.22787 ], [ -97.86147, 22.22883 ], [ -97.86105, 22.23047 ], [ -97.86114, 22.23166 ], [ -97.86107, 22.2325 ], [ -97.8619, 22.23256 ], [ -97.86313, 22.23221 ], [ -97.86347, 22.23304 ], [ -97.86361, 22.23352 ], [ -97.86343, 22.23365 ], [ -97.86363, 22.24041 ], [ -97.86358, 22.24117 ], [ -97.86419, 22.24118 ], [ -97.8645, 22.24152 ], [ -97.86623, 22.24124 ], [ -97.86643, 22.24443 ], [ -97.8665, 22.24689 ], [ -97.86649, 22.24761 ], [ -97.86601, 22.24994 ], [ -97.86331, 22.25074 ], [ -97.8633, 22.25279 ], [ -97.8648, 22.25308 ], [ -97.86474, 22.25456 ], [ -97.86473, 22.25511 ], [ -97.8644, 22.25623 ], [ -97.86395, 22.25726 ], [ -97.86345, 22.25826 ], [ -97.86285, 22.25927 ], [ -97.86214, 22.26032 ], [ -97.86129, 22.26212 ], [ -97.86056, 22.26336 ], [ -97.85993, 22.26534 ], [ -97.85949, 22.26695 ], [ -97.8589, 22.26901 ], [ -97.85806, 22.27115 ], [ -97.85633, 22.27559 ], [ -97.86077, 22.27932 ], [ -97.8631, 22.28142 ], [ -97.8653, 22.2842 ], [ -97.86763, 22.28608 ], [ -97.87052, 22.2881 ], [ -97.87272, 22.28944 ], [ -97.87316, 22.29002 ], [ -97.87341, 22.29119 ], [ -97.8741, 22.29225 ], [ -97.87667, 22.2963 ], [ -97.87954, 22.30082 ], [ -97.88178, 22.30487 ], [ -97.88185, 22.30615 ], [ -97.88053, 22.3106 ], [ -97.87512, 22.31098 ], [ -97.86892, 22.31071 ], [ -97.86909, 22.30335 ], [ -97.86419, 22.30263 ], [ -97.85764, 22.30494 ], [ -97.85629, 22.30172 ], [ -97.85367, 22.30261 ], [ -97.8551, 22.30615 ], [ -97.85166, 22.30737 ], [ -97.85301, 22.31052 ], [ -97.85428, 22.31414 ], [ -97.85491, 22.31598 ], [ -97.85503, 22.31646 ], [ -97.85537, 22.31728 ], [ -97.85541, 22.31759 ], [ -97.85448, 22.31783 ], [ -97.85588, 22.32187 ], [ -97.85633, 22.32186 ], [ -97.85668, 22.32275 ], [ -97.85795, 22.32232 ], [ -97.8584, 22.32213 ] ] } }
]
}
