{
"type": "FeatureCollection",
"name": "shape_82",
"crs": { "type": "name", "properties": { "name": "urn:ogc:def:crs:OGC:1.3:CRS84" } },
"features": [
{ "type": "Feature", "properties": { "data.route.shortName": "82", "data.route.longName": "Bellavista", "shape_id": "shape_82" }, "geometry": { "type": "LineString", "coordinates": [ [ -97.87379, 22.23841 ], [ -97.8735, 22.238 ], [ -97.87315, 22.23561 ], [ -97.87242, 22.23449 ], [ -97.87219, 22.23398 ], [ -97.87234, 22.23289 ], [ -97.87268, 22.23244 ], [ -97.87272, 22.23215 ], [ -97.87245, 22.23164 ], [ -97.87216, 22.23141 ], [ -97.87079, 22.23056 ], [ -97.87042, 22.22967 ], [ -97.86985, 22.22817 ], [ -97.86857, 22.22781 ], [ -97.86821, 22.22771 ], [ -97.86651, 22.22361 ], [ -97.866, 22.22257 ], [ -97.8654, 22.22325 ], [ -97.86493, 22.22352 ], [ -97.86448, 22.22342 ], [ -97.8635, 22.22354 ], [ -97.86322, 22.22078 ], [ -97.8635, 22.22354 ], [ -97.86322, 22.22078 ], [ -97.86288, 22.2198 ], [ -97.86268, 22.21941 ], [ -97.85753, 22.21714 ], [ -97.85753, 22.21714 ], [ -97.85882, 22.21478 ], [ -97.85966, 22.2152 ], [ -97.85801, 22.21836 ], [ -97.8623, 22.22023 ], [ -97.86276, 22.22043 ], [ -97.86325, 22.22066 ], [ -97.86327, 22.22068 ], [ -97.8633, 22.2226 ], [ -97.86294, 22.22342 ], [ -97.8635, 22.22354 ], [ -97.86448, 22.22342 ], [ -97.86506, 22.22353 ], [ -97.86591, 22.22384 ], [ -97.86651, 22.22361 ], [ -97.86821, 22.22771 ], [ -97.86857, 22.22781 ], [ -97.86985, 22.22817 ], [ -97.87042, 22.22967 ], [ -97.87079, 22.23056 ], [ -97.87216, 22.23141 ], [ -97.87245, 22.23164 ], [ -97.87272, 22.23215 ], [ -97.87268, 22.23244 ], [ -97.87234, 22.23289 ], [ -97.87219, 22.23398 ], [ -97.87242, 22.23449 ], [ -97.87315, 22.23561 ], [ -97.8735, 22.238 ] ] } }
]
}
