{
"type": "FeatureCollection",
"name": "shape_37",
"crs": { "type": "name", "properties": { "name": "urn:ogc:def:crs:OGC:1.3:CRS84" } },
"features": [
{ "type": "Feature", "properties": { "data.route.shortName": "37", "data.route.longName": "Escolleras - Madero", "shape_id": "shape_37" }, "geometry": { "type": "LineString", "coordinates": [ [ -97.78697, 22.26511 ], [ -97.78684, 22.264 ], [ -97.79578, 22.26275 ], [ -97.79587, 22.2635 ], [ -97.7987, 22.26316 ], [ -97.80303, 22.26115 ], [ -97.81868, 22.25325 ], [ -97.81965, 22.25332 ], [ -97.82158, 22.25534 ], [ -97.82651, 22.2511 ], [ -97.82728, 22.25055 ], [ -97.83308, 22.2456 ], [ -97.83669, 22.24754 ], [ -97.84125, 22.24016 ], [ -97.8413, 22.23997 ], [ -97.84154, 22.23954 ], [ -97.83901, 22.2382 ], [ -97.83978, 22.23708 ], [ -97.84083, 22.2344 ], [ -97.84105, 22.2338 ], [ -97.84026, 22.23355 ], [ -97.83989, 22.23337 ], [ -97.839, 22.23308 ], [ -97.84029, 22.23018 ], [ -97.8404, 22.23009 ], [ -97.84152, 22.22778 ], [ -97.84085, 22.22773 ], [ -97.84067, 22.2274 ], [ -97.84034, 22.22606 ], [ -97.84474, 22.21759 ], [ -97.84521, 22.21771 ], [ -97.84845, 22.21047 ], [ -97.8487, 22.21022 ], [ -97.85287, 22.2121 ], [ -97.8531, 22.21188 ], [ -97.85587, 22.21241 ], [ -97.85755, 22.21324 ], [ -97.85542, 22.21719 ], [ -97.85128, 22.21528 ], [ -97.85204, 22.21369 ], [ -97.85033, 22.21295 ], [ -97.83986, 22.23341 ], [ -97.83986, 22.23341 ], [ -97.85033, 22.21295 ], [ -97.85204, 22.21369 ], [ -97.85128, 22.21528 ], [ -97.85542, 22.21719 ], [ -97.85755, 22.21324 ], [ -97.85587, 22.21241 ], [ -97.8531, 22.21188 ], [ -97.85287, 22.2121 ], [ -97.8487, 22.21022 ], [ -97.84845, 22.21047 ], [ -97.84521, 22.21771 ], [ -97.84474, 22.21759 ], [ -97.84034, 22.22606 ], [ -97.84067, 22.2274 ], [ -97.84085, 22.22773 ], [ -97.84152, 22.22778 ], [ -97.8404, 22.23009 ], [ -97.84029, 22.23018 ], [ -97.839, 22.23308 ], [ -97.83989, 22.23337 ], [ -97.84026, 22.23355 ], [ -97.84199, 22.23412 ], [ -97.8413, 22.23595 ], [ -97.84058, 22.23753 ], [ -97.84134, 22.2379 ], [ -97.84224, 22.23844 ], [ -97.84154, 22.23954 ], [ -97.8413, 22.23997 ], [ -97.84125, 22.24016 ], [ -97.83669, 22.24754 ], [ -97.83308, 22.2456 ], [ -97.82728, 22.25055 ], [ -97.82651, 22.2511 ], [ -97.82158, 22.25534 ], [ -97.81965, 22.25332 ], [ -97.81868, 22.25325 ], [ -97.80303, 22.26115 ], [ -97.7987, 22.26316 ], [ -97.79744, 22.264 ], [ -97.79712, 22.26418 ], [ -97.80242, 22.27317 ], [ -97.80021, 22.27417 ], [ -97.79396, 22.27516 ], [ -97.79019, 22.27008 ], [ -97.78688, 22.26471 ] ] } }
]
}
