{
"type": "FeatureCollection",
"name": "shape_105A",
"crs": { "type": "name", "properties": { "name": "urn:ogc:def:crs:OGC:1.3:CRS84" } },
"features": [
{ "type": "Feature", "properties": { "data.route.shortName": "105A", "data.route.longName": "Zapata - Haciendas - Tampico por Ayuntamiento y Av. Hidalgo Zona Conurbada Tampico Madero - Altamira", "shape_id": "shape_105A" }, "geometry": { "type": "LineString", "coordinates": [ [ -97.87205, 22.3653 ], [ -97.87211, 22.36563 ], [ -97.87233, 22.36595 ], [ -97.87423, 22.36813 ], [ -97.8727, 22.36919 ], [ -97.87366, 22.3703 ], [ -97.87511, 22.36925 ], [ -97.8756, 22.36983 ], [ -97.87579, 22.36976 ], [ -97.878, 22.37236 ], [ -97.87813, 22.37233 ], [ -97.87981, 22.37391 ], [ -97.88183, 22.37208 ], [ -97.8802, 22.37027 ], [ -97.88049, 22.37002 ], [ -97.87826, 22.36776 ], [ -97.87964, 22.36684 ], [ -97.88001, 22.36687 ], [ -97.88031, 22.36695 ], [ -97.88257, 22.37018 ], [ -97.8846, 22.36897 ], [ -97.884, 22.37017 ], [ -97.88494, 22.37117 ], [ -97.88545, 22.37156 ], [ -97.88563, 22.37128 ], [ -97.88599, 22.36814 ], [ -97.88648, 22.36763 ], [ -97.88698, 22.36738 ], [ -97.88778, 22.36181 ], [ -97.88176, 22.36108 ], [ -97.88209, 22.35891 ], [ -97.88244, 22.35898 ], [ -97.88724, 22.35422 ], [ -97.88593, 22.35319 ], [ -97.88357, 22.35132 ], [ -97.88241, 22.35072 ], [ -97.88065, 22.34973 ], [ -97.87933, 22.34883 ], [ -97.87635, 22.34575 ], [ -97.87527, 22.34246 ], [ -97.87442, 22.3388 ], [ -97.87385, 22.33715 ], [ -97.87324, 22.33577 ], [ -97.87391, 22.33112 ], [ -97.88179, 22.30597 ], [ -97.88168, 22.3046 ], [ -97.87325, 22.29104 ], [ -97.87295, 22.28953 ], [ -97.866, 22.28521 ], [ -97.86239, 22.2808 ], [ -97.85634, 22.27544 ], [ -97.85952, 22.26745 ], [ -97.85977, 22.26559 ], [ -97.86046, 22.26384 ], [ -97.86183, 22.26094 ], [ -97.86389, 22.25764 ], [ -97.86467, 22.25534 ], [ -97.86531, 22.25343 ], [ -97.86655, 22.25133 ], [ -97.86733, 22.2493 ], [ -97.86765, 22.24704 ], [ -97.86711, 22.2447 ], [ -97.86677, 22.23969 ], [ -97.86591, 22.23608 ], [ -97.86488, 22.23286 ], [ -97.86415, 22.22972 ], [ -97.86501, 22.22744 ], [ -97.86364, 22.22394 ], [ -97.86331, 22.22227 ], [ -97.86316, 22.22062 ], [ -97.86261, 22.21949 ], [ -97.85924, 22.21794 ], [ -97.861, 22.2145 ], [ -97.86349, 22.21566 ], [ -97.86263, 22.21746 ], [ -97.85829, 22.21562 ], [ -97.85881, 22.21474 ], [ -97.85952, 22.21508 ], [ -97.85952, 22.21508 ], [ -97.85806, 22.21832 ], [ -97.86316, 22.22062 ], [ -97.86331, 22.22227 ], [ -97.86364, 22.22394 ], [ -97.86501, 22.22744 ], [ -97.86576, 22.2295 ], [ -97.86713, 22.23276 ], [ -97.86838, 22.23616 ], [ -97.87027, 22.24023 ], [ -97.87306, 22.2465 ], [ -97.87391, 22.24781 ], [ -97.87522, 22.25095 ], [ -97.87651, 22.25566 ], [ -97.87565, 22.26193 ], [ -97.87351, 22.26821 ], [ -97.87462, 22.27222 ], [ -97.87363, 22.27679 ], [ -97.87286, 22.28207 ], [ -97.87402, 22.28481 ], [ -97.87316, 22.28783 ], [ -97.87196, 22.28971 ], [ -97.87325, 22.29104 ], [ -97.88168, 22.3046 ], [ -97.88179, 22.30597 ], [ -97.87391, 22.33112 ], [ -97.87324, 22.33577 ], [ -97.87385, 22.33715 ], [ -97.87442, 22.3388 ], [ -97.87527, 22.34246 ], [ -97.87635, 22.34575 ], [ -97.87933, 22.34883 ], [ -97.88065, 22.34973 ], [ -97.88241, 22.35072 ], [ -97.88357, 22.35132 ], [ -97.88593, 22.35319 ], [ -97.88724, 22.35422 ], [ -97.88244, 22.35898 ], [ -97.88209, 22.35891 ], [ -97.88176, 22.36108 ], [ -97.88778, 22.36181 ], [ -97.88698, 22.36738 ], [ -97.88648, 22.36763 ], [ -97.88599, 22.36814 ], [ -97.88563, 22.37128 ], [ -97.88545, 22.37156 ], [ -97.88494, 22.37117 ], [ -97.884, 22.37017 ], [ -97.8846, 22.36897 ], [ -97.88257, 22.37018 ], [ -97.88031, 22.36695 ], [ -97.88001, 22.36687 ], [ -97.87964, 22.36684 ], [ -97.87826, 22.36776 ], [ -97.88049, 22.37002 ], [ -97.8802, 22.37027 ], [ -97.88183, 22.37208 ], [ -97.87981, 22.37391 ], [ -97.87813, 22.37233 ], [ -97.878, 22.37236 ], [ -97.87579, 22.36976 ], [ -97.8756, 22.36983 ], [ -97.87511, 22.36925 ], [ -97.87366, 22.3703 ], [ -97.8727, 22.36919 ], [ -97.87423, 22.36813 ], [ -97.87233, 22.36595 ], [ -97.87211, 22.36563 ] ] } }
]
}
