{
"type": "FeatureCollection",
"name": "shape_107A",
"crs": { "type": "name", "properties": { "name": "urn:ogc:def:crs:OGC:1.3:CRS84" } },
"features": [
{ "type": "Feature", "properties": { "data.route.shortName": "107A", "data.route.longName": "Santa Amalia - Tampico por  Ayuntamiento y Av. Hidalgo", "shape_id": "shape_107A" }, "geometry": { "type": "LineString", "coordinates": [ [ -97.97305, 22.42194 ], [ -97.97082, 22.43303 ], [ -97.97062, 22.43507 ], [ -97.95985, 22.43376 ], [ -97.94773, 22.42523 ], [ -97.9432, 22.42005 ], [ -97.9429, 22.41938 ], [ -97.94206, 22.41726 ], [ -97.93749, 22.40643 ], [ -97.93715, 22.40462 ], [ -97.93799, 22.397 ], [ -97.93758, 22.39617 ], [ -97.93449, 22.39561 ], [ -97.93273, 22.39506 ], [ -97.92968, 22.39177 ], [ -97.92436, 22.3906 ], [ -97.92355, 22.39042 ], [ -97.92252, 22.38988 ], [ -97.92194, 22.38885 ], [ -97.9205, 22.3873 ], [ -97.919, 22.38685 ], [ -97.91192, 22.3798 ], [ -97.90842, 22.37639 ], [ -97.90372, 22.37181 ], [ -97.89647, 22.36442 ], [ -97.89134, 22.35871 ], [ -97.88718, 22.3542 ], [ -97.8837, 22.35135 ], [ -97.88085, 22.3499 ], [ -97.87812, 22.34769 ], [ -97.87623, 22.34567 ], [ -97.87331, 22.33628 ], [ -97.87336, 22.33426 ], [ -97.87394, 22.33124 ], [ -97.88173, 22.30661 ], [ -97.88164, 22.30494 ], [ -97.88127, 22.30393 ], [ -97.87338, 22.29124 ], [ -97.87295, 22.28834 ], [ -97.87378, 22.2857 ], [ -97.87389, 22.28409 ], [ -97.87293, 22.28237 ], [ -97.87297, 22.27943 ], [ -97.87398, 22.27546 ], [ -97.87466, 22.27276 ], [ -97.8737, 22.27009 ], [ -97.87366, 22.26724 ], [ -97.87486, 22.26444 ], [ -97.87657, 22.25745 ], [ -97.87647, 22.255 ], [ -97.87421, 22.24841 ], [ -97.87284, 22.24603 ], [ -97.86801, 22.23526 ], [ -97.86355, 22.2238 ], [ -97.86316, 22.22066 ], [ -97.85799, 22.2184 ], [ -97.85958, 22.21514 ], [ -97.85958, 22.21514 ], [ -97.85883, 22.21474 ], [ -97.85836, 22.21558 ], [ -97.86258, 22.21748 ], [ -97.86346, 22.2157 ], [ -97.86097, 22.21456 ], [ -97.85924, 22.2179 ], [ -97.86267, 22.21943 ], [ -97.86321, 22.22068 ], [ -97.86355, 22.2238 ], [ -97.86499, 22.22742 ], [ -97.86415, 22.23016 ], [ -97.86548, 22.23494 ], [ -97.86621, 22.23711 ], [ -97.8667, 22.23939 ], [ -97.86705, 22.24521 ], [ -97.86767, 22.24698 ], [ -97.86718, 22.24954 ], [ -97.86265, 22.25097 ], [ -97.86261, 22.25331 ], [ -97.8605, 22.25733 ], [ -97.85994, 22.25836 ], [ -97.86012, 22.25939 ], [ -97.86209, 22.26042 ], [ -97.86012, 22.26487 ], [ -97.85861, 22.26976 ], [ -97.8563, 22.2754 ], [ -97.86061, 22.27921 ], [ -97.86458, 22.28324 ], [ -97.86741, 22.28584 ], [ -97.86969, 22.28757 ], [ -97.87235, 22.28914 ], [ -97.8731, 22.28991 ], [ -97.87338, 22.29124 ], [ -97.88127, 22.30393 ], [ -97.88164, 22.30494 ], [ -97.88173, 22.30661 ], [ -97.87394, 22.33124 ], [ -97.87336, 22.33426 ], [ -97.87331, 22.33628 ], [ -97.87623, 22.34567 ], [ -97.87812, 22.34769 ], [ -97.88085, 22.3499 ], [ -97.8837, 22.35135 ], [ -97.88718, 22.3542 ], [ -97.89134, 22.35871 ], [ -97.89647, 22.36442 ], [ -97.90372, 22.37181 ], [ -97.90842, 22.37639 ], [ -97.91192, 22.3798 ], [ -97.919, 22.38685 ], [ -97.9205, 22.3873 ], [ -97.92194, 22.38885 ], [ -97.92252, 22.38988 ], [ -97.92355, 22.39042 ], [ -97.92436, 22.3906 ], [ -97.92968, 22.39177 ], [ -97.93273, 22.39506 ], [ -97.93449, 22.39561 ], [ -97.93758, 22.39617 ], [ -97.93799, 22.397 ], [ -97.93715, 22.40462 ], [ -97.93749, 22.40643 ], [ -97.94206, 22.41726 ], [ -97.9429, 22.41938 ], [ -97.9432, 22.42005 ], [ -97.94773, 22.42523 ], [ -97.95985, 22.43376 ], [ -97.97062, 22.43507 ], [ -97.97082, 22.43303 ] ] } }
]
}
