{
"type": "FeatureCollection",
"name": "shape_116",
"crs": { "type": "name", "properties": { "name": "urn:ogc:def:crs:OGC:1.3:CRS84" } },
"features": [
{ "type": "Feature", "properties": { "data.route.shortName": "116", "data.route.longName": "Altamira - Intramunicipal", "shape_id": "shape_116" }, "geometry": { "type": "LineString", "coordinates": [ [ -97.94817, 22.39214 ], [ -97.94642, 22.39202 ], [ -97.94657, 22.39058 ], [ -97.94407, 22.3904 ], [ -97.94397, 22.39072 ], [ -97.9432, 22.39083 ], [ -97.94159, 22.3906 ], [ -97.94108, 22.3947 ], [ -97.9409, 22.39603 ], [ -97.9407, 22.39757 ], [ -97.9408, 22.39835 ], [ -97.9404, 22.40075 ], [ -97.94021, 22.40195 ], [ -97.94063, 22.39933 ], [ -97.9378, 22.39901 ], [ -97.9373, 22.40583 ], [ -97.94196, 22.4166 ], [ -97.9417, 22.4167 ], [ -97.93822, 22.40867 ], [ -97.93443, 22.41063 ], [ -97.93155, 22.41226 ], [ -97.93376, 22.41345 ], [ -97.93367, 22.41436 ], [ -97.93387, 22.41446 ], [ -97.93378, 22.41551 ], [ -97.93496, 22.41565 ], [ -97.93447, 22.41861 ], [ -97.93479, 22.4191 ], [ -97.93352, 22.42706 ], [ -97.93082, 22.42567 ], [ -97.92511, 22.42501 ], [ -97.92646, 22.41623 ], [ -97.92435, 22.41605 ], [ -97.9208, 22.41545 ], [ -97.92128, 22.41212 ], [ -97.92229, 22.41227 ], [ -97.92271, 22.40938 ], [ -97.9217, 22.40926 ], [ -97.92278, 22.40136 ], [ -97.92291, 22.40032 ], [ -97.92312, 22.39949 ], [ -97.92912, 22.39735 ], [ -97.93202, 22.39411 ], [ -97.9299, 22.39198 ], [ -97.93033, 22.39165 ], [ -97.94119, 22.39355 ], [ -97.94159, 22.3906 ], [ -97.9432, 22.39083 ], [ -97.94397, 22.39072 ], [ -97.94407, 22.3904 ], [ -97.94657, 22.39058 ], [ -97.94151, 22.39105 ], [ -97.94159, 22.3906 ], [ -97.94133, 22.39225 ], [ -97.937, 22.39171 ], [ -97.93363, 22.39139 ], [ -97.93314, 22.39206 ], [ -97.93033, 22.39165 ], [ -97.9299, 22.39198 ], [ -97.93202, 22.39411 ], [ -97.92912, 22.39735 ], [ -97.92312, 22.39949 ], [ -97.92291, 22.40032 ], [ -97.92278, 22.40136 ], [ -97.9217, 22.40926 ], [ -97.92271, 22.40938 ], [ -97.92229, 22.41227 ], [ -97.92128, 22.41212 ], [ -97.9208, 22.41545 ], [ -97.92435, 22.41605 ], [ -97.92646, 22.41623 ], [ -97.92511, 22.42501 ], [ -97.93082, 22.42567 ], [ -97.93352, 22.42706 ], [ -97.93479, 22.4191 ], [ -97.93447, 22.41861 ], [ -97.93496, 22.41565 ], [ -97.93378, 22.41551 ], [ -97.93387, 22.41446 ], [ -97.93367, 22.41436 ], [ -97.93376, 22.41345 ], [ -97.93155, 22.41226 ], [ -97.93443, 22.41063 ], [ -97.93822, 22.40867 ], [ -97.9417, 22.4167 ], [ -97.94196, 22.4166 ], [ -97.9373, 22.40583 ], [ -97.9378, 22.39901 ], [ -97.94063, 22.39933 ], [ -97.94021, 22.40195 ], [ -97.9404, 22.40075 ], [ -97.9408, 22.39835 ], [ -97.9407, 22.39757 ], [ -97.9409, 22.39603 ], [ -97.94108, 22.3947 ], [ -97.9414, 22.39265 ], [ -97.94159, 22.3906 ], [ -97.94172, 22.39 ], [ -97.94189, 22.38905 ], [ -97.94215, 22.38675 ], [ -97.94705, 22.38726 ], [ -97.95022, 22.38778 ], [ -97.95153, 22.3903 ], [ -97.94998, 22.39228 ] ] } }
]
}
