{
"type": "FeatureCollection",
"name": "shape_88A",
"crs": { "type": "name", "properties": { "name": "urn:ogc:def:crs:OGC:1.3:CRS84" } },
"features": [
{ "type": "Feature", "properties": { "data.route.shortName": "88A", "data.route.longName": "Altamira - Batería 7 - Los Presidentes", "shape_id": "shape_88A" }, "geometry": { "type": "LineString", "coordinates": [ [ -97.90939, 22.41537 ], [ -97.91201, 22.41686 ], [ -97.91274, 22.41571 ], [ -97.91306, 22.41566 ], [ -97.91434, 22.41577 ], [ -97.91507, 22.41587 ], [ -97.91595, 22.41658 ], [ -97.91627, 22.41508 ], [ -97.91647, 22.41411 ], [ -97.91565, 22.41404 ], [ -97.91579, 22.41321 ], [ -97.9188, 22.41348 ], [ -97.91893, 22.41232 ], [ -97.9195, 22.41199 ], [ -97.91991, 22.41191 ], [ -97.92128, 22.41211 ], [ -97.92084, 22.41546 ], [ -97.92232, 22.41568 ], [ -97.9221, 22.41767 ], [ -97.92401, 22.41788 ], [ -97.93112, 22.41849 ], [ -97.93156, 22.41803 ], [ -97.93173, 22.41758 ], [ -97.93169, 22.41235 ], [ -97.93179, 22.41213 ], [ -97.93462, 22.4106 ], [ -97.93247, 22.40797 ], [ -97.93462, 22.4106 ], [ -97.93833, 22.40853 ], [ -97.93726, 22.40577 ], [ -97.93805, 22.39722 ], [ -97.93689, 22.39694 ], [ -97.9367, 22.39775 ], [ -97.93669, 22.39778 ], [ -97.93762, 22.39796 ], [ -97.93793, 22.39803 ], [ -97.93726, 22.40577 ], [ -97.93833, 22.40853 ], [ -97.93462, 22.4106 ], [ -97.93247, 22.40797 ], [ -97.93462, 22.4106 ], [ -97.93179, 22.41213 ], [ -97.93169, 22.41235 ], [ -97.93173, 22.41758 ], [ -97.93156, 22.41803 ], [ -97.93112, 22.41849 ], [ -97.92401, 22.41788 ], [ -97.9221, 22.41767 ], [ -97.92232, 22.41568 ], [ -97.92084, 22.41546 ], [ -97.92128, 22.41211 ], [ -97.91991, 22.41191 ], [ -97.9195, 22.41199 ], [ -97.91893, 22.41232 ], [ -97.9188, 22.41348 ], [ -97.91579, 22.41321 ], [ -97.91565, 22.41404 ], [ -97.91647, 22.41411 ], [ -97.91627, 22.41508 ], [ -97.91595, 22.41658 ], [ -97.91507, 22.41587 ], [ -97.91434, 22.41577 ], [ -97.91306, 22.41566 ], [ -97.91274, 22.41571 ], [ -97.91201, 22.41686 ] ] } }
]
}
