{
"type": "FeatureCollection",
"name": "shape_25",
"crs": { "type": "name", "properties": { "name": "urn:ogc:def:crs:OGC:1.3:CRS84" } },
"features": [
{ "type": "Feature", "properties": { "data.route.shortName": "25", "data.route.longName": "Madero - Col Echeverría", "shape_id": "shape_25" }, "geometry": { "type": "LineString", "coordinates": [ [ -97.83373, 22.24048 ], [ -97.83429, 22.24096 ], [ -97.83352, 22.24187 ], [ -97.83306, 22.24242 ], [ -97.83356, 22.24296 ], [ -97.83185, 22.24439 ], [ -97.83304, 22.24559 ], [ -97.83671, 22.24754 ], [ -97.83803, 22.24539 ], [ -97.84795, 22.2508 ], [ -97.84667, 22.25291 ], [ -97.85, 22.25463 ], [ -97.8537, 22.2535 ], [ -97.85446, 22.25143 ], [ -97.85494, 22.25057 ], [ -97.85468, 22.24809 ], [ -97.85516, 22.24717 ], [ -97.85528, 22.24541 ], [ -97.85749, 22.24653 ], [ -97.85821, 22.2522 ], [ -97.8633, 22.2507 ], [ -97.86333, 22.25273 ], [ -97.86478, 22.25305 ], [ -97.86469, 22.2551 ], [ -97.86385, 22.25732 ], [ -97.86198, 22.26036 ], [ -97.86081, 22.26295 ], [ -97.86018, 22.26391 ], [ -97.85943, 22.26692 ], [ -97.85856, 22.26984 ], [ -97.85633, 22.27515 ], [ -97.8561, 22.27534 ], [ -97.85535, 22.27473 ], [ -97.8551, 22.27491 ], [ -97.85611, 22.27659 ], [ -97.85654, 22.27693 ], [ -97.85944, 22.27837 ], [ -97.86196, 22.28059 ], [ -97.86313, 22.28174 ], [ -97.86551, 22.28463 ], [ -97.87087, 22.28865 ], [ -97.87197, 22.28908 ], [ -97.87268, 22.28944 ], [ -97.87298, 22.28987 ], [ -97.87293, 22.29025 ], [ -97.87264, 22.29026 ], [ -97.8722, 22.28994 ], [ -97.87213, 22.28946 ], [ -97.87271, 22.28832 ], [ -97.87332, 22.28728 ], [ -97.87378, 22.28565 ], [ -97.87394, 22.28442 ], [ -97.87299, 22.28243 ], [ -97.87301, 22.27957 ], [ -97.87328, 22.27777 ], [ -97.87405, 22.27555 ], [ -97.87771, 22.27658 ], [ -97.8794, 22.27796 ], [ -97.88082, 22.27899 ], [ -97.88354, 22.27906 ], [ -97.88419, 22.27899 ], [ -97.88513, 22.27817 ], [ -97.88656, 22.27755 ], [ -97.88862, 22.27735 ], [ -97.88908, 22.27743 ], [ -97.88946, 22.27852 ], [ -97.89136, 22.27817 ], [ -97.89162, 22.27964 ], [ -97.88933, 22.27964 ], [ -97.88645, 22.27974 ], [ -97.88643, 22.27988 ], [ -97.88419, 22.27899 ], [ -97.88419, 22.27899 ], [ -97.88643, 22.27988 ], [ -97.88645, 22.27974 ], [ -97.88933, 22.27964 ], [ -97.89162, 22.27964 ], [ -97.89136, 22.27817 ], [ -97.88946, 22.27852 ], [ -97.88908, 22.27743 ], [ -97.88862, 22.27735 ], [ -97.88656, 22.27755 ], [ -97.88513, 22.27817 ], [ -97.88419, 22.27899 ], [ -97.88354, 22.27906 ], [ -97.88082, 22.27899 ], [ -97.8794, 22.27796 ], [ -97.87771, 22.27658 ], [ -97.87405, 22.27555 ], [ -97.87328, 22.27777 ], [ -97.87301, 22.27957 ], [ -97.87299, 22.28243 ], [ -97.87394, 22.28442 ], [ -97.87378, 22.28565 ], [ -97.87332, 22.28728 ], [ -97.87271, 22.28832 ], [ -97.87223, 22.28847 ], [ -97.87202, 22.28851 ], [ -97.87138, 22.28857 ], [ -97.87085, 22.28841 ], [ -97.87118, 22.28854 ], [ -97.87147, 22.28858 ], [ -97.87181, 22.28855 ], [ -97.87116, 22.28854 ], [ -97.87072, 22.28831 ], [ -97.87065, 22.28823 ], [ -97.87044, 22.28805 ], [ -97.86996, 22.28771 ], [ -97.86551, 22.28463 ], [ -97.86313, 22.28174 ], [ -97.86196, 22.28059 ], [ -97.85944, 22.27837 ], [ -97.85883, 22.27754 ], [ -97.85804, 22.27697 ], [ -97.85744, 22.27647 ], [ -97.85698, 22.27607 ], [ -97.85651, 22.27569 ], [ -97.8561, 22.27534 ], [ -97.85633, 22.27515 ], [ -97.85856, 22.26984 ], [ -97.85943, 22.26692 ], [ -97.86018, 22.26391 ], [ -97.86081, 22.26295 ], [ -97.86198, 22.26036 ], [ -97.86385, 22.25732 ], [ -97.86469, 22.2551 ], [ -97.86724, 22.2495 ], [ -97.86447, 22.25032 ], [ -97.8633, 22.2507 ], [ -97.85821, 22.2522 ], [ -97.85749, 22.24653 ], [ -97.85528, 22.24541 ], [ -97.85516, 22.24717 ], [ -97.85468, 22.24809 ], [ -97.85494, 22.25057 ], [ -97.85446, 22.25143 ], [ -97.8537, 22.2535 ], [ -97.85175, 22.25413 ], [ -97.8475, 22.25171 ], [ -97.84887, 22.24937 ], [ -97.83886, 22.24399 ], [ -97.83754, 22.24612 ], [ -97.83359, 22.244 ], [ -97.83306, 22.24343 ], [ -97.83356, 22.24296 ], [ -97.83306, 22.24242 ], [ -97.83289, 22.2422 ], [ -97.83369, 22.24055 ] ] } }
]
}
