{
"type": "FeatureCollection",
"name": "shape_49",
"crs": { "type": "name", "properties": { "name": "urn:ogc:def:crs:OGC:1.3:CRS84" } },
"features": [
{ "type": "Feature", "properties": { "data.route.shortName": "49", "data.route.longName": "Tancol", "shape_id": "shape_49" }, "geometry": { "type": "LineString", "coordinates": [ [ -97.89967, 22.2987 ], [ -97.89902, 22.2993 ], [ -97.89967, 22.29994 ], [ -97.90034, 22.29935 ], [ -97.89901, 22.29805 ], [ -97.89679, 22.30064 ], [ -97.89614, 22.30127 ], [ -97.89387, 22.2996 ], [ -97.89119, 22.29791 ], [ -97.88707, 22.29571 ], [ -97.88546, 22.29533 ], [ -97.88183, 22.29505 ], [ -97.88014, 22.29442 ], [ -97.87866, 22.29341 ], [ -97.87329, 22.29043 ], [ -97.87293, 22.28824 ], [ -97.87402, 22.28501 ], [ -97.87293, 22.28219 ], [ -97.87314, 22.2781 ], [ -97.87466, 22.27278 ], [ -97.87374, 22.27002 ], [ -97.874, 22.26652 ], [ -97.87512, 22.2641 ], [ -97.87625, 22.25911 ], [ -97.87662, 22.25735 ], [ -97.87651, 22.25516 ], [ -97.87437, 22.24869 ], [ -97.87265, 22.24565 ], [ -97.86956, 22.23858 ], [ -97.86797, 22.23522 ], [ -97.8646, 22.22642 ], [ -97.8634, 22.22326 ], [ -97.86327, 22.22154 ], [ -97.8558, 22.21839 ], [ -97.85495, 22.21998 ], [ -97.85543, 22.21912 ], [ -97.86334, 22.22263 ], [ -97.86334, 22.22263 ], [ -97.85543, 22.21912 ], [ -97.85495, 22.21998 ], [ -97.8558, 22.21839 ], [ -97.86327, 22.22154 ], [ -97.8634, 22.22326 ], [ -97.8646, 22.22642 ], [ -97.86797, 22.23522 ], [ -97.86956, 22.23858 ], [ -97.87265, 22.24565 ], [ -97.87437, 22.24869 ], [ -97.87651, 22.25516 ], [ -97.87662, 22.25735 ], [ -97.87625, 22.25911 ], [ -97.87512, 22.2641 ], [ -97.874, 22.26652 ], [ -97.87374, 22.27002 ], [ -97.87466, 22.27278 ], [ -97.87314, 22.2781 ], [ -97.87293, 22.28219 ], [ -97.87402, 22.28501 ], [ -97.87293, 22.28824 ], [ -97.87203, 22.28973 ], [ -97.87321, 22.29112 ], [ -97.87531, 22.29442 ], [ -97.87662, 22.29626 ], [ -97.88003, 22.2944 ], [ -97.88183, 22.29505 ], [ -97.88546, 22.29533 ], [ -97.88707, 22.29571 ], [ -97.89119, 22.29791 ], [ -97.89387, 22.2996 ], [ -97.89614, 22.30127 ], [ -97.89679, 22.30064 ], [ -97.89903, 22.29806 ], [ -97.90035, 22.29937 ], [ -97.89968, 22.29994 ], [ -97.899, 22.2993 ], [ -97.89969, 22.29872 ] ] } }
]
}
