{
"type": "FeatureCollection",
"name": "shape_105",
"crs": { "type": "name", "properties": { "name": "urn:ogc:def:crs:OGC:1.3:CRS84" } },
"features": [
{ "type": "Feature", "properties": { "data.route.shortName": "105", "data.route.longName": "Zapata - Haciendas - Tampico por Av. Hidalgo y Ayuntamiento", "shape_id": "shape_105" }, "geometry": { "type": "LineString", "coordinates": [ [ -97.87205, 22.3653 ], [ -97.87211, 22.36563 ], [ -97.87233, 22.36595 ], [ -97.87423, 22.36813 ], [ -97.8727, 22.36919 ], [ -97.87366, 22.3703 ], [ -97.87511, 22.36925 ], [ -97.8756, 22.36983 ], [ -97.87579, 22.36976 ], [ -97.878, 22.37236 ], [ -97.87813, 22.37233 ], [ -97.87981, 22.37391 ], [ -97.88183, 22.37208 ], [ -97.8802, 22.37027 ], [ -97.88049, 22.37002 ], [ -97.87826, 22.36776 ], [ -97.87964, 22.36684 ], [ -97.88001, 22.36687 ], [ -97.88031, 22.36695 ], [ -97.88257, 22.37018 ], [ -97.8846, 22.36897 ], [ -97.884, 22.37017 ], [ -97.88494, 22.37117 ], [ -97.88545, 22.37156 ], [ -97.88563, 22.37128 ], [ -97.88599, 22.36814 ], [ -97.88648, 22.36763 ], [ -97.88698, 22.36738 ], [ -97.88778, 22.36181 ], [ -97.88176, 22.36108 ], [ -97.88209, 22.35891 ], [ -97.88244, 22.35898 ], [ -97.88724, 22.35422 ], [ -97.88593, 22.35319 ], [ -97.88357, 22.35132 ], [ -97.88241, 22.35072 ], [ -97.88065, 22.34973 ], [ -97.87933, 22.34883 ], [ -97.87635, 22.34575 ], [ -97.87527, 22.34246 ], [ -97.87442, 22.3388 ], [ -97.87385, 22.33715 ], [ -97.87324, 22.33577 ], [ -97.87391, 22.33112 ], [ -97.88179, 22.30597 ], [ -97.88168, 22.3046 ], [ -97.87325, 22.29104 ], [ -97.87299, 22.28941 ], [ -97.87293, 22.288 ], [ -97.87396, 22.28501 ], [ -97.87286, 22.28241 ], [ -97.87336, 22.27708 ], [ -97.87477, 22.27276 ], [ -97.87378, 22.27015 ], [ -97.87383, 22.26698 ], [ -97.87464, 22.26523 ], [ -97.8766, 22.25727 ], [ -97.87621, 22.25399 ], [ -97.87398, 22.24791 ], [ -97.87312, 22.24652 ], [ -97.86501, 22.22744 ], [ -97.86364, 22.22394 ], [ -97.86331, 22.22227 ], [ -97.86316, 22.22062 ], [ -97.86261, 22.21949 ], [ -97.85924, 22.21794 ], [ -97.861, 22.2145 ], [ -97.86349, 22.21566 ], [ -97.86263, 22.21746 ], [ -97.85829, 22.21562 ], [ -97.85881, 22.21474 ], [ -97.85952, 22.21508 ], [ -97.85964, 22.21524 ], [ -97.85797, 22.2184 ], [ -97.86323, 22.22064 ], [ -97.86331, 22.22227 ], [ -97.86364, 22.22394 ], [ -97.8658, 22.2295 ], [ -97.86419, 22.23036 ], [ -97.86284, 22.23069 ], [ -97.86355, 22.23337 ], [ -97.86346, 22.23697 ], [ -97.8637, 22.24114 ], [ -97.86426, 22.24118 ], [ -97.86441, 22.24144 ], [ -97.86623, 22.2413 ], [ -97.86655, 22.24682 ], [ -97.866, 22.24992 ], [ -97.86334, 22.25073 ], [ -97.86336, 22.2528 ], [ -97.8648, 22.25306 ], [ -97.86469, 22.25522 ], [ -97.86394, 22.25725 ], [ -97.86063, 22.26328 ], [ -97.85952, 22.26698 ], [ -97.85634, 22.27536 ], [ -97.85462, 22.27425 ], [ -97.85582, 22.27627 ], [ -97.8566, 22.27687 ], [ -97.85947, 22.27845 ], [ -97.86256, 22.281 ], [ -97.86535, 22.28437 ], [ -97.87067, 22.28826 ], [ -97.87325, 22.29104 ], [ -97.88168, 22.3046 ], [ -97.88179, 22.30597 ], [ -97.87391, 22.33112 ], [ -97.87324, 22.33577 ], [ -97.87385, 22.33715 ], [ -97.87442, 22.3388 ], [ -97.87527, 22.34246 ], [ -97.87635, 22.34575 ], [ -97.87933, 22.34883 ], [ -97.88065, 22.34973 ], [ -97.88241, 22.35072 ], [ -97.88357, 22.35132 ], [ -97.88593, 22.35319 ], [ -97.88724, 22.35422 ], [ -97.88244, 22.35898 ], [ -97.88209, 22.35891 ], [ -97.88176, 22.36108 ], [ -97.88778, 22.36181 ], [ -97.88698, 22.36738 ], [ -97.88648, 22.36763 ], [ -97.88599, 22.36814 ], [ -97.88563, 22.37128 ], [ -97.88545, 22.37156 ], [ -97.88494, 22.37117 ], [ -97.884, 22.37017 ], [ -97.8846, 22.36897 ], [ -97.88257, 22.37018 ], [ -97.88031, 22.36695 ], [ -97.88001, 22.36687 ], [ -97.87964, 22.36684 ], [ -97.87826, 22.36776 ], [ -97.88049, 22.37002 ], [ -97.8802, 22.37027 ], [ -97.88183, 22.37208 ], [ -97.87981, 22.37391 ], [ -97.87813, 22.37233 ], [ -97.878, 22.37236 ], [ -97.87579, 22.36976 ], [ -97.8756, 22.36983 ], [ -97.87511, 22.36925 ], [ -97.87366, 22.3703 ], [ -97.8727, 22.36919 ], [ -97.87423, 22.36813 ], [ -97.87233, 22.36595 ], [ -97.87211, 22.36563 ] ] } }
]
}
