{
"type": "FeatureCollection",
"name": "shape_106",
"crs": { "type": "name", "properties": { "name": "urn:ogc:def:crs:OGC:1.3:CRS84" } },
"features": [
{ "type": "Feature", "properties": { "data.route.shortName": "106", "data.route.longName": "Puerto Industrial - Tampico por Av. Hidalgo y Ayuntamiento", "shape_id": "shape_106" }, "geometry": { "type": "LineString", "coordinates": [ [ -97.88471, 22.44614 ], [ -97.89647, 22.44372 ], [ -97.89479, 22.43789 ], [ -97.88514, 22.42238 ], [ -97.88484, 22.42089 ], [ -97.88488, 22.41922 ], [ -97.89689, 22.38587 ], [ -97.89977, 22.38258 ], [ -97.90089, 22.38075 ], [ -97.90187, 22.37675 ], [ -97.90348, 22.37439 ], [ -97.90432, 22.37403 ], [ -97.90703, 22.37543 ], [ -97.90773, 22.37592 ], [ -97.90999, 22.37802 ], [ -97.91013, 22.37819 ], [ -97.91073, 22.3788 ], [ -97.91084, 22.3787 ], [ -97.91007, 22.37793 ], [ -97.90942, 22.37722 ], [ -97.90745, 22.37539 ], [ -97.90462, 22.37263 ], [ -97.90157, 22.3697 ], [ -97.89404, 22.36167 ], [ -97.88722, 22.3543 ], [ -97.88353, 22.35123 ], [ -97.88076, 22.34986 ], [ -97.87821, 22.34773 ], [ -97.87638, 22.34587 ], [ -97.87413, 22.33833 ], [ -97.87331, 22.33634 ], [ -97.87321, 22.33527 ], [ -97.87391, 22.33126 ], [ -97.87589, 22.32554 ], [ -97.8784, 22.31653 ], [ -97.88031, 22.31109 ], [ -97.88166, 22.30665 ], [ -97.88168, 22.30482 ], [ -97.87632, 22.29605 ], [ -97.87327, 22.29108 ], [ -97.87297, 22.28892 ], [ -97.87308, 22.28777 ], [ -97.87398, 22.28489 ], [ -97.87323, 22.28286 ], [ -97.87291, 22.28127 ], [ -97.87314, 22.27798 ], [ -97.87475, 22.27286 ], [ -97.87389, 22.27063 ], [ -97.87374, 22.26704 ], [ -97.87458, 22.26531 ], [ -97.87655, 22.25828 ], [ -97.87651, 22.25526 ], [ -97.87505, 22.25085 ], [ -97.87316, 22.24656 ], [ -97.86716, 22.23306 ], [ -97.86346, 22.22368 ], [ -97.86327, 22.22062 ], [ -97.86278, 22.21947 ], [ -97.85926, 22.21798 ], [ -97.86095, 22.21454 ], [ -97.86346, 22.21566 ], [ -97.86265, 22.21746 ], [ -97.85842, 22.21564 ], [ -97.85879, 22.2148 ], [ -97.85973, 22.21522 ], [ -97.85973, 22.21522 ], [ -97.85804, 22.21834 ], [ -97.86327, 22.22062 ], [ -97.86346, 22.22368 ], [ -97.86589, 22.2295 ], [ -97.86417, 22.23032 ], [ -97.8628, 22.23073 ], [ -97.86357, 22.23353 ], [ -97.86342, 22.23441 ], [ -97.86376, 22.24334 ], [ -97.86383, 22.24914 ], [ -97.86355, 22.25053 ], [ -97.86327, 22.25077 ], [ -97.86338, 22.25284 ], [ -97.86471, 22.25304 ], [ -97.86469, 22.2552 ], [ -97.86055, 22.2634 ], [ -97.85934, 22.26781 ], [ -97.85626, 22.27552 ], [ -97.85471, 22.27428 ], [ -97.85613, 22.27659 ], [ -97.85934, 22.27826 ], [ -97.86303, 22.28135 ], [ -97.86548, 22.28465 ], [ -97.86977, 22.28753 ], [ -97.87327, 22.29108 ], [ -97.87632, 22.29605 ], [ -97.88168, 22.30482 ], [ -97.88166, 22.30665 ], [ -97.88031, 22.31109 ], [ -97.8784, 22.31653 ], [ -97.87589, 22.32554 ], [ -97.87391, 22.33126 ], [ -97.87321, 22.33527 ], [ -97.87331, 22.33634 ], [ -97.87413, 22.33833 ], [ -97.87638, 22.34587 ], [ -97.87821, 22.34773 ], [ -97.88076, 22.34986 ], [ -97.88353, 22.35123 ], [ -97.88722, 22.3543 ], [ -97.89404, 22.36167 ], [ -97.90116, 22.36956 ], [ -97.90189, 22.37118 ], [ -97.9029, 22.3727 ], [ -97.90432, 22.37403 ], [ -97.90348, 22.37439 ], [ -97.90187, 22.37675 ], [ -97.90089, 22.38075 ], [ -97.89977, 22.38258 ], [ -97.89689, 22.38587 ], [ -97.88488, 22.41922 ], [ -97.88484, 22.42089 ], [ -97.88514, 22.42238 ], [ -97.89479, 22.43789 ], [ -97.89642, 22.44372 ], [ -97.88484, 22.44618 ] ] } }
]
}
