{
"type": "FeatureCollection",
"name": "shape_45",
"crs": { "type": "name", "properties": { "name": "urn:ogc:def:crs:OGC:1.3:CRS84" } },
"features": [
{ "type": "Feature", "properties": { "data.route.shortName": "45", "data.route.longName": "E. C. González por Av. Hidalgo", "shape_id": "shape_45" }, "geometry": { "type": "LineString", "coordinates": [ [ -97.83783, 22.29167 ], [ -97.83829, 22.29303 ], [ -97.84026, 22.29246 ], [ -97.84105, 22.29469 ], [ -97.84102, 22.2948 ], [ -97.84118, 22.29522 ], [ -97.84323, 22.29465 ], [ -97.84323, 22.29499 ], [ -97.84473, 22.29487 ], [ -97.84447, 22.29207 ], [ -97.85205, 22.29146 ], [ -97.85317, 22.29427 ], [ -97.85519, 22.29354 ], [ -97.85752, 22.29909 ], [ -97.85542, 22.29984 ], [ -97.8542, 22.29679 ], [ -97.85166, 22.29775 ], [ -97.85511, 22.30611 ], [ -97.8577, 22.3051 ], [ -97.85767, 22.3049 ], [ -97.86156, 22.30358 ], [ -97.86316, 22.30733 ], [ -97.86378, 22.3071 ], [ -97.86906, 22.30721 ], [ -97.86892, 22.3107 ], [ -97.87518, 22.31099 ], [ -97.88043, 22.31059 ], [ -97.88145, 22.30748 ], [ -97.88173, 22.30567 ], [ -97.88157, 22.30438 ], [ -97.87649, 22.29622 ], [ -97.87327, 22.2911 ], [ -97.87299, 22.28941 ], [ -97.87299, 22.28787 ], [ -97.87394, 22.2854 ], [ -97.87374, 22.28391 ], [ -97.87288, 22.28209 ], [ -97.87351, 22.27659 ], [ -97.87473, 22.2728 ], [ -97.87368, 22.26916 ], [ -97.87381, 22.2669 ], [ -97.87488, 22.26455 ], [ -97.87604, 22.25955 ], [ -97.87664, 22.25717 ], [ -97.87628, 22.25393 ], [ -97.87411, 22.24819 ], [ -97.8719, 22.24406 ], [ -97.86758, 22.23427 ], [ -97.86437, 22.22553 ], [ -97.86342, 22.22348 ], [ -97.86327, 22.22132 ], [ -97.86323, 22.22058 ], [ -97.86271, 22.21945 ], [ -97.85666, 22.21673 ], [ -97.85666, 22.21673 ], [ -97.85629, 22.21754 ], [ -97.86233, 22.22023 ], [ -97.86323, 22.22058 ], [ -97.86327, 22.22132 ], [ -97.86342, 22.22348 ], [ -97.86437, 22.22553 ], [ -97.86758, 22.23427 ], [ -97.8719, 22.24406 ], [ -97.87411, 22.24819 ], [ -97.87628, 22.25393 ], [ -97.87664, 22.25717 ], [ -97.87604, 22.25955 ], [ -97.87488, 22.26455 ], [ -97.87381, 22.2669 ], [ -97.87368, 22.26916 ], [ -97.87473, 22.2728 ], [ -97.87351, 22.27659 ], [ -97.87288, 22.28209 ], [ -97.87374, 22.28391 ], [ -97.87394, 22.2854 ], [ -97.87299, 22.28787 ], [ -97.87299, 22.28941 ], [ -97.87327, 22.2911 ], [ -97.87649, 22.29622 ], [ -97.88157, 22.30438 ], [ -97.88173, 22.30567 ], [ -97.88145, 22.30748 ], [ -97.88106, 22.30861 ], [ -97.87509, 22.30893 ], [ -97.86902, 22.30875 ], [ -97.86906, 22.30721 ], [ -97.86378, 22.3071 ], [ -97.86316, 22.30733 ], [ -97.86156, 22.30358 ], [ -97.85767, 22.3049 ], [ -97.8577, 22.3051 ], [ -97.85511, 22.30611 ], [ -97.85166, 22.29775 ], [ -97.8542, 22.29679 ], [ -97.85542, 22.29984 ], [ -97.85752, 22.29909 ], [ -97.85519, 22.29354 ], [ -97.85317, 22.29427 ], [ -97.85258, 22.29257 ], [ -97.85293, 22.29222 ], [ -97.85083, 22.28706 ], [ -97.85048, 22.28723 ], [ -97.85099, 22.28882 ], [ -97.85205, 22.2915 ], [ -97.84447, 22.29207 ], [ -97.84473, 22.29487 ], [ -97.84323, 22.29499 ], [ -97.84323, 22.29465 ], [ -97.84118, 22.29522 ], [ -97.84102, 22.2948 ], [ -97.84105, 22.29469 ], [ -97.83984, 22.29113 ], [ -97.83783, 22.29169 ], [ -97.83829, 22.29303 ] ] } }
]
}
