{
"type": "FeatureCollection",
"name": "shape_3",
"crs": { "type": "name", "properties": { "name": "urn:ogc:def:crs:OGC:1.3:CRS84" } },
"features": [
{ "type": "Feature", "properties": { "data.route.shortName": "3", "data.route.longName": "Madero - Revolución Verde - Central de Abastos", "shape_id": "shape_3" }, "geometry": { "type": "LineString", "coordinates": [ [ -97.88404, 22.33674 ], [ -97.88325, 22.33801 ], [ -97.88353, 22.33807 ], [ -97.88492, 22.33823 ], [ -97.88518, 22.33809 ], [ -97.88668, 22.33577 ], [ -97.88653, 22.33551 ], [ -97.88501, 22.33539 ], [ -97.88416, 22.33673 ], [ -97.88299, 22.33503 ], [ -97.88156, 22.33582 ], [ -97.87973, 22.33672 ], [ -97.877, 22.33751 ], [ -97.87509, 22.33777 ], [ -97.87402, 22.33728 ], [ -97.87336, 22.33658 ], [ -97.87333, 22.33384 ], [ -97.87402, 22.33121 ], [ -97.87372, 22.33131 ], [ -97.87252, 22.32735 ], [ -97.87213, 22.32634 ], [ -97.87003, 22.32354 ], [ -97.86844, 22.31671 ], [ -97.8686, 22.31414 ], [ -97.86884, 22.31022 ], [ -97.86411, 22.31023 ], [ -97.86378, 22.30833 ], [ -97.8639, 22.30785 ], [ -97.8636, 22.30601 ], [ -97.86247, 22.30321 ], [ -97.85758, 22.30497 ], [ -97.85501, 22.29859 ], [ -97.8525, 22.29253 ], [ -97.85033, 22.28691 ], [ -97.84793, 22.28112 ], [ -97.84526, 22.27431 ], [ -97.84325, 22.26961 ], [ -97.84351, 22.26949 ], [ -97.84131, 22.26404 ], [ -97.84171, 22.2638 ], [ -97.84292, 22.26033 ], [ -97.84313, 22.25977 ], [ -97.84372, 22.25885 ], [ -97.8384, 22.25347 ], [ -97.83912, 22.25291 ], [ -97.83727, 22.25109 ], [ -97.83808, 22.25025 ], [ -97.83857, 22.24945 ], [ -97.83777, 22.24904 ], [ -97.83735, 22.24978 ], [ -97.83668, 22.25047 ], [ -97.83609, 22.24987 ], [ -97.83578, 22.2496 ], [ -97.8356, 22.24964 ], [ -97.83544, 22.24956 ], [ -97.83533, 22.24944 ], [ -97.83523, 22.24951 ], [ -97.83554, 22.25028 ], [ -97.83579, 22.25083 ], [ -97.83592, 22.25093 ], [ -97.8384, 22.25347 ], [ -97.83662, 22.25165 ], [ -97.83592, 22.25093 ], [ -97.8358, 22.25083 ], [ -97.83554, 22.25028 ], [ -97.83524, 22.24952 ], [ -97.83535, 22.24943 ], [ -97.83547, 22.24958 ], [ -97.83561, 22.24964 ], [ -97.8357, 22.24963 ], [ -97.83578, 22.2496 ], [ -97.83609, 22.24987 ], [ -97.83668, 22.25047 ], [ -97.83602, 22.25103 ], [ -97.83665, 22.25164 ], [ -97.84014, 22.25524 ], [ -97.84196, 22.25709 ], [ -97.84372, 22.25885 ], [ -97.84313, 22.25977 ], [ -97.84292, 22.26033 ], [ -97.8416, 22.26384 ], [ -97.8412, 22.26358 ], [ -97.84334, 22.26884 ], [ -97.84553, 22.2744 ], [ -97.84862, 22.28171 ], [ -97.85085, 22.28715 ], [ -97.85295, 22.29222 ], [ -97.8525, 22.29253 ], [ -97.85497, 22.29851 ], [ -97.85758, 22.30497 ], [ -97.86247, 22.30321 ], [ -97.8636, 22.30601 ], [ -97.8639, 22.30785 ], [ -97.86378, 22.30833 ], [ -97.86411, 22.31023 ], [ -97.86884, 22.31022 ], [ -97.8686, 22.31414 ], [ -97.86844, 22.31671 ], [ -97.86921, 22.31999 ], [ -97.87003, 22.32354 ], [ -97.87213, 22.32634 ], [ -97.87252, 22.32735 ], [ -97.87372, 22.33131 ], [ -97.87402, 22.33121 ], [ -97.87333, 22.33384 ], [ -97.87336, 22.33658 ], [ -97.87402, 22.33728 ], [ -97.87509, 22.33777 ], [ -97.877, 22.33751 ], [ -97.87973, 22.33672 ], [ -97.88156, 22.33582 ], [ -97.88299, 22.33503 ], [ -97.88416, 22.33673 ], [ -97.88501, 22.33539 ], [ -97.88653, 22.33551 ], [ -97.88668, 22.33577 ], [ -97.88518, 22.33809 ], [ -97.88492, 22.33823 ], [ -97.88353, 22.33807 ], [ -97.88325, 22.33801 ] ] } }
]
}
