{
"type": "FeatureCollection",
"name": "shape_120",
"crs": { "type": "name", "properties": { "name": "urn:ogc:def:crs:OGC:1.3:CRS84" } },
"features": [
{ "type": "Feature", "properties": { "data.route.shortName": "120", "data.route.longName": "Fracc. Arboledas - Soriana - Aeropuerto", "shape_id": "shape_120" }, "geometry": { "type": "LineString", "coordinates": [ [ -97.9102, 22.40345 ], [ -97.90936, 22.39994 ], [ -97.9093, 22.3993 ], [ -97.90996, 22.3993 ], [ -97.91022, 22.39774 ], [ -97.91057, 22.39541 ], [ -97.91075, 22.39466 ], [ -97.91067, 22.39401 ], [ -97.91055, 22.39343 ], [ -97.91016, 22.39288 ], [ -97.91116, 22.39207 ], [ -97.91416, 22.39289 ], [ -97.91426, 22.39216 ], [ -97.91444, 22.39146 ], [ -97.91448, 22.39047 ], [ -97.91432, 22.38949 ], [ -97.91402, 22.38898 ], [ -97.91244, 22.38729 ], [ -97.91332, 22.38634 ], [ -97.91432, 22.38432 ], [ -97.91487, 22.38354 ], [ -97.91516, 22.38315 ], [ -97.91076, 22.37889 ], [ -97.90709, 22.37528 ], [ -97.90022, 22.36839 ], [ -97.89432, 22.36204 ], [ -97.89127, 22.35857 ], [ -97.88709, 22.3541 ], [ -97.88391, 22.35153 ], [ -97.88097, 22.35006 ], [ -97.87977, 22.34918 ], [ -97.87876, 22.34823 ], [ -97.87748, 22.34702 ], [ -97.87636, 22.34575 ], [ -97.87462, 22.34013 ], [ -97.87316, 22.33547 ], [ -97.87387, 22.3314 ], [ -97.87634, 22.32362 ], [ -97.87823, 22.31751 ], [ -97.87947, 22.31352 ], [ -97.88048, 22.31036 ], [ -97.88142, 22.30738 ], [ -97.88173, 22.30655 ], [ -97.88179, 22.30573 ], [ -97.8817, 22.30498 ], [ -97.88151, 22.30432 ], [ -97.87958, 22.30121 ], [ -97.8767, 22.29638 ], [ -97.87325, 22.291 ], [ -97.87306, 22.28985 ], [ -97.87265, 22.28943 ], [ -97.87218, 22.28912 ], [ -97.86954, 22.28739 ], [ -97.86954, 22.28739 ], [ -97.87139, 22.28932 ], [ -97.87226, 22.2902 ], [ -97.87322, 22.29115 ], [ -97.8766, 22.29616 ], [ -97.87969, 22.30137 ], [ -97.88151, 22.30432 ], [ -97.88179, 22.30573 ], [ -97.88142, 22.30738 ], [ -97.88037, 22.31086 ], [ -97.87921, 22.31431 ], [ -97.87827, 22.31764 ], [ -97.8766, 22.323 ], [ -97.87387, 22.3314 ], [ -97.87316, 22.33547 ], [ -97.87471, 22.34047 ], [ -97.87636, 22.34575 ], [ -97.87876, 22.34823 ], [ -97.88097, 22.35006 ], [ -97.88391, 22.35153 ], [ -97.88709, 22.3541 ], [ -97.8905, 22.35786 ], [ -97.89411, 22.36171 ], [ -97.90022, 22.36839 ], [ -97.90709, 22.37528 ], [ -97.91106, 22.37897 ], [ -97.91516, 22.38315 ], [ -97.91487, 22.38354 ], [ -97.91432, 22.38432 ], [ -97.91332, 22.38634 ], [ -97.91244, 22.38729 ], [ -97.91402, 22.38898 ], [ -97.91432, 22.38949 ], [ -97.91448, 22.39047 ], [ -97.91444, 22.39146 ], [ -97.91426, 22.39216 ], [ -97.91416, 22.39289 ], [ -97.91116, 22.39207 ], [ -97.91016, 22.39288 ], [ -97.91055, 22.39343 ], [ -97.91067, 22.39401 ], [ -97.91075, 22.39466 ], [ -97.91057, 22.39541 ], [ -97.91022, 22.39774 ], [ -97.90996, 22.3993 ], [ -97.9093, 22.3993 ], [ -97.91022, 22.40311 ] ] } }
]
}
