{
"type": "FeatureCollection",
"name": "shape_110",
"crs": { "type": "name", "properties": { "name": "urn:ogc:def:crs:OGC:1.3:CRS84" } },
"features": [
{ "type": "Feature", "properties": { "data.route.shortName": "110", "data.route.longName": "Universidad Politécnica de Altamira - Santa Amalia - Germinal Zona Conurbada Tampico - Madero - Altamira", "shape_id": "shape_110" }, "geometry": { "type": "LineString", "coordinates": [ [ -97.96668, 22.44731 ], [ -97.967, 22.44449 ], [ -97.96749, 22.44094 ], [ -97.96751, 22.43979 ], [ -97.9673, 22.43916 ], [ -97.95082, 22.42747 ], [ -97.94678, 22.42438 ], [ -97.94294, 22.41992 ], [ -97.94249, 22.41793 ], [ -97.9391, 22.41041 ], [ -97.93724, 22.40565 ], [ -97.93799, 22.39688 ], [ -97.93721, 22.39605 ], [ -97.93342, 22.3954 ], [ -97.93058, 22.39256 ], [ -97.92936, 22.39159 ], [ -97.92404, 22.39054 ], [ -97.92318, 22.3903 ], [ -97.92249, 22.38982 ], [ -97.922, 22.38881 ], [ -97.92084, 22.38756 ], [ -97.9187, 22.38657 ], [ -97.90668, 22.37468 ], [ -97.90288, 22.37099 ], [ -97.89971, 22.36772 ], [ -97.8872, 22.3542 ], [ -97.88353, 22.35121 ], [ -97.87977, 22.34922 ], [ -97.87692, 22.34652 ], [ -97.87606, 22.34525 ], [ -97.87353, 22.33652 ], [ -97.87314, 22.33521 ], [ -97.87391, 22.3314 ], [ -97.88042, 22.31058 ], [ -97.88213, 22.3105 ], [ -97.88205, 22.30841 ], [ -97.87402, 22.30903 ], [ -97.86898, 22.30875 ], [ -97.86905, 22.30718 ], [ -97.86644, 22.30717 ], [ -97.86493, 22.30712 ], [ -97.86373, 22.30709 ], [ -97.86316, 22.30734 ], [ -97.86156, 22.30355 ], [ -97.85764, 22.30493 ], [ -97.85761, 22.30509 ], [ -97.85506, 22.30614 ], [ -97.85248, 22.30711 ], [ -97.84936, 22.30821 ], [ -97.84994, 22.30987 ], [ -97.85242, 22.31737 ], [ -97.85287, 22.31792 ], [ -97.85506, 22.32109 ], [ -97.85568, 22.32189 ], [ -97.85546, 22.32194 ], [ -97.85531, 22.32214 ], [ -97.8564, 22.32368 ], [ -97.85604, 22.32393 ], [ -97.8537, 22.32491 ], [ -97.85218, 22.32511 ], [ -97.85114, 22.32525 ], [ -97.85132, 22.32589 ], [ -97.84933, 22.32637 ], [ -97.84972, 22.32772 ], [ -97.84784, 22.32842 ], [ -97.84784, 22.32842 ], [ -97.84972, 22.32772 ], [ -97.84933, 22.32637 ], [ -97.85132, 22.32589 ], [ -97.85114, 22.32525 ], [ -97.85218, 22.32511 ], [ -97.8537, 22.32491 ], [ -97.85604, 22.32393 ], [ -97.8564, 22.32368 ], [ -97.85531, 22.32214 ], [ -97.85546, 22.32194 ], [ -97.85568, 22.32189 ], [ -97.85506, 22.32109 ], [ -97.85287, 22.31792 ], [ -97.85242, 22.31737 ], [ -97.84994, 22.30987 ], [ -97.84936, 22.30821 ], [ -97.85248, 22.30711 ], [ -97.85506, 22.30614 ], [ -97.85761, 22.30509 ], [ -97.85764, 22.30493 ], [ -97.86156, 22.30355 ], [ -97.86316, 22.30734 ], [ -97.86373, 22.30709 ], [ -97.86493, 22.30712 ], [ -97.86644, 22.30717 ], [ -97.86905, 22.30718 ], [ -97.86887, 22.31076 ], [ -97.87447, 22.31101 ], [ -97.87801, 22.31074 ], [ -97.87977, 22.31064 ], [ -97.88042, 22.31058 ], [ -97.87391, 22.3314 ], [ -97.87314, 22.33521 ], [ -97.87353, 22.33652 ], [ -97.87606, 22.34525 ], [ -97.87692, 22.34652 ], [ -97.87977, 22.34922 ], [ -97.88353, 22.35121 ], [ -97.8872, 22.3542 ], [ -97.89971, 22.36772 ], [ -97.90288, 22.37099 ], [ -97.90668, 22.37468 ], [ -97.9187, 22.38657 ], [ -97.92084, 22.38756 ], [ -97.922, 22.38881 ], [ -97.92249, 22.38982 ], [ -97.92318, 22.3903 ], [ -97.92404, 22.39054 ], [ -97.92936, 22.39159 ], [ -97.93058, 22.39256 ], [ -97.93342, 22.3954 ], [ -97.93721, 22.39605 ], [ -97.93799, 22.39688 ], [ -97.93724, 22.40565 ], [ -97.9391, 22.41041 ], [ -97.94178, 22.4167 ], [ -97.94133, 22.41704 ], [ -97.94084, 22.41712 ], [ -97.94294, 22.41992 ], [ -97.94678, 22.42438 ], [ -97.95082, 22.42747 ], [ -97.9673, 22.43916 ], [ -97.96751, 22.43979 ], [ -97.96749, 22.44094 ], [ -97.967, 22.44449 ] ] } }
]
}
