{
"type": "FeatureCollection",
"name": "shape_77",
"crs": { "type": "name", "properties": { "name": "urn:ogc:def:crs:OGC:1.3:CRS84" } },
"features": [
{ "type": "Feature", "properties": { "data.route.shortName": "77", "data.route.longName": "Madero - Universidad", "shape_id": "shape_77" }, "geometry": { "type": "LineString", "coordinates": [ [ -97.86078, 22.27927 ], [ -97.85626, 22.27546 ], [ -97.85852, 22.26979 ], [ -97.85639, 22.26905 ], [ -97.85798, 22.26482 ], [ -97.85334, 22.26332 ], [ -97.85363, 22.26264 ], [ -97.8505, 22.26164 ], [ -97.85036, 22.26169 ], [ -97.84453, 22.25861 ], [ -97.84415, 22.25801 ], [ -97.84327, 22.25715 ], [ -97.84471, 22.25602 ], [ -97.84498, 22.25564 ], [ -97.84534, 22.25502 ], [ -97.84148, 22.25299 ], [ -97.83995, 22.25213 ], [ -97.83932, 22.25185 ], [ -97.83911, 22.25171 ], [ -97.8396, 22.25101 ], [ -97.84005, 22.25031 ], [ -97.83777, 22.24907 ], [ -97.83732, 22.24976 ], [ -97.83665, 22.25051 ], [ -97.83607, 22.24986 ], [ -97.83662, 22.24941 ], [ -97.83701, 22.24869 ], [ -97.83748, 22.24792 ], [ -97.83748, 22.24792 ], [ -97.83901, 22.24878 ], [ -97.84006, 22.24933 ], [ -97.84132, 22.25001 ], [ -97.84085, 22.25078 ], [ -97.83995, 22.25213 ], [ -97.84148, 22.25299 ], [ -97.84534, 22.25502 ], [ -97.84498, 22.25564 ], [ -97.84471, 22.25602 ], [ -97.84327, 22.25715 ], [ -97.84415, 22.25801 ], [ -97.84453, 22.25861 ], [ -97.85036, 22.26169 ], [ -97.8505, 22.26164 ], [ -97.85211, 22.26217 ], [ -97.85183, 22.26288 ], [ -97.85798, 22.26482 ], [ -97.85615, 22.26982 ], [ -97.85825, 22.27049 ], [ -97.85632, 22.27542 ], [ -97.85507, 22.27456 ], [ -97.85482, 22.2747 ], [ -97.85634, 22.27675 ], [ -97.85885, 22.27798 ], [ -97.86055, 22.27931 ] ] } }
]
}
