{
"type": "FeatureCollection",
"name": "shape_55",
"crs": { "type": "name", "properties": { "name": "urn:ogc:def:crs:OGC:1.3:CRS84" } },
"features": [
{ "type": "Feature", "properties": { "data.route.shortName": "55", "data.route.longName": "Bosque", "shape_id": "shape_55" }, "geometry": { "type": "LineString", "coordinates": [ [ -97.88145, 22.33587 ], [ -97.88123, 22.32971 ], [ -97.87814, 22.32981 ], [ -97.87443, 22.32947 ], [ -97.87795, 22.31878 ], [ -97.87975, 22.31322 ], [ -97.88157, 22.30693 ], [ -97.88181, 22.30552 ], [ -97.88149, 22.30415 ], [ -97.87331, 22.29118 ], [ -97.87303, 22.28806 ], [ -97.87402, 22.28532 ], [ -97.87378, 22.28403 ], [ -97.8728, 22.28221 ], [ -97.87312, 22.27867 ], [ -97.87462, 22.27325 ], [ -97.87449, 22.27172 ], [ -97.8737, 22.26968 ], [ -97.87378, 22.26704 ], [ -97.87464, 22.26525 ], [ -97.87672, 22.25723 ], [ -97.87589, 22.25294 ], [ -97.87424, 22.24843 ], [ -97.87005, 22.23977 ], [ -97.86467, 22.22646 ], [ -97.86354, 22.22373 ], [ -97.86325, 22.22156 ], [ -97.85329, 22.21722 ], [ -97.855, 22.21406 ], [ -97.855, 22.21406 ], [ -97.8482, 22.21094 ], [ -97.84848, 22.2104 ], [ -97.84889, 22.21002 ], [ -97.84974, 22.20984 ], [ -97.85059, 22.20997 ], [ -97.8516, 22.21038 ], [ -97.85431, 22.2114 ], [ -97.85428, 22.21162 ], [ -97.85329, 22.21143 ], [ -97.85239, 22.21109 ], [ -97.85043, 22.21483 ], [ -97.85378, 22.21644 ], [ -97.85334, 22.21727 ], [ -97.86327, 22.22165 ], [ -97.86354, 22.22373 ], [ -97.86467, 22.22646 ], [ -97.87005, 22.23977 ], [ -97.87424, 22.24843 ], [ -97.87589, 22.25294 ], [ -97.87672, 22.25723 ], [ -97.87464, 22.26525 ], [ -97.87378, 22.26704 ], [ -97.8737, 22.26968 ], [ -97.87449, 22.27172 ], [ -97.87462, 22.27325 ], [ -97.87312, 22.27867 ], [ -97.8728, 22.28221 ], [ -97.87378, 22.28403 ], [ -97.87402, 22.28532 ], [ -97.87303, 22.28806 ], [ -97.87331, 22.29118 ], [ -97.88149, 22.30415 ], [ -97.88181, 22.30552 ], [ -97.88157, 22.30693 ], [ -97.87975, 22.31322 ], [ -97.87795, 22.31878 ], [ -97.87443, 22.32947 ], [ -97.87814, 22.32981 ], [ -97.88119, 22.32975 ], [ -97.88157, 22.33575 ] ] } }
]
}
