{
"type": "FeatureCollection",
"name": "shape_112",
"crs": { "type": "name", "properties": { "name": "urn:ogc:def:crs:OGC:1.3:CRS84" } },
"features": [
{ "type": "Feature", "properties": { "data.route.shortName": "112", "data.route.longName": "Cuauhtémoc - Mariano - Matamoros", "shape_id": "shape_112" }, "geometry": { "type": "LineString", "coordinates": [ [ -97.95361, 22.42503 ], [ -97.95399, 22.42406 ], [ -97.95163, 22.42313 ], [ -97.95097, 22.42767 ], [ -97.96221, 22.43555 ], [ -97.97114, 22.44197 ], [ -97.97848, 22.45288 ], [ -97.97785, 22.45403 ], [ -97.97612, 22.45671 ], [ -97.97616, 22.45803 ], [ -97.97135, 22.46283 ], [ -97.97135, 22.46283 ], [ -97.97616, 22.45803 ], [ -97.97612, 22.45671 ], [ -97.97785, 22.45403 ], [ -97.97848, 22.45288 ], [ -97.97114, 22.44197 ], [ -97.96221, 22.43555 ], [ -97.95097, 22.42767 ], [ -97.95163, 22.42313 ], [ -97.95399, 22.42406 ] ] } }
]
}
