{
"type": "FeatureCollection",
"name": "shape_81",
"crs": { "type": "name", "properties": { "name": "urn:ogc:def:crs:OGC:1.3:CRS84" } },
"features": [
{ "type": "Feature", "properties": { "data.route.shortName": "81", "data.route.longName": "Golfo", "shape_id": "shape_81" }, "geometry": { "type": "LineString", "coordinates": [ [ -97.83941, 22.22638 ], [ -97.84048, 22.22679 ], [ -97.8403, 22.22605 ], [ -97.84149, 22.22387 ], [ -97.84061, 22.2235 ], [ -97.84104, 22.22272 ], [ -97.84017, 22.22235 ], [ -97.84428, 22.2145 ], [ -97.84554, 22.21402 ], [ -97.84572, 22.21381 ], [ -97.84736, 22.21457 ], [ -97.84945, 22.21055 ], [ -97.85287, 22.21211 ], [ -97.85304, 22.21184 ], [ -97.85484, 22.21227 ], [ -97.8558, 22.21245 ], [ -97.85753, 22.2132 ], [ -97.85753, 22.2132 ], [ -97.8563, 22.21561 ], [ -97.8537, 22.21444 ], [ -97.85205, 22.21371 ], [ -97.85058, 22.21306 ], [ -97.84866, 22.21218 ], [ -97.84736, 22.21457 ], [ -97.84572, 22.21381 ], [ -97.84554, 22.21402 ], [ -97.84428, 22.2145 ], [ -97.84017, 22.22235 ], [ -97.84104, 22.22272 ], [ -97.84061, 22.2235 ], [ -97.84149, 22.22387 ], [ -97.8403, 22.22605 ], [ -97.84045, 22.22673 ], [ -97.83938, 22.22637 ] ] } }
]
}
