{
"type": "FeatureCollection",
"name": "shape_85",
"crs": { "type": "name", "properties": { "name": "urn:ogc:def:crs:OGC:1.3:CRS84" } },
"features": [
{ "type": "Feature", "properties": { "data.route.shortName": "85", "data.route.longName": "Madero Polvorín", "shape_id": "shape_85" }, "geometry": { "type": "LineString", "coordinates": [ [ -97.84325, 22.26962 ], [ -97.84402, 22.2716 ], [ -97.84191, 22.27237 ], [ -97.84091, 22.26987 ], [ -97.83886, 22.27061 ], [ -97.83871, 22.27031 ], [ -97.83692, 22.27099 ], [ -97.83631, 22.26902 ], [ -97.83814, 22.26809 ], [ -97.83754, 22.26703 ], [ -97.83715, 22.26648 ], [ -97.83585, 22.26518 ], [ -97.83813, 22.2636 ], [ -97.83876, 22.26315 ], [ -97.83798, 22.26238 ], [ -97.83778, 22.26241 ], [ -97.83745, 22.26206 ], [ -97.83939, 22.26045 ], [ -97.83154, 22.2525 ], [ -97.83513, 22.24949 ], [ -97.83618, 22.24824 ], [ -97.8366, 22.2475 ], [ -97.83705, 22.24676 ], [ -97.83629, 22.24642 ], [ -97.83629, 22.24642 ], [ -97.83589, 22.24711 ], [ -97.83544, 22.24781 ], [ -97.83487, 22.24865 ], [ -97.83513, 22.24949 ], [ -97.83086, 22.25304 ], [ -97.83876, 22.26101 ], [ -97.83998, 22.26225 ], [ -97.83949, 22.26262 ], [ -97.83908, 22.26294 ], [ -97.83876, 22.26315 ], [ -97.83813, 22.2636 ], [ -97.83585, 22.26518 ], [ -97.83715, 22.26648 ], [ -97.83754, 22.26703 ], [ -97.83814, 22.26809 ], [ -97.83631, 22.26902 ], [ -97.83692, 22.27099 ], [ -97.83871, 22.27031 ], [ -97.83886, 22.27061 ], [ -97.84091, 22.26987 ], [ -97.84191, 22.27237 ], [ -97.84402, 22.2716 ] ] } }
]
}
