{
"type": "FeatureCollection",
"name": "shape_89",
"crs": { "type": "name", "properties": { "name": "urn:ogc:def:crs:OGC:1.3:CRS84" } },
"features": [
{ "type": "Feature", "properties": { "data.route.shortName": "89", "data.route.longName": "Altamira. Gpe. Victoria - Los Presidentes", "shape_id": "shape_89" }, "geometry": { "type": "LineString", "coordinates": [ [ -97.93564, 22.39875 ], [ -97.9358, 22.39761 ], [ -97.93671, 22.39781 ], [ -97.9365, 22.39884 ], [ -97.93525, 22.39874 ], [ -97.93471, 22.39807 ], [ -97.9341, 22.39736 ], [ -97.9358, 22.39762 ], [ -97.93409, 22.39734 ], [ -97.93403, 22.3964 ], [ -97.93425, 22.39562 ], [ -97.93328, 22.39532 ], [ -97.932, 22.39424 ], [ -97.92965, 22.39702 ], [ -97.92838, 22.39763 ], [ -97.92878, 22.39819 ], [ -97.93028, 22.39961 ], [ -97.92939, 22.40474 ], [ -97.9297, 22.40506 ], [ -97.92848, 22.40557 ], [ -97.9285, 22.40525 ], [ -97.92704, 22.4051 ], [ -97.92692, 22.40641 ], [ -97.92613, 22.40632 ], [ -97.92588, 22.40716 ], [ -97.92497, 22.40712 ], [ -97.92395, 22.40698 ], [ -97.92303, 22.40689 ], [ -97.92208, 22.40676 ], [ -97.9225, 22.40344 ], [ -97.92159, 22.40341 ], [ -97.92145, 22.40357 ], [ -97.92006, 22.4033 ], [ -97.91961, 22.40571 ], [ -97.91968, 22.40657 ], [ -97.91513, 22.40621 ], [ -97.91513, 22.40602 ], [ -97.91435, 22.40603 ], [ -97.91323, 22.40874 ], [ -97.91052, 22.40839 ], [ -97.90749, 22.40808 ], [ -97.90738, 22.40901 ], [ -97.90724, 22.40974 ], [ -97.90709, 22.40989 ], [ -97.90708, 22.41042 ], [ -97.90573, 22.41032 ], [ -97.90533, 22.41322 ], [ -97.90665, 22.41343 ], [ -97.90655, 22.41447 ], [ -97.90798, 22.41457 ], [ -97.91039, 22.41595 ], [ -97.91039, 22.41595 ], [ -97.90798, 22.41457 ], [ -97.90655, 22.41447 ], [ -97.90665, 22.41343 ], [ -97.90533, 22.41322 ], [ -97.90573, 22.41032 ], [ -97.90708, 22.41042 ], [ -97.90709, 22.40989 ], [ -97.90724, 22.40974 ], [ -97.90738, 22.40901 ], [ -97.90749, 22.40808 ], [ -97.91052, 22.40839 ], [ -97.91323, 22.40874 ], [ -97.91435, 22.40603 ], [ -97.91513, 22.40602 ], [ -97.91513, 22.40621 ], [ -97.91968, 22.40657 ], [ -97.91987, 22.40658 ], [ -97.92004, 22.40657 ], [ -97.92042, 22.40657 ], [ -97.9209, 22.4066 ], [ -97.92157, 22.4067 ], [ -97.92208, 22.40676 ], [ -97.92303, 22.40689 ], [ -97.92395, 22.40698 ], [ -97.92497, 22.40712 ], [ -97.92588, 22.40716 ], [ -97.92613, 22.40632 ], [ -97.92692, 22.40641 ], [ -97.92704, 22.4051 ], [ -97.9285, 22.40525 ], [ -97.92848, 22.40557 ], [ -97.9297, 22.40506 ], [ -97.92939, 22.40474 ], [ -97.93028, 22.39961 ], [ -97.92878, 22.39819 ], [ -97.92838, 22.39763 ], [ -97.92965, 22.39702 ], [ -97.932, 22.39424 ], [ -97.93328, 22.39532 ], [ -97.93425, 22.39562 ], [ -97.93403, 22.3964 ], [ -97.93409, 22.39732 ], [ -97.93669, 22.39779 ], [ -97.93652, 22.39882 ], [ -97.93669, 22.39779 ], [ -97.93763, 22.39796 ], [ -97.93747, 22.39894 ], [ -97.93638, 22.39881 ], [ -97.93529, 22.39877 ], [ -97.93409, 22.39732 ] ] } }
]
}
