{
"type": "FeatureCollection",
"name": "shape_21",
"crs": { "type": "name", "properties": { "name": "urn:ogc:def:crs:OGC:1.3:CRS84" } },
"features": [
{ "type": "Feature", "properties": { "data.route.shortName": "21", "data.route.longName": "FOVISSTE - Lucio Blanco", "shape_id": "shape_21" }, "geometry": { "type": "LineString", "coordinates": [ [ -97.83318, 22.27556 ], [ -97.83386, 22.27535 ], [ -97.83798, 22.27419 ], [ -97.8363, 22.26908 ], [ -97.83876, 22.26781 ], [ -97.83935, 22.26907 ], [ -97.84065, 22.26857 ], [ -97.8414, 22.26827 ], [ -97.84089, 22.26722 ], [ -97.84065, 22.26686 ], [ -97.83983, 22.26724 ], [ -97.83948, 22.26657 ], [ -97.83931, 22.26657 ], [ -97.8377, 22.26731 ], [ -97.83744, 22.26685 ], [ -97.83634, 22.26564 ], [ -97.83589, 22.26518 ], [ -97.83814, 22.26361 ], [ -97.83938, 22.26268 ], [ -97.83999, 22.26224 ], [ -97.83877, 22.261 ], [ -97.8394, 22.26047 ], [ -97.8397, 22.26077 ], [ -97.84044, 22.26252 ], [ -97.8409, 22.26318 ], [ -97.84163, 22.26388 ], [ -97.84233, 22.26465 ], [ -97.84251, 22.26411 ], [ -97.84872, 22.26614 ], [ -97.84975, 22.2638 ], [ -97.85432, 22.26517 ], [ -97.85643, 22.25964 ], [ -97.85341, 22.25862 ], [ -97.85407, 22.25678 ], [ -97.85464, 22.2554 ], [ -97.85482, 22.25473 ], [ -97.85491, 22.25315 ], [ -97.85821, 22.25219 ], [ -97.85802, 22.24958 ], [ -97.85763, 22.24662 ], [ -97.85741, 22.24641 ], [ -97.85831, 22.2441 ], [ -97.85887, 22.24188 ], [ -97.8601, 22.23735 ], [ -97.86065, 22.23518 ], [ -97.86104, 22.23361 ], [ -97.86105, 22.23049 ], [ -97.86126, 22.2298 ], [ -97.86144, 22.22877 ], [ -97.86137, 22.22858 ], [ -97.86182, 22.22771 ], [ -97.85925, 22.22668 ], [ -97.85897, 22.22727 ], [ -97.85882, 22.22731 ], [ -97.8586, 22.22618 ], [ -97.85792, 22.22551 ], [ -97.85699, 22.22549 ], [ -97.85642, 22.22514 ], [ -97.85614, 22.22459 ], [ -97.85676, 22.22316 ], [ -97.8565, 22.2223 ], [ -97.85568, 22.22181 ], [ -97.85404, 22.2217 ], [ -97.8563, 22.21753 ], [ -97.85539, 22.21716 ], [ -97.85539, 22.21716 ], [ -97.85327, 22.22134 ], [ -97.85404, 22.2217 ], [ -97.85568, 22.22181 ], [ -97.8565, 22.2223 ], [ -97.85676, 22.22316 ], [ -97.85614, 22.22459 ], [ -97.85642, 22.22514 ], [ -97.85699, 22.22549 ], [ -97.85792, 22.22551 ], [ -97.8586, 22.22618 ], [ -97.85882, 22.22731 ], [ -97.85897, 22.22727 ], [ -97.85902, 22.22789 ], [ -97.85945, 22.22952 ], [ -97.86029, 22.2296 ], [ -97.8599, 22.22956 ], [ -97.86076, 22.2297 ], [ -97.86126, 22.2298 ], [ -97.86105, 22.23049 ], [ -97.86104, 22.23361 ], [ -97.86065, 22.23518 ], [ -97.8601, 22.23735 ], [ -97.85887, 22.24188 ], [ -97.85831, 22.2441 ], [ -97.85741, 22.24641 ], [ -97.85763, 22.24662 ], [ -97.85802, 22.24958 ], [ -97.85821, 22.25219 ], [ -97.85491, 22.25315 ], [ -97.85482, 22.25473 ], [ -97.85464, 22.2554 ], [ -97.85407, 22.25678 ], [ -97.85341, 22.25862 ], [ -97.85492, 22.25911 ], [ -97.8528, 22.26479 ], [ -97.84975, 22.2638 ], [ -97.84872, 22.26614 ], [ -97.84251, 22.26411 ], [ -97.84233, 22.26465 ], [ -97.84163, 22.26388 ], [ -97.8409, 22.26318 ], [ -97.84044, 22.26252 ], [ -97.83999, 22.26224 ], [ -97.83938, 22.26268 ], [ -97.83814, 22.26361 ], [ -97.83589, 22.26518 ], [ -97.83634, 22.26564 ], [ -97.83744, 22.26685 ], [ -97.8377, 22.26731 ], [ -97.83931, 22.26657 ], [ -97.83948, 22.26657 ], [ -97.83983, 22.26724 ], [ -97.84065, 22.26686 ], [ -97.84089, 22.26722 ], [ -97.8414, 22.26827 ], [ -97.84065, 22.26857 ], [ -97.83935, 22.26907 ], [ -97.83876, 22.26781 ], [ -97.8363, 22.26909 ], [ -97.83603, 22.26826 ], [ -97.83532, 22.26847 ], [ -97.83726, 22.27437 ], [ -97.83386, 22.27535 ] ] } }
]
}
