{
"type": "FeatureCollection",
"name": "shape_75",
"crs": { "type": "name", "properties": { "name": "urn:ogc:def:crs:OGC:1.3:CRS84" } },
"features": [
{ "type": "Feature", "properties": { "data.route.shortName": "75", "data.route.longName": "Morelos - Moralillo", "shape_id": "shape_75" }, "geometry": { "type": "LineString", "coordinates": [ [ -97.89533, 22.22644 ], [ -97.894, 22.22491 ], [ -97.89207, 22.22467 ], [ -97.89072, 22.22448 ], [ -97.88681, 22.22293 ], [ -97.88531, 22.22328 ], [ -97.87049, 22.21754 ], [ -97.87076, 22.21697 ], [ -97.8682, 22.21599 ], [ -97.86779, 22.21561 ], [ -97.86615, 22.215 ], [ -97.86477, 22.21474 ], [ -97.86402, 22.21444 ], [ -97.85723, 22.21188 ], [ -97.85693, 22.2124 ], [ -97.85693, 22.2124 ], [ -97.85778, 22.2127 ], [ -97.85769, 22.21292 ], [ -97.85904, 22.21347 ], [ -97.8601, 22.21431 ], [ -97.86034, 22.21414 ], [ -97.86094, 22.21459 ], [ -97.86344, 22.21565 ], [ -97.86406, 22.21446 ], [ -97.86477, 22.21474 ], [ -97.86615, 22.215 ], [ -97.86779, 22.21561 ], [ -97.8682, 22.21599 ], [ -97.87076, 22.21697 ], [ -97.87049, 22.21754 ], [ -97.88531, 22.22328 ], [ -97.88681, 22.22293 ], [ -97.89072, 22.22448 ], [ -97.89207, 22.22467 ], [ -97.894, 22.22491 ] ] } }
]
}
