{
"type": "FeatureCollection",
"name": "shape_90",
"crs": { "type": "name", "properties": { "name": "urn:ogc:def:crs:OGC:1.3:CRS84" } },
"features": [
{ "type": "Feature", "properties": { "data.route.shortName": "90", "data.route.longName": "Altamira - Ej. Lomas del Real - Barranco", "shape_id": "shape_90" }, "geometry": { "type": "LineString", "coordinates": [ [ -97.90462, 22.5211 ], [ -97.90432, 22.51961 ], [ -97.90393, 22.51761 ], [ -97.90381, 22.47457 ], [ -97.89514, 22.43844 ], [ -97.88587, 22.42361 ], [ -97.88479, 22.42111 ], [ -97.88496, 22.41916 ], [ -97.88934, 22.40754 ], [ -97.89333, 22.40488 ], [ -97.90981, 22.40373 ], [ -97.92093, 22.40016 ], [ -97.92865, 22.39754 ], [ -97.932, 22.39433 ], [ -97.93363, 22.39536 ], [ -97.93526, 22.39572 ], [ -97.93493, 22.39745 ], [ -97.9358, 22.39763 ], [ -97.93617, 22.3959 ], [ -97.93617, 22.3959 ], [ -97.93582, 22.39579 ], [ -97.93552, 22.39574 ], [ -97.93526, 22.39572 ], [ -97.93363, 22.39536 ], [ -97.932, 22.39433 ], [ -97.93018, 22.39649 ], [ -97.92865, 22.39754 ], [ -97.9264, 22.39742 ], [ -97.925, 22.39736 ], [ -97.92365, 22.39772 ], [ -97.92093, 22.40016 ], [ -97.90975, 22.40397 ], [ -97.89333, 22.40488 ], [ -97.88868, 22.40464 ], [ -97.88874, 22.40381 ], [ -97.88958, 22.40337 ], [ -97.89011, 22.40331 ], [ -97.89069, 22.40371 ], [ -97.88496, 22.41916 ], [ -97.88479, 22.42111 ], [ -97.88587, 22.42361 ], [ -97.89514, 22.43844 ], [ -97.90381, 22.47457 ], [ -97.90393, 22.51761 ], [ -97.90471, 22.52108 ] ] } }
]
}
