{
"type": "FeatureCollection",
"name": "shape_2",
"crs": { "type": "name", "properties": { "name": "urn:ogc:def:crs:OGC:1.3:CRS84" } },
"features": [
{ "type": "Feature", "properties": { "data.route.shortName": "2", "data.route.longName": "Tampico - Bosque Central de Abastos - Casa Blanca", "shape_id": "shape_2" }, "geometry": { "type": "LineString", "coordinates": [ [ -97.8841, 22.33679 ], [ -97.88331, 22.33797 ], [ -97.88357, 22.3381 ], [ -97.88487, 22.33825 ], [ -97.88507, 22.3382 ], [ -97.88668, 22.33591 ], [ -97.88668, 22.33566 ], [ -97.88649, 22.33556 ], [ -97.8852, 22.33542 ], [ -97.88507, 22.33543 ], [ -97.88416, 22.33671 ], [ -97.883, 22.335 ], [ -97.88149, 22.33586 ], [ -97.88135, 22.33469 ], [ -97.87936, 22.33474 ], [ -97.87932, 22.33309 ], [ -97.88134, 22.33303 ], [ -97.88117, 22.3297 ], [ -97.878, 22.32979 ], [ -97.8746, 22.32945 ], [ -97.87573, 22.32591 ], [ -97.87729, 22.32115 ], [ -97.87833, 22.31765 ], [ -97.87916, 22.31493 ], [ -97.8803, 22.31133 ], [ -97.88099, 22.30935 ], [ -97.8818, 22.30667 ], [ -97.88185, 22.30504 ], [ -97.88128, 22.30356 ], [ -97.87977, 22.30137 ], [ -97.87865, 22.29951 ], [ -97.87655, 22.29616 ], [ -97.87388, 22.29204 ], [ -97.87335, 22.29109 ], [ -97.87314, 22.29017 ], [ -97.87285, 22.28956 ], [ -97.87308, 22.28799 ], [ -97.87363, 22.28652 ], [ -97.87394, 22.28465 ], [ -97.87351, 22.28362 ], [ -97.87295, 22.28247 ], [ -97.87308, 22.27949 ], [ -97.87338, 22.27762 ], [ -97.87473, 22.2726 ], [ -97.87406, 22.27103 ], [ -97.87372, 22.26934 ], [ -97.87385, 22.26745 ], [ -97.87454, 22.26551 ], [ -97.87569, 22.26177 ], [ -97.87647, 22.25832 ], [ -97.87668, 22.25665 ], [ -97.87638, 22.25447 ], [ -97.87509, 22.25065 ], [ -97.87329, 22.24668 ], [ -97.87175, 22.2437 ], [ -97.87046, 22.24072 ], [ -97.86892, 22.23715 ], [ -97.86737, 22.23322 ], [ -97.86527, 22.22817 ], [ -97.86424, 22.22523 ], [ -97.86339, 22.22299 ], [ -97.86322, 22.22159 ], [ -97.85782, 22.21925 ], [ -97.85331, 22.21723 ], [ -97.85505, 22.21404 ], [ -97.85276, 22.21299 ], [ -97.8482, 22.21092 ], [ -97.84842, 22.21048 ], [ -97.84902, 22.20996 ], [ -97.84982, 22.20987 ], [ -97.85085, 22.21008 ], [ -97.85697, 22.21237 ], [ -97.85649, 22.21331 ], [ -97.85619, 22.21369 ], [ -97.85544, 22.21327 ], [ -97.8546, 22.21291 ], [ -97.85416, 22.21368 ], [ -97.85286, 22.21601 ], [ -97.85635, 22.21753 ], [ -97.85541, 22.21916 ], [ -97.85887, 22.2207 ], [ -97.86291, 22.22248 ], [ -97.8633, 22.2226 ], [ -97.86339, 22.22299 ], [ -97.86424, 22.22523 ], [ -97.86578, 22.22944 ], [ -97.86724, 22.23298 ], [ -97.86857, 22.23651 ], [ -97.87046, 22.24072 ], [ -97.87273, 22.24561 ], [ -97.87325, 22.2466 ], [ -97.87441, 22.24867 ], [ -97.87509, 22.25065 ], [ -97.87638, 22.25447 ], [ -97.8766, 22.25649 ], [ -97.87647, 22.25832 ], [ -97.87565, 22.26154 ], [ -97.87462, 22.26515 ], [ -97.87381, 22.26722 ], [ -97.87372, 22.26934 ], [ -97.87411, 22.27095 ], [ -97.87473, 22.2726 ], [ -97.87389, 22.27571 ], [ -97.87316, 22.2781 ], [ -97.87308, 22.27949 ], [ -97.87286, 22.28262 ], [ -97.87372, 22.28405 ], [ -97.87402, 22.28485 ], [ -97.87363, 22.28652 ], [ -97.87308, 22.28799 ], [ -97.87207, 22.28922 ], [ -97.87196, 22.28957 ], [ -97.8723, 22.29021 ], [ -97.87325, 22.29108 ], [ -97.87388, 22.29204 ], [ -97.87655, 22.29616 ], [ -97.87865, 22.29951 ], [ -97.88128, 22.30356 ], [ -97.88185, 22.30504 ], [ -97.8818, 22.30667 ], [ -97.88099, 22.30935 ], [ -97.8803, 22.31133 ], [ -97.87916, 22.31493 ], [ -97.87833, 22.31765 ], [ -97.87729, 22.32115 ], [ -97.87573, 22.32591 ], [ -97.8746, 22.32945 ], [ -97.878, 22.32979 ], [ -97.88117, 22.3297 ], [ -97.88134, 22.33303 ], [ -97.87932, 22.33309 ], [ -97.87936, 22.33474 ], [ -97.88135, 22.33469 ], [ -97.88149, 22.33586 ], [ -97.883, 22.335 ], [ -97.88416, 22.33671 ], [ -97.88507, 22.33543 ], [ -97.8852, 22.33542 ], [ -97.88649, 22.33556 ], [ -97.88668, 22.33566 ], [ -97.88668, 22.33591 ], [ -97.88507, 22.3382 ], [ -97.88487, 22.33825 ], [ -97.88357, 22.3381 ], [ -97.88331, 22.33797 ] ] } }
]
}
