{
"type": "FeatureCollection",
"name": "shape_101",
"crs": { "type": "name", "properties": { "name": "urn:ogc:def:crs:OGC:1.3:CRS84" } },
"features": [
{ "type": "Feature", "properties": { "data.route.shortName": "101", "data.route.longName": "Nuevo Madero - Tampico por Av. Hidalgo y Ayuntamiento", "shape_id": "shape_101" }, "geometry": { "type": "LineString", "coordinates": [ [ -97.84852, 22.346 ], [ -97.84819, 22.34411 ], [ -97.84914, 22.34396 ], [ -97.84988, 22.34819 ], [ -97.85037, 22.34806 ], [ -97.8505, 22.34864 ], [ -97.84928, 22.34887 ], [ -97.85031, 22.35399 ], [ -97.8514, 22.35383 ], [ -97.85159, 22.35473 ], [ -97.85488, 22.35416 ], [ -97.85359, 22.3477 ], [ -97.85476, 22.34745 ], [ -97.86116, 22.34639 ], [ -97.86364, 22.34594 ], [ -97.86455, 22.34275 ], [ -97.86531, 22.34292 ], [ -97.86867, 22.34171 ], [ -97.87428, 22.3397 ], [ -97.87624, 22.34567 ], [ -97.87817, 22.34783 ], [ -97.87828, 22.34767 ], [ -97.87639, 22.34566 ], [ -97.87439, 22.33883 ], [ -97.87406, 22.33769 ], [ -97.87352, 22.33659 ], [ -97.87323, 22.33525 ], [ -97.87383, 22.33138 ], [ -97.88044, 22.31062 ], [ -97.88162, 22.30671 ], [ -97.88173, 22.30502 ], [ -97.87606, 22.29565 ], [ -97.87325, 22.29106 ], [ -97.87301, 22.28896 ], [ -97.87327, 22.28707 ], [ -97.87398, 22.28473 ], [ -97.8731, 22.28256 ], [ -97.87288, 22.28086 ], [ -97.87366, 22.27645 ], [ -97.87473, 22.27282 ], [ -97.87363, 22.2697 ], [ -97.87391, 22.26666 ], [ -97.87469, 22.26527 ], [ -97.8766, 22.25749 ], [ -97.87645, 22.25516 ], [ -97.87426, 22.24847 ], [ -97.87209, 22.24448 ], [ -97.86887, 22.23703 ], [ -97.86346, 22.22368 ], [ -97.86323, 22.22072 ], [ -97.86295, 22.21973 ], [ -97.86267, 22.21937 ], [ -97.85928, 22.21794 ], [ -97.86097, 22.21456 ], [ -97.86344, 22.21564 ], [ -97.86261, 22.2174 ], [ -97.85834, 22.21564 ], [ -97.85883, 22.2148 ], [ -97.85962, 22.21514 ], [ -97.85962, 22.21514 ], [ -97.85799, 22.21836 ], [ -97.85892, 22.21877 ], [ -97.86327, 22.22064 ], [ -97.86346, 22.22368 ], [ -97.86572, 22.22952 ], [ -97.86417, 22.23026 ], [ -97.86273, 22.23073 ], [ -97.86357, 22.23351 ], [ -97.86344, 22.23522 ], [ -97.86361, 22.23705 ], [ -97.86357, 22.24116 ], [ -97.86417, 22.2412 ], [ -97.86434, 22.2415 ], [ -97.86627, 22.24124 ], [ -97.86645, 22.24356 ], [ -97.86645, 22.24767 ], [ -97.86597, 22.2499 ], [ -97.86256, 22.25093 ], [ -97.86262, 22.25262 ], [ -97.86218, 22.25411 ], [ -97.85982, 22.25848 ], [ -97.86033, 22.25963 ], [ -97.86188, 22.26034 ], [ -97.86089, 22.26281 ], [ -97.86003, 22.26475 ], [ -97.85952, 22.26682 ], [ -97.85626, 22.27544 ], [ -97.85456, 22.27407 ], [ -97.85591, 22.27639 ], [ -97.85904, 22.27802 ], [ -97.86201, 22.28036 ], [ -97.86548, 22.28461 ], [ -97.87127, 22.28898 ], [ -97.87325, 22.29106 ], [ -97.87606, 22.29565 ], [ -97.88173, 22.30502 ], [ -97.88162, 22.30671 ], [ -97.88044, 22.31062 ], [ -97.87383, 22.33138 ], [ -97.87323, 22.33525 ], [ -97.87352, 22.33659 ], [ -97.87376, 22.33773 ], [ -97.87415, 22.33886 ], [ -97.87428, 22.3397 ], [ -97.86867, 22.34171 ], [ -97.86531, 22.34292 ], [ -97.86455, 22.34275 ], [ -97.86364, 22.34594 ], [ -97.86116, 22.34639 ], [ -97.85476, 22.34745 ], [ -97.85359, 22.3477 ], [ -97.85488, 22.35416 ], [ -97.85159, 22.35473 ], [ -97.8514, 22.35383 ], [ -97.85031, 22.35399 ], [ -97.84928, 22.34887 ], [ -97.8505, 22.34864 ], [ -97.85037, 22.34806 ], [ -97.84988, 22.34819 ], [ -97.84914, 22.34396 ], [ -97.84819, 22.34418 ], [ -97.84855, 22.34601 ] ] } }
]
}
