{
"type": "FeatureCollection",
"name": "shape_4",
"crs": { "type": "name", "properties": { "name": "urn:ogc:def:crs:OGC:1.3:CRS84" } },
"features": [
{ "type": "Feature", "properties": { "data.route.shortName": "4", "data.route.longName": "Colosio - Águila Madero - Golfo", "shape_id": "shape_4" }, "geometry": { "type": "LineString", "coordinates": [ [ -97.89982, 22.32497 ], [ -97.89982, 22.32549 ], [ -97.8943, 22.32443 ], [ -97.89512, 22.32174 ], [ -97.89574, 22.31956 ], [ -97.89622, 22.31854 ], [ -97.89622, 22.31823 ], [ -97.8959, 22.31829 ], [ -97.89537, 22.31713 ], [ -97.8949, 22.31724 ], [ -97.89275, 22.3167 ], [ -97.8887, 22.31598 ], [ -97.8866, 22.31741 ], [ -97.88559, 22.31784 ], [ -97.88567, 22.31719 ], [ -97.88738, 22.31122 ], [ -97.89087, 22.31113 ], [ -97.8902, 22.31213 ], [ -97.88987, 22.31187 ], [ -97.89, 22.31111 ], [ -97.8887, 22.3111 ], [ -97.88738, 22.31122 ], [ -97.88387, 22.3112 ], [ -97.88211, 22.31125 ], [ -97.88222, 22.31298 ], [ -97.87962, 22.31323 ], [ -97.88088, 22.30978 ], [ -97.88181, 22.30646 ], [ -97.88177, 22.30491 ], [ -97.8812, 22.30347 ], [ -97.87978, 22.30122 ], [ -97.87739, 22.29747 ], [ -97.87596, 22.29526 ], [ -97.87443, 22.29289 ], [ -97.87337, 22.29123 ], [ -97.87313, 22.2899 ], [ -97.87298, 22.28871 ], [ -97.87313, 22.28788 ], [ -97.87362, 22.28646 ], [ -97.87407, 22.2852 ], [ -97.87389, 22.28393 ], [ -97.87307, 22.28242 ], [ -97.87316, 22.27913 ], [ -97.87354, 22.2769 ], [ -97.87475, 22.27266 ], [ -97.87376, 22.26972 ], [ -97.87402, 22.26614 ], [ -97.8763, 22.25951 ], [ -97.87662, 22.25578 ], [ -97.87462, 22.24954 ], [ -97.87319, 22.24646 ], [ -97.86857, 22.24879 ], [ -97.86632, 22.24982 ], [ -97.86121, 22.25139 ], [ -97.84997, 22.25465 ], [ -97.83585, 22.24706 ], [ -97.8372, 22.24491 ], [ -97.83565, 22.24414 ], [ -97.83679, 22.24216 ], [ -97.83832, 22.24305 ], [ -97.83975, 22.2409 ], [ -97.84056, 22.24132 ], [ -97.84129, 22.2401 ], [ -97.84157, 22.23954 ], [ -97.83985, 22.23862 ], [ -97.84075, 22.2372 ], [ -97.84195, 22.2341 ], [ -97.84025, 22.23356 ], [ -97.83898, 22.23309 ], [ -97.8399, 22.23335 ], [ -97.84114, 22.23094 ], [ -97.84019, 22.23035 ], [ -97.84034, 22.23014 ], [ -97.84154, 22.22775 ], [ -97.84319, 22.22464 ], [ -97.84484, 22.22147 ], [ -97.84226, 22.22039 ], [ -97.84393, 22.21723 ], [ -97.84515, 22.21778 ], [ -97.84381, 22.22102 ], [ -97.84381, 22.22102 ], [ -97.84515, 22.21778 ], [ -97.84393, 22.21723 ], [ -97.84226, 22.22039 ], [ -97.84484, 22.22147 ], [ -97.84319, 22.22464 ], [ -97.84154, 22.22775 ], [ -97.84034, 22.23014 ], [ -97.84019, 22.23035 ], [ -97.84114, 22.23094 ], [ -97.8399, 22.23335 ], [ -97.83986, 22.23337 ], [ -97.84025, 22.23356 ], [ -97.84105, 22.23379 ], [ -97.83976, 22.2371 ], [ -97.84141, 22.2379 ], [ -97.83961, 22.2408 ], [ -97.83975, 22.2409 ], [ -97.83832, 22.24305 ], [ -97.83679, 22.24216 ], [ -97.83565, 22.24414 ], [ -97.83494, 22.24376 ], [ -97.83443, 22.24446 ], [ -97.85168, 22.2541 ], [ -97.86121, 22.25139 ], [ -97.86632, 22.24982 ], [ -97.86857, 22.24879 ], [ -97.87319, 22.24646 ], [ -97.87462, 22.24954 ], [ -97.87662, 22.25578 ], [ -97.8763, 22.25951 ], [ -97.87402, 22.26614 ], [ -97.87376, 22.26972 ], [ -97.87475, 22.27266 ], [ -97.87354, 22.2769 ], [ -97.87316, 22.27913 ], [ -97.87307, 22.28242 ], [ -97.87389, 22.28393 ], [ -97.87407, 22.2852 ], [ -97.87362, 22.28646 ], [ -97.87313, 22.28788 ], [ -97.87298, 22.28871 ], [ -97.87313, 22.2899 ], [ -97.87337, 22.29123 ], [ -97.87443, 22.29289 ], [ -97.87596, 22.29526 ], [ -97.87739, 22.29747 ], [ -97.87978, 22.30122 ], [ -97.8812, 22.30347 ], [ -97.88177, 22.30491 ], [ -97.88181, 22.30646 ], [ -97.88102, 22.30855 ], [ -97.87799, 22.30879 ], [ -97.87808, 22.31078 ], [ -97.88218, 22.31054 ], [ -97.88211, 22.31125 ], [ -97.88387, 22.3112 ], [ -97.88738, 22.31122 ], [ -97.8887, 22.3111 ], [ -97.89, 22.31111 ], [ -97.88987, 22.31187 ], [ -97.8902, 22.31213 ], [ -97.89087, 22.31113 ], [ -97.88738, 22.31122 ], [ -97.88567, 22.31719 ], [ -97.88559, 22.31784 ], [ -97.8866, 22.31741 ], [ -97.8887, 22.31598 ], [ -97.89275, 22.3167 ], [ -97.8949, 22.31724 ], [ -97.89537, 22.31713 ], [ -97.8959, 22.31829 ], [ -97.89622, 22.31823 ], [ -97.89622, 22.31854 ], [ -97.89574, 22.31956 ], [ -97.89512, 22.32174 ], [ -97.8943, 22.32443 ], [ -97.89982, 22.32549 ] ] } }
]
}
