{
"type": "FeatureCollection",
"name": "shape_16",
"crs": { "type": "name", "properties": { "name": "urn:ogc:def:crs:OGC:1.3:CRS84" } },
"features": [
{ "type": "Feature", "properties": { "data.route.shortName": "16", "data.route.longName": "Ejido Contadero - Germinal - Águila", "shape_id": "shape_16" }, "geometry": { "type": "LineString", "coordinates": [ [ -97.8467, 22.32935 ], [ -97.84656, 22.32893 ], [ -97.84676, 22.32882 ], [ -97.847, 22.32873 ], [ -97.84727, 22.32877 ], [ -97.84741, 22.32857 ], [ -97.84662, 22.3263 ], [ -97.84915, 22.32541 ], [ -97.85378, 22.32285 ], [ -97.85135, 22.31764 ], [ -97.84804, 22.31893 ], [ -97.84549, 22.31849 ], [ -97.84496, 22.31805 ], [ -97.84425, 22.31644 ], [ -97.8435, 22.31404 ], [ -97.84712, 22.31125 ], [ -97.84747, 22.31163 ], [ -97.84847, 22.31088 ], [ -97.85085, 22.31362 ], [ -97.85111, 22.31346 ], [ -97.85247, 22.31744 ], [ -97.8531, 22.3182 ], [ -97.8533, 22.31856 ], [ -97.85507, 22.32109 ], [ -97.85896, 22.32007 ], [ -97.85729, 22.31519 ], [ -97.85858, 22.31485 ], [ -97.85734, 22.31125 ], [ -97.85709, 22.31133 ], [ -97.85643, 22.30935 ], [ -97.85505, 22.30611 ], [ -97.85769, 22.30509 ], [ -97.85763, 22.30495 ], [ -97.86158, 22.30356 ], [ -97.8632, 22.30735 ], [ -97.86378, 22.30708 ], [ -97.86594, 22.30714 ], [ -97.86783, 22.30718 ], [ -97.86905, 22.30719 ], [ -97.86903, 22.30875 ], [ -97.87391, 22.309 ], [ -97.88111, 22.30859 ], [ -97.88176, 22.30655 ], [ -97.88184, 22.30554 ], [ -97.88154, 22.30407 ], [ -97.87795, 22.29848 ], [ -97.87608, 22.29538 ], [ -97.87342, 22.29124 ], [ -97.873, 22.28902 ], [ -97.87306, 22.28806 ], [ -97.87362, 22.28638 ], [ -97.87405, 22.28509 ], [ -97.87392, 22.28405 ], [ -97.87314, 22.28265 ], [ -97.87302, 22.28078 ], [ -97.87335, 22.27773 ], [ -97.87423, 22.27498 ], [ -97.87483, 22.27293 ], [ -97.87415, 22.27083 ], [ -97.87378, 22.26959 ], [ -97.87385, 22.26774 ], [ -97.87578, 22.26094 ], [ -97.87664, 22.25733 ], [ -97.87619, 22.25385 ], [ -97.87411, 22.24817 ], [ -97.8711, 22.24239 ], [ -97.86668, 22.23161 ], [ -97.86441, 22.22589 ], [ -97.86365, 22.22394 ], [ -97.86325, 22.22212 ], [ -97.86327, 22.2206 ], [ -97.85796, 22.2183 ], [ -97.85924, 22.21594 ], [ -97.86009, 22.21633 ], [ -97.85928, 22.21794 ], [ -97.86267, 22.21943 ], [ -97.86327, 22.2206 ], [ -97.86327, 22.2206 ], [ -97.86267, 22.21943 ], [ -97.85928, 22.21794 ], [ -97.86009, 22.21633 ], [ -97.85924, 22.21594 ], [ -97.85796, 22.2183 ], [ -97.86327, 22.2206 ], [ -97.86325, 22.22212 ], [ -97.86365, 22.22394 ], [ -97.86441, 22.22589 ], [ -97.86668, 22.23161 ], [ -97.8711, 22.24239 ], [ -97.87411, 22.24817 ], [ -97.87619, 22.25385 ], [ -97.87664, 22.25733 ], [ -97.87578, 22.26094 ], [ -97.87385, 22.26774 ], [ -97.87378, 22.26959 ], [ -97.87415, 22.27083 ], [ -97.87483, 22.27293 ], [ -97.87423, 22.27498 ], [ -97.87335, 22.27773 ], [ -97.87302, 22.28078 ], [ -97.87314, 22.28265 ], [ -97.87392, 22.28405 ], [ -97.87405, 22.28509 ], [ -97.87362, 22.28638 ], [ -97.87306, 22.28806 ], [ -97.873, 22.28902 ], [ -97.87342, 22.29124 ], [ -97.87608, 22.29538 ], [ -97.87795, 22.29848 ], [ -97.88154, 22.30407 ], [ -97.88184, 22.30554 ], [ -97.88176, 22.30655 ], [ -97.88024, 22.31062 ], [ -97.87524, 22.31103 ], [ -97.86892, 22.31078 ], [ -97.86905, 22.30719 ], [ -97.86783, 22.30718 ], [ -97.86594, 22.30714 ], [ -97.86378, 22.30708 ], [ -97.8632, 22.30735 ], [ -97.86158, 22.30356 ], [ -97.85763, 22.30495 ], [ -97.85769, 22.30509 ], [ -97.85505, 22.30611 ], [ -97.85643, 22.30935 ], [ -97.85709, 22.31133 ], [ -97.85734, 22.31125 ], [ -97.85858, 22.31485 ], [ -97.85729, 22.31519 ], [ -97.85896, 22.32007 ], [ -97.85507, 22.32109 ], [ -97.8533, 22.31856 ], [ -97.8531, 22.3182 ], [ -97.85247, 22.31744 ], [ -97.85111, 22.31346 ], [ -97.85085, 22.31362 ], [ -97.84847, 22.31088 ], [ -97.84747, 22.31163 ], [ -97.84712, 22.31125 ], [ -97.8435, 22.31404 ], [ -97.84425, 22.31644 ], [ -97.84496, 22.31805 ], [ -97.84549, 22.31849 ], [ -97.84804, 22.31893 ], [ -97.85135, 22.31764 ], [ -97.85378, 22.32285 ], [ -97.84915, 22.32541 ], [ -97.84662, 22.3263 ], [ -97.84741, 22.32857 ], [ -97.84727, 22.32877 ], [ -97.847, 22.32873 ], [ -97.84676, 22.32882 ], [ -97.84659, 22.32894 ], [ -97.84665, 22.3291 ] ] } }
]
}
