{
"type": "FeatureCollection",
"name": "shape_68",
"crs": { "type": "name", "properties": { "name": "urn:ogc:def:crs:OGC:1.3:CRS84" } },
"features": [
{ "type": "Feature", "properties": { "data.route.shortName": "68", "data.route.longName": "Madero", "shape_id": "shape_68" }, "geometry": { "type": "LineString", "coordinates": [ [ -97.85025, 22.2109 ], [ -97.85285, 22.2121 ], [ -97.85304, 22.21188 ], [ -97.8549, 22.21231 ], [ -97.85588, 22.21249 ], [ -97.85754, 22.21321 ], [ -97.85541, 22.21719 ], [ -97.85122, 22.21524 ], [ -97.85203, 22.21369 ], [ -97.85033, 22.21294 ], [ -97.84699, 22.21949 ], [ -97.84539, 22.22268 ], [ -97.84053, 22.23204 ], [ -97.84026, 22.2327 ], [ -97.83986, 22.23339 ], [ -97.84029, 22.23354 ], [ -97.84379, 22.23469 ], [ -97.84269, 22.23775 ], [ -97.84226, 22.23848 ], [ -97.84098, 22.24041 ], [ -97.83663, 22.24748 ], [ -97.83435, 22.2463 ], [ -97.83435, 22.2463 ], [ -97.83482, 22.2456 ], [ -97.83702, 22.24673 ], [ -97.84098, 22.24041 ], [ -97.84226, 22.23848 ], [ -97.84269, 22.23775 ], [ -97.84361, 22.23529 ], [ -97.84084, 22.23442 ], [ -97.84106, 22.23383 ], [ -97.83986, 22.23339 ], [ -97.84026, 22.2327 ], [ -97.84053, 22.23204 ], [ -97.84298, 22.2274 ], [ -97.84201, 22.22699 ], [ -97.84443, 22.22225 ], [ -97.84605, 22.21914 ], [ -97.84826, 22.21497 ], [ -97.84737, 22.2146 ], [ -97.84821, 22.21306 ], [ -97.84904, 22.21335 ], [ -97.85031, 22.21095 ], [ -97.8528, 22.2121 ], [ -97.85304, 22.21188 ] ] } }
]
}
