{
"type": "FeatureCollection",
"name": "shape_27",
"crs": { "type": "name", "properties": { "name": "urn:ogc:def:crs:OGC:1.3:CRS84" } },
"features": [
{ "type": "Feature", "properties": { "data.route.shortName": "27", "data.route.longName": "Tampico - Santa Elena", "shape_id": "shape_27" }, "geometry": { "type": "LineString", "coordinates": [ [ -97.85939, 22.21367 ], [ -97.86009, 22.21431 ], [ -97.86036, 22.2141 ], [ -97.86093, 22.21457 ], [ -97.86434, 22.21604 ], [ -97.8659, 22.21672 ], [ -97.86629, 22.21718 ], [ -97.86689, 22.21777 ], [ -97.86789, 22.21863 ], [ -97.86825, 22.21897 ], [ -97.86851, 22.21932 ], [ -97.86882, 22.21994 ], [ -97.86915, 22.22051 ], [ -97.86965, 22.22104 ], [ -97.86991, 22.22135 ], [ -97.87008, 22.22176 ], [ -97.87048, 22.22407 ], [ -97.87193, 22.22678 ], [ -97.87421, 22.22629 ], [ -97.8769, 22.22562 ], [ -97.88157, 22.22444 ], [ -97.88256, 22.22437 ], [ -97.88364, 22.22446 ], [ -97.88525, 22.22498 ], [ -97.88669, 22.22555 ], [ -97.89026, 22.2273 ], [ -97.89121, 22.22747 ], [ -97.89243, 22.2273 ], [ -97.89657, 22.22628 ], [ -97.89947, 22.22551 ], [ -97.90213, 22.2248 ], [ -97.90376, 22.2244 ], [ -97.90708, 22.22383 ], [ -97.90953, 22.22358 ], [ -97.92213, 22.22066 ], [ -97.92723, 22.21945 ], [ -97.92728, 22.21965 ], [ -97.92214, 22.22088 ], [ -97.92296, 22.22335 ], [ -97.92318, 22.22428 ], [ -97.92318, 22.22428 ], [ -97.92006, 22.22487 ], [ -97.9184, 22.22529 ], [ -97.91798, 22.22516 ], [ -97.91741, 22.2252 ], [ -97.91393, 22.22587 ], [ -97.90979, 22.22685 ], [ -97.90554, 22.22729 ], [ -97.90538, 22.22713 ], [ -97.90431, 22.22723 ], [ -97.90417, 22.22614 ], [ -97.90376, 22.2244 ], [ -97.90213, 22.2248 ], [ -97.89947, 22.22551 ], [ -97.89657, 22.22628 ], [ -97.89254, 22.22752 ], [ -97.89147, 22.22817 ], [ -97.89017, 22.22821 ], [ -97.88921, 22.22781 ], [ -97.88788, 22.22671 ], [ -97.88663, 22.22563 ], [ -97.88525, 22.22498 ], [ -97.88364, 22.22446 ], [ -97.88256, 22.22437 ], [ -97.88157, 22.22444 ], [ -97.8769, 22.22562 ], [ -97.87421, 22.22629 ], [ -97.87193, 22.22678 ], [ -97.8713, 22.22681 ], [ -97.87065, 22.22628 ], [ -97.87041, 22.22568 ], [ -97.86955, 22.22485 ], [ -97.86906, 22.22267 ], [ -97.86874, 22.22206 ], [ -97.86758, 22.22117 ], [ -97.86562, 22.22127 ], [ -97.86516, 22.22242 ], [ -97.86455, 22.22343 ], [ -97.86347, 22.22353 ], [ -97.8633, 22.22087 ], [ -97.86272, 22.21949 ], [ -97.85928, 22.21793 ], [ -97.86148, 22.21351 ], [ -97.85982, 22.21288 ], [ -97.85938, 22.21366 ], [ -97.86009, 22.21431 ] ] } }
]
}
