{
"type": "FeatureCollection",
"name": "shape_18",
"crs": { "type": "name", "properties": { "name": "urn:ogc:def:crs:OGC:1.3:CRS84" } },
"features": [
{ "type": "Feature", "properties": { "data.route.shortName": "18", "data.route.longName": "Tampico - Universidad - Echeverría", "shape_id": "shape_18" }, "geometry": { "type": "LineString", "coordinates": [ [ -97.89284, 22.28212 ], [ -97.89297, 22.28158 ], [ -97.89289, 22.28041 ], [ -97.89276, 22.27822 ], [ -97.89266, 22.27682 ], [ -97.89193, 22.27696 ], [ -97.89116, 22.27719 ], [ -97.8905, 22.27655 ], [ -97.88977, 22.27702 ], [ -97.8892, 22.2773 ], [ -97.88773, 22.27727 ], [ -97.88702, 22.27734 ], [ -97.88621, 22.27758 ], [ -97.88504, 22.27814 ], [ -97.88449, 22.27852 ], [ -97.88423, 22.27878 ], [ -97.88381, 22.27894 ], [ -97.88333, 22.27899 ], [ -97.88256, 22.27889 ], [ -97.88147, 22.27896 ], [ -97.88082, 22.27883 ], [ -97.88026, 22.27858 ], [ -97.87937, 22.27787 ], [ -97.88306, 22.27908 ], [ -97.88295, 22.28037 ], [ -97.88251, 22.28164 ], [ -97.88236, 22.2823 ], [ -97.88278, 22.28332 ], [ -97.88251, 22.28422 ], [ -97.88109, 22.28505 ], [ -97.88074, 22.28722 ], [ -97.87434, 22.28568 ], [ -97.87346, 22.28562 ], [ -97.87243, 22.28535 ], [ -97.87191, 22.28592 ], [ -97.87134, 22.28663 ], [ -97.86634, 22.28304 ], [ -97.86753, 22.28172 ], [ -97.8686, 22.2806 ], [ -97.86915, 22.27987 ], [ -97.86846, 22.27941 ], [ -97.86837, 22.27953 ], [ -97.86728, 22.27828 ], [ -97.86485, 22.28022 ], [ -97.86314, 22.28146 ], [ -97.86221, 22.28046 ], [ -97.86117, 22.27961 ], [ -97.85966, 22.2784 ], [ -97.85824, 22.27724 ], [ -97.85639, 22.27563 ], [ -97.85732, 22.27304 ], [ -97.85881, 22.26919 ], [ -97.85964, 22.26622 ], [ -97.86022, 22.26421 ], [ -97.86061, 22.26325 ], [ -97.86178, 22.2609 ], [ -97.86395, 22.25723 ], [ -97.86476, 22.25521 ], [ -97.8648, 22.25439 ], [ -97.86646, 22.25165 ], [ -97.86682, 22.2509 ], [ -97.86723, 22.24942 ], [ -97.86764, 22.24702 ], [ -97.86709, 22.24508 ], [ -97.86698, 22.24345 ], [ -97.86692, 22.24152 ], [ -97.8664, 22.23797 ], [ -97.86527, 22.23455 ], [ -97.86412, 22.22975 ], [ -97.86499, 22.22737 ], [ -97.86352, 22.22351 ], [ -97.86334, 22.22158 ], [ -97.86284, 22.22146 ], [ -97.85754, 22.21913 ], [ -97.85842, 22.21749 ], [ -97.85418, 22.21562 ], [ -97.85163, 22.21447 ], [ -97.85249, 22.21287 ], [ -97.84904, 22.21131 ], [ -97.84818, 22.21297 ], [ -97.84868, 22.21224 ], [ -97.85206, 22.21373 ], [ -97.85462, 22.21488 ], [ -97.85331, 22.21723 ], [ -97.85754, 22.21913 ], [ -97.86284, 22.22146 ], [ -97.86327, 22.22162 ], [ -97.86352, 22.22351 ], [ -97.86577, 22.22953 ], [ -97.8642, 22.23025 ], [ -97.86417, 22.23038 ], [ -97.86279, 22.23067 ], [ -97.86356, 22.23351 ], [ -97.86354, 22.23832 ], [ -97.86361, 22.24193 ], [ -97.86374, 22.2462 ], [ -97.86385, 22.24914 ], [ -97.86355, 22.25069 ], [ -97.86329, 22.25119 ], [ -97.86336, 22.25274 ], [ -97.86477, 22.25314 ], [ -97.8648, 22.25439 ], [ -97.86476, 22.25521 ], [ -97.86395, 22.25723 ], [ -97.86178, 22.2609 ], [ -97.86061, 22.26325 ], [ -97.86022, 22.26421 ], [ -97.85964, 22.26622 ], [ -97.85881, 22.26919 ], [ -97.85732, 22.27304 ], [ -97.85618, 22.27543 ], [ -97.85536, 22.27478 ], [ -97.85503, 22.27504 ], [ -97.85622, 22.27671 ], [ -97.85865, 22.27791 ], [ -97.85963, 22.27851 ], [ -97.86117, 22.27961 ], [ -97.86221, 22.28046 ], [ -97.86314, 22.28146 ], [ -97.86485, 22.28022 ], [ -97.86728, 22.27828 ], [ -97.86837, 22.27953 ], [ -97.86846, 22.27941 ], [ -97.86915, 22.27987 ], [ -97.8686, 22.2806 ], [ -97.86753, 22.28172 ], [ -97.86695, 22.28243 ], [ -97.87192, 22.28596 ], [ -97.87191, 22.28592 ], [ -97.87243, 22.28535 ], [ -97.87346, 22.28562 ], [ -97.87434, 22.28568 ], [ -97.88074, 22.28722 ], [ -97.88109, 22.28505 ], [ -97.88251, 22.28422 ], [ -97.88278, 22.28332 ], [ -97.88236, 22.2823 ], [ -97.88251, 22.28164 ], [ -97.88295, 22.28037 ], [ -97.88306, 22.27908 ], [ -97.87937, 22.27787 ], [ -97.88026, 22.27858 ], [ -97.88082, 22.27883 ], [ -97.88147, 22.27896 ], [ -97.88256, 22.27889 ], [ -97.88333, 22.27899 ], [ -97.88381, 22.27894 ], [ -97.88423, 22.27878 ], [ -97.88449, 22.27852 ], [ -97.88504, 22.27814 ], [ -97.88621, 22.27758 ], [ -97.88702, 22.27734 ], [ -97.88773, 22.27727 ], [ -97.8892, 22.2773 ], [ -97.88977, 22.27702 ], [ -97.8905, 22.27655 ], [ -97.89116, 22.27719 ], [ -97.89193, 22.27696 ], [ -97.89266, 22.27682 ], [ -97.89276, 22.27822 ], [ -97.89289, 22.28041 ], [ -97.89297, 22.28158 ] ] } }
]
}
