{
"type": "FeatureCollection",
"name": "shape_115",
"crs": { "type": "name", "properties": { "name": "urn:ogc:def:crs:OGC:1.3:CRS84" } },
"features": [
{ "type": "Feature", "properties": { "data.route.shortName": "115", "data.route.longName": "Altamira - Zapata por Arboledas", "shape_id": "shape_115" }, "geometry": { "type": "LineString", "coordinates": [ [ -97.93375, 22.39347 ], [ -97.93341, 22.39525 ], [ -97.9319, 22.39392 ], [ -97.92979, 22.39188 ], [ -97.92849, 22.39144 ], [ -97.92437, 22.39059 ], [ -97.92355, 22.39041 ], [ -97.9226, 22.38986 ], [ -97.92198, 22.38883 ], [ -97.92106, 22.38779 ], [ -97.91987, 22.38703 ], [ -97.91895, 22.38671 ], [ -97.91538, 22.38322 ], [ -97.91522, 22.38333 ], [ -97.91522, 22.38348 ], [ -97.91471, 22.38369 ], [ -97.91426, 22.38459 ], [ -97.9133, 22.3865 ], [ -97.91247, 22.38723 ], [ -97.91416, 22.38913 ], [ -97.91448, 22.39006 ], [ -97.9145, 22.39069 ], [ -97.91418, 22.39289 ], [ -97.91151, 22.3922 ], [ -97.91102, 22.39545 ], [ -97.91224, 22.39565 ], [ -97.9118, 22.39879 ], [ -97.91006, 22.39853 ], [ -97.91057, 22.39535 ], [ -97.91075, 22.3942 ], [ -97.91053, 22.39337 ], [ -97.90969, 22.39225 ], [ -97.91177, 22.39052 ], [ -97.91051, 22.38927 ], [ -97.9099, 22.3894 ], [ -97.90669, 22.3921 ], [ -97.90272, 22.39541 ], [ -97.90164, 22.39634 ], [ -97.90098, 22.39676 ], [ -97.90007, 22.39698 ], [ -97.89878, 22.39689 ], [ -97.89348, 22.39552 ], [ -97.88805, 22.39563 ], [ -97.88389, 22.39591 ], [ -97.88441, 22.39212 ], [ -97.88488, 22.39113 ], [ -97.88507, 22.38994 ], [ -97.88417, 22.38689 ], [ -97.88473, 22.38341 ], [ -97.88402, 22.38298 ], [ -97.88492, 22.37564 ], [ -97.88454, 22.3752 ], [ -97.87273, 22.37359 ], [ -97.87325, 22.3721 ], [ -97.87357, 22.37125 ], [ -97.8746, 22.37046 ], [ -97.87557, 22.37115 ], [ -97.8766, 22.37254 ], [ -97.87855, 22.37278 ], [ -97.87984, 22.37392 ], [ -97.88222, 22.37176 ], [ -97.88278, 22.37117 ], [ -97.88398, 22.37017 ], [ -97.88509, 22.37134 ], [ -97.88547, 22.37153 ], [ -97.88569, 22.37123 ], [ -97.88597, 22.36819 ], [ -97.8864, 22.36771 ], [ -97.88698, 22.36736 ], [ -97.88776, 22.36179 ], [ -97.88273, 22.36119 ], [ -97.8825, 22.36325 ], [ -97.88328, 22.36474 ], [ -97.88312, 22.36485 ], [ -97.88346, 22.36539 ], [ -97.88195, 22.36628 ], [ -97.8828, 22.36747 ], [ -97.88004, 22.36917 ], [ -97.87942, 22.36953 ], [ -97.87807, 22.3681 ], [ -97.87563, 22.36983 ], [ -97.87538, 22.36955 ], [ -97.8739, 22.3706 ], [ -97.87291, 22.36943 ], [ -97.87577, 22.36743 ], [ -97.87373, 22.36492 ], [ -97.87478, 22.36416 ], [ -97.87826, 22.36772 ], [ -97.87826, 22.36772 ], [ -97.87478, 22.36416 ], [ -97.87373, 22.36492 ], [ -97.87577, 22.36743 ], [ -97.87291, 22.36943 ], [ -97.8739, 22.3706 ], [ -97.87538, 22.36955 ], [ -97.87563, 22.36983 ], [ -97.87807, 22.3681 ], [ -97.87942, 22.36953 ], [ -97.88004, 22.36917 ], [ -97.8828, 22.36747 ], [ -97.88195, 22.36628 ], [ -97.88346, 22.36539 ], [ -97.88312, 22.36485 ], [ -97.88328, 22.36474 ], [ -97.8825, 22.36325 ], [ -97.88273, 22.36119 ], [ -97.88776, 22.36179 ], [ -97.88698, 22.36736 ], [ -97.8864, 22.36771 ], [ -97.88597, 22.36819 ], [ -97.88569, 22.37123 ], [ -97.88547, 22.37153 ], [ -97.88509, 22.37134 ], [ -97.88398, 22.37017 ], [ -97.88278, 22.37117 ], [ -97.88222, 22.37176 ], [ -97.87984, 22.37392 ], [ -97.87855, 22.37278 ], [ -97.8766, 22.37254 ], [ -97.87557, 22.37115 ], [ -97.8746, 22.37046 ], [ -97.87357, 22.37125 ], [ -97.87325, 22.3721 ], [ -97.87273, 22.37359 ], [ -97.88454, 22.3752 ], [ -97.88492, 22.37564 ], [ -97.88402, 22.38298 ], [ -97.88473, 22.38341 ], [ -97.88417, 22.38689 ], [ -97.88507, 22.38994 ], [ -97.88488, 22.39113 ], [ -97.88441, 22.39212 ], [ -97.88389, 22.39591 ], [ -97.88805, 22.39563 ], [ -97.89348, 22.39552 ], [ -97.89878, 22.39689 ], [ -97.90007, 22.39698 ], [ -97.90098, 22.39676 ], [ -97.90164, 22.39634 ], [ -97.90272, 22.39541 ], [ -97.90669, 22.3921 ], [ -97.9099, 22.3894 ], [ -97.91051, 22.38927 ], [ -97.91177, 22.39052 ], [ -97.90969, 22.39225 ], [ -97.91053, 22.39337 ], [ -97.91075, 22.3942 ], [ -97.91057, 22.39535 ], [ -97.91006, 22.39853 ], [ -97.9118, 22.39879 ], [ -97.91224, 22.39565 ], [ -97.91102, 22.39545 ], [ -97.91151, 22.3922 ], [ -97.91418, 22.39289 ], [ -97.9145, 22.39069 ], [ -97.91448, 22.39006 ], [ -97.91416, 22.38913 ], [ -97.91247, 22.38723 ], [ -97.9133, 22.3865 ], [ -97.91426, 22.38459 ], [ -97.91471, 22.38369 ], [ -97.91522, 22.38348 ], [ -97.91522, 22.38333 ], [ -97.91538, 22.38322 ], [ -97.91895, 22.38671 ], [ -97.91987, 22.38703 ], [ -97.92106, 22.38779 ], [ -97.92198, 22.38883 ], [ -97.9226, 22.38986 ], [ -97.92355, 22.39041 ], [ -97.92437, 22.39059 ], [ -97.92849, 22.39144 ], [ -97.92979, 22.39188 ], [ -97.9319, 22.39392 ], [ -97.93331, 22.39525 ], [ -97.93428, 22.39557 ], [ -97.93464, 22.39364 ], [ -97.93376, 22.39348 ] ] } }
]
}
