{
"type": "FeatureCollection",
"name": "shape_39",
"crs": { "type": "name", "properties": { "name": "urn:ogc:def:crs:OGC:1.3:CRS84" } },
"features": [
{ "type": "Feature", "properties": { "data.route.shortName": "39", "data.route.longName": "Playa Sur - Refinería", "shape_id": "shape_39" }, "geometry": { "type": "LineString", "coordinates": [ [ -97.79647, 22.27841 ], [ -97.79418, 22.27542 ], [ -97.7943, 22.27521 ], [ -97.79482, 22.27497 ], [ -97.79969, 22.27427 ], [ -97.80132, 22.27391 ], [ -97.80755, 22.27067 ], [ -97.81405, 22.26735 ], [ -97.82091, 22.2616 ], [ -97.82711, 22.26797 ], [ -97.83363, 22.27469 ], [ -97.83423, 22.27661 ], [ -97.83354, 22.2767 ], [ -97.83365, 22.27709 ], [ -97.84162, 22.27692 ], [ -97.84356, 22.27671 ], [ -97.84451, 22.27625 ], [ -97.84551, 22.27511 ], [ -97.84578, 22.27498 ], [ -97.84555, 22.27438 ], [ -97.84763, 22.26938 ], [ -97.84973, 22.26356 ], [ -97.85231, 22.25695 ], [ -97.85437, 22.25135 ], [ -97.8549, 22.25051 ], [ -97.85467, 22.24807 ], [ -97.85514, 22.247 ], [ -97.85544, 22.24321 ], [ -97.85492, 22.24203 ], [ -97.85389, 22.24021 ], [ -97.85357, 22.23902 ], [ -97.8531, 22.23834 ], [ -97.8522, 22.23774 ], [ -97.85063, 22.23733 ], [ -97.8498, 22.23697 ], [ -97.84949, 22.23657 ], [ -97.84834, 22.23326 ], [ -97.84664, 22.23063 ], [ -97.84664, 22.22986 ], [ -97.84688, 22.22898 ], [ -97.84913, 22.22503 ], [ -97.85137, 22.2209 ], [ -97.85424, 22.21556 ], [ -97.85585, 22.2124 ], [ -97.85546, 22.21317 ], [ -97.85588, 22.21245 ], [ -97.85494, 22.21226 ], [ -97.85242, 22.21682 ], [ -97.85334, 22.21729 ], [ -97.85164, 22.2203 ], [ -97.84939, 22.22424 ], [ -97.84688, 22.22898 ], [ -97.8466, 22.22984 ], [ -97.84664, 22.23063 ], [ -97.84823, 22.23339 ], [ -97.84941, 22.23661 ], [ -97.84977, 22.23707 ], [ -97.85029, 22.23737 ], [ -97.85224, 22.23794 ], [ -97.85291, 22.23846 ], [ -97.8534, 22.23915 ], [ -97.85372, 22.24009 ], [ -97.85424, 22.24106 ], [ -97.85492, 22.24203 ], [ -97.85544, 22.24321 ], [ -97.85514, 22.247 ], [ -97.85456, 22.24797 ], [ -97.85488, 22.25047 ], [ -97.85437, 22.25135 ], [ -97.8534, 22.25405 ], [ -97.85231, 22.25695 ], [ -97.85098, 22.26027 ], [ -97.84982, 22.26352 ], [ -97.84763, 22.2696 ], [ -97.84555, 22.27438 ], [ -97.84578, 22.27498 ], [ -97.84551, 22.27511 ], [ -97.84451, 22.27625 ], [ -97.84356, 22.27671 ], [ -97.84269, 22.27686 ], [ -97.84158, 22.27688 ], [ -97.83365, 22.27709 ], [ -97.83354, 22.2767 ], [ -97.83423, 22.27661 ], [ -97.83363, 22.27469 ], [ -97.82707, 22.26805 ], [ -97.82091, 22.2616 ], [ -97.81405, 22.26735 ], [ -97.80755, 22.27067 ], [ -97.80132, 22.27391 ], [ -97.79969, 22.27427 ], [ -97.79482, 22.27497 ], [ -97.79426, 22.2751 ], [ -97.79407, 22.2752 ], [ -97.79388, 22.27526 ], [ -97.79392, 22.27544 ], [ -97.79416, 22.27556 ], [ -97.79658, 22.27851 ] ] } }
]
}
