{
"type": "FeatureCollection",
"name": "shape_72",
"crs": { "type": "name", "properties": { "name": "urn:ogc:def:crs:OGC:1.3:CRS84" } },
"features": [
{ "type": "Feature", "properties": { "data.route.shortName": "72", "data.route.longName": "Colonias", "shape_id": "shape_72" }, "geometry": { "type": "LineString", "coordinates": [ [ -97.86009, 22.25163 ], [ -97.85983, 22.24873 ], [ -97.86003, 22.24709 ], [ -97.86016, 22.24623 ], [ -97.86292, 22.24619 ], [ -97.86251, 22.23364 ], [ -97.86097, 22.23371 ], [ -97.86111, 22.23165 ], [ -97.86103, 22.23049 ], [ -97.86139, 22.22912 ], [ -97.8614, 22.22869 ], [ -97.86048, 22.22838 ], [ -97.86171, 22.22582 ], [ -97.85827, 22.22433 ], [ -97.85942, 22.2219 ], [ -97.85584, 22.2203 ], [ -97.85924, 22.21398 ], [ -97.85924, 22.21398 ], [ -97.85671, 22.21287 ], [ -97.8546, 22.21683 ], [ -97.86327, 22.2207 ], [ -97.86357, 22.22414 ], [ -97.86293, 22.22529 ], [ -97.86258, 22.22618 ], [ -97.86203, 22.22751 ], [ -97.8614, 22.22869 ], [ -97.86273, 22.22938 ], [ -97.86256, 22.23012 ], [ -97.86351, 22.23331 ], [ -97.86344, 22.23514 ], [ -97.86353, 22.23828 ], [ -97.86379, 22.24613 ], [ -97.86381, 22.24922 ], [ -97.86364, 22.25059 ], [ -97.86007, 22.25167 ] ] } }
]
}
