{
"type": "FeatureCollection",
"name": "shape_50",
"crs": { "type": "name", "properties": { "name": "urn:ogc:def:crs:OGC:1.3:CRS84" } },
"features": [
{ "type": "Feature", "properties": { "data.route.shortName": "50", "data.route.longName": "Colonia Del Valle", "shape_id": "shape_50" }, "geometry": { "type": "LineString", "coordinates": [ [ -97.84665, 22.3263 ], [ -97.84914, 22.32544 ], [ -97.85089, 22.32432 ], [ -97.85381, 22.32285 ], [ -97.85002, 22.31481 ], [ -97.85127, 22.31393 ], [ -97.84934, 22.30816 ], [ -97.86156, 22.30355 ], [ -97.86318, 22.30733 ], [ -97.8638, 22.3071 ], [ -97.86905, 22.3072 ], [ -97.86892, 22.31068 ], [ -97.87514, 22.311 ], [ -97.88043, 22.3106 ], [ -97.88181, 22.30599 ], [ -97.88164, 22.30472 ], [ -97.88099, 22.30329 ], [ -97.87394, 22.29215 ], [ -97.87331, 22.2911 ], [ -97.87308, 22.28963 ], [ -97.87299, 22.28832 ], [ -97.87349, 22.28644 ], [ -97.87398, 22.28489 ], [ -97.87325, 22.28288 ], [ -97.87288, 22.28123 ], [ -97.87344, 22.27673 ], [ -97.87475, 22.27278 ], [ -97.87376, 22.27017 ], [ -97.87374, 22.26712 ], [ -97.87469, 22.26513 ], [ -97.87664, 22.2578 ], [ -97.87657, 22.25564 ], [ -97.87413, 22.24825 ], [ -97.87293, 22.24622 ], [ -97.87147, 22.24323 ], [ -97.86769, 22.23437 ], [ -97.86424, 22.22537 ], [ -97.86341, 22.2234 ], [ -97.86328, 22.22159 ], [ -97.85578, 22.21837 ], [ -97.85502, 22.21994 ], [ -97.85542, 22.21916 ], [ -97.86334, 22.22262 ], [ -97.86334, 22.22262 ], [ -97.85542, 22.21916 ], [ -97.85502, 22.21994 ], [ -97.85578, 22.21837 ], [ -97.86328, 22.22159 ], [ -97.86341, 22.2234 ], [ -97.86424, 22.22537 ], [ -97.86769, 22.23437 ], [ -97.87147, 22.24323 ], [ -97.87293, 22.24622 ], [ -97.87413, 22.24825 ], [ -97.87657, 22.25564 ], [ -97.87664, 22.2578 ], [ -97.87469, 22.26513 ], [ -97.87374, 22.26712 ], [ -97.87376, 22.27017 ], [ -97.87475, 22.27278 ], [ -97.87344, 22.27673 ], [ -97.87288, 22.28123 ], [ -97.87325, 22.28288 ], [ -97.87398, 22.28489 ], [ -97.87349, 22.28644 ], [ -97.87299, 22.28832 ], [ -97.87308, 22.28963 ], [ -97.87331, 22.2911 ], [ -97.87394, 22.29215 ], [ -97.88099, 22.30329 ], [ -97.88164, 22.30472 ], [ -97.88181, 22.30599 ], [ -97.88099, 22.30863 ], [ -97.87501, 22.30899 ], [ -97.86904, 22.30877 ], [ -97.86905, 22.3072 ], [ -97.8638, 22.3071 ], [ -97.86318, 22.30733 ], [ -97.86156, 22.30355 ], [ -97.84934, 22.30816 ], [ -97.85127, 22.31393 ], [ -97.85002, 22.31481 ], [ -97.85381, 22.32285 ], [ -97.85089, 22.32432 ], [ -97.84914, 22.32544 ] ] } }
]
}
