{
"type": "FeatureCollection",
"name": "shape_10",
"crs": { "type": "name", "properties": { "name": "urn:ogc:def:crs:OGC:1.3:CRS84" } },
"features": [
{ "type": "Feature", "properties": { "data.route.shortName": "10", "data.route.longName": "Enrique Cárdenas - Central Camionera - Tampico", "shape_id": "shape_10" }, "geometry": { "type": "LineString", "coordinates": [ [ -97.88682, 22.31317 ], [ -97.88722, 22.31117 ], [ -97.88219, 22.31124 ], [ -97.88204, 22.30847 ], [ -97.88106, 22.30862 ], [ -97.87383, 22.30902 ], [ -97.869, 22.30876 ], [ -97.86906, 22.30719 ], [ -97.86375, 22.30711 ], [ -97.86316, 22.30732 ], [ -97.86156, 22.30353 ], [ -97.85763, 22.30495 ], [ -97.85628, 22.30169 ], [ -97.85368, 22.30268 ], [ -97.85166, 22.29773 ], [ -97.85424, 22.29677 ], [ -97.85516, 22.29909 ], [ -97.85555, 22.29923 ], [ -97.85733, 22.29864 ], [ -97.85518, 22.29351 ], [ -97.85369, 22.29406 ], [ -97.85079, 22.28701 ], [ -97.84937, 22.28373 ], [ -97.85424, 22.28361 ], [ -97.85422, 22.28322 ], [ -97.85402, 22.28255 ], [ -97.85386, 22.28166 ], [ -97.85404, 22.28028 ], [ -97.85166, 22.28 ], [ -97.85207, 22.27869 ], [ -97.85035, 22.27836 ], [ -97.85055, 22.27789 ], [ -97.85201, 22.27389 ], [ -97.85226, 22.27293 ], [ -97.8534, 22.27047 ], [ -97.8555, 22.2711 ], [ -97.8557, 22.27118 ], [ -97.85584, 22.27041 ], [ -97.85849, 22.27135 ], [ -97.86031, 22.27189 ], [ -97.86134, 22.27186 ], [ -97.86248, 22.27136 ], [ -97.86299, 22.2708 ], [ -97.86322, 22.27033 ], [ -97.86363, 22.26903 ], [ -97.86401, 22.26861 ], [ -97.86192, 22.26746 ], [ -97.86015, 22.26716 ], [ -97.85748, 22.26627 ], [ -97.85918, 22.26105 ], [ -97.85811, 22.26077 ], [ -97.85716, 22.26064 ], [ -97.85611, 22.26035 ], [ -97.85683, 22.25848 ], [ -97.85689, 22.25812 ], [ -97.85694, 22.25722 ], [ -97.85778, 22.25564 ], [ -97.85829, 22.25222 ], [ -97.85758, 22.24662 ], [ -97.85525, 22.24533 ], [ -97.85546, 22.24342 ], [ -97.85523, 22.24227 ], [ -97.85773, 22.24072 ], [ -97.85797, 22.2405 ], [ -97.85823, 22.24019 ], [ -97.85909, 22.23669 ], [ -97.85902, 22.23627 ], [ -97.85872, 22.23588 ], [ -97.85713, 22.23455 ], [ -97.85709, 22.23417 ], [ -97.85718, 22.23377 ], [ -97.85915, 22.23169 ], [ -97.85954, 22.23123 ], [ -97.85977, 22.23071 ], [ -97.85876, 22.22634 ], [ -97.85857, 22.22591 ], [ -97.85823, 22.22561 ], [ -97.85778, 22.22543 ], [ -97.85945, 22.22195 ], [ -97.85585, 22.22036 ], [ -97.85744, 22.21738 ], [ -97.85924, 22.214 ], [ -97.85924, 22.214 ], [ -97.85838, 22.21357 ], [ -97.8569, 22.21653 ], [ -97.8554, 22.21919 ], [ -97.85404, 22.22167 ], [ -97.85484, 22.22187 ], [ -97.85557, 22.22185 ], [ -97.85629, 22.22207 ], [ -97.85668, 22.22255 ], [ -97.85681, 22.22309 ], [ -97.85623, 22.22408 ], [ -97.8561, 22.22459 ], [ -97.85623, 22.22505 ], [ -97.85666, 22.22539 ], [ -97.85726, 22.22555 ], [ -97.85801, 22.22563 ], [ -97.85847, 22.22597 ], [ -97.85962, 22.23073 ], [ -97.85947, 22.23119 ], [ -97.85915, 22.23169 ], [ -97.85718, 22.23377 ], [ -97.85705, 22.23415 ], [ -97.85713, 22.23455 ], [ -97.85864, 22.23602 ], [ -97.85883, 22.23629 ], [ -97.85892, 22.23659 ], [ -97.85823, 22.24023 ], [ -97.85797, 22.2405 ], [ -97.85771, 22.24066 ], [ -97.85514, 22.24207 ], [ -97.85505, 22.24233 ], [ -97.85533, 22.24317 ], [ -97.85525, 22.24533 ], [ -97.85758, 22.24662 ], [ -97.85793, 22.24918 ], [ -97.85829, 22.25222 ], [ -97.85778, 22.25564 ], [ -97.85694, 22.25722 ], [ -97.85689, 22.25812 ], [ -97.85683, 22.25848 ], [ -97.85611, 22.26035 ], [ -97.85716, 22.26064 ], [ -97.85811, 22.26077 ], [ -97.85918, 22.26105 ], [ -97.85836, 22.2636 ], [ -97.85748, 22.26627 ], [ -97.86015, 22.26716 ], [ -97.86192, 22.26746 ], [ -97.86401, 22.26861 ], [ -97.86363, 22.26903 ], [ -97.86322, 22.27033 ], [ -97.86299, 22.2708 ], [ -97.86248, 22.27136 ], [ -97.86134, 22.27186 ], [ -97.86031, 22.27189 ], [ -97.85849, 22.27135 ], [ -97.85733, 22.27093 ], [ -97.85703, 22.27164 ], [ -97.8557, 22.27118 ], [ -97.8555, 22.2711 ], [ -97.85442, 22.27393 ], [ -97.85385, 22.2735 ], [ -97.85244, 22.27307 ], [ -97.85201, 22.27389 ], [ -97.85055, 22.27789 ], [ -97.85468, 22.27854 ], [ -97.85404, 22.28028 ], [ -97.85386, 22.28166 ], [ -97.85402, 22.28255 ], [ -97.85422, 22.28322 ], [ -97.85424, 22.28361 ], [ -97.84937, 22.28373 ], [ -97.85079, 22.28701 ], [ -97.85369, 22.29406 ], [ -97.85518, 22.29351 ], [ -97.85733, 22.29864 ], [ -97.85555, 22.29923 ], [ -97.85516, 22.29909 ], [ -97.85424, 22.29677 ], [ -97.85166, 22.29773 ], [ -97.85368, 22.30268 ], [ -97.85628, 22.30169 ], [ -97.85763, 22.30495 ], [ -97.86156, 22.30353 ], [ -97.86316, 22.30732 ], [ -97.86375, 22.30711 ], [ -97.86906, 22.30719 ], [ -97.86885, 22.31084 ], [ -97.87372, 22.31094 ], [ -97.87655, 22.31094 ], [ -97.88035, 22.31066 ], [ -97.88215, 22.31048 ], [ -97.88219, 22.31124 ], [ -97.88722, 22.31117 ] ] } }
]
}
