{
"type": "FeatureCollection",
"name": "shape_5",
"crs": { "type": "name", "properties": { "name": "urn:ogc:def:crs:OGC:1.3:CRS84" } },
"features": [
{ "type": "Feature", "properties": { "data.route.shortName": "5", "data.route.longName": "Madero - Blanco Palmas - Albañiles", "shape_id": "shape_5" }, "geometry": { "type": "LineString", "coordinates": [ [ -97.86034, 22.32433 ], [ -97.85994, 22.3235 ], [ -97.86194, 22.32284 ], [ -97.86237, 22.32367 ], [ -97.86235, 22.32335 ], [ -97.86318, 22.32309 ], [ -97.86394, 22.32502 ], [ -97.86468, 22.32667 ], [ -97.86671, 22.3317 ], [ -97.86709, 22.33249 ], [ -97.86698, 22.33257 ], [ -97.86636, 22.33084 ], [ -97.86859, 22.33011 ], [ -97.869, 22.33112 ], [ -97.8732, 22.32968 ], [ -97.8737, 22.33143 ], [ -97.87382, 22.3312 ], [ -97.87263, 22.32759 ], [ -97.87218, 22.32648 ], [ -97.87009, 22.32376 ], [ -97.86954, 22.32157 ], [ -97.87441, 22.32167 ], [ -97.87344, 22.31739 ], [ -97.87241, 22.31715 ], [ -97.87291, 22.30885 ], [ -97.87387, 22.30901 ], [ -97.88112, 22.30857 ], [ -97.88177, 22.30565 ], [ -97.88089, 22.30317 ], [ -97.8784, 22.2992 ], [ -97.87336, 22.29118 ], [ -97.87299, 22.28854 ], [ -97.87376, 22.28574 ], [ -97.87402, 22.28423 ], [ -97.87297, 22.28195 ], [ -97.87404, 22.27556 ], [ -97.87477, 22.27278 ], [ -97.87368, 22.26956 ], [ -97.87406, 22.26626 ], [ -97.87505, 22.264 ], [ -97.87621, 22.25959 ], [ -97.87396, 22.25729 ], [ -97.86394, 22.25721 ], [ -97.8605, 22.26338 ], [ -97.85876, 22.26249 ], [ -97.85677, 22.26217 ], [ -97.85267, 22.26078 ], [ -97.85415, 22.25681 ], [ -97.83431, 22.24628 ], [ -97.83476, 22.24555 ], [ -97.83628, 22.24636 ], [ -97.83703, 22.24676 ], [ -97.83759, 22.24624 ], [ -97.85171, 22.25411 ], [ -97.85011, 22.25463 ], [ -97.85011, 22.25463 ], [ -97.85171, 22.25411 ], [ -97.83759, 22.24624 ], [ -97.83703, 22.24676 ], [ -97.83628, 22.24636 ], [ -97.83476, 22.24555 ], [ -97.83431, 22.24628 ], [ -97.85014, 22.25465 ], [ -97.85486, 22.25717 ], [ -97.85572, 22.25723 ], [ -97.85416, 22.26126 ], [ -97.85677, 22.26217 ], [ -97.85876, 22.26249 ], [ -97.8605, 22.26338 ], [ -97.86475, 22.25526 ], [ -97.87346, 22.25522 ], [ -97.8764, 22.25524 ], [ -97.87666, 22.25725 ], [ -97.87621, 22.25959 ], [ -97.87505, 22.264 ], [ -97.87406, 22.26626 ], [ -97.87368, 22.26956 ], [ -97.87477, 22.27278 ], [ -97.87404, 22.27556 ], [ -97.87297, 22.28195 ], [ -97.87402, 22.28423 ], [ -97.87376, 22.28574 ], [ -97.87299, 22.28854 ], [ -97.87336, 22.29118 ], [ -97.8784, 22.2992 ], [ -97.88089, 22.30317 ], [ -97.88177, 22.30565 ], [ -97.88033, 22.31076 ], [ -97.87385, 22.31097 ], [ -97.87276, 22.3109 ], [ -97.87241, 22.31715 ], [ -97.87344, 22.31739 ], [ -97.87441, 22.32167 ], [ -97.86954, 22.32157 ], [ -97.87009, 22.32376 ], [ -97.87218, 22.32648 ], [ -97.87263, 22.32759 ], [ -97.87382, 22.3312 ], [ -97.8737, 22.33143 ], [ -97.8732, 22.32968 ], [ -97.869, 22.33112 ], [ -97.86859, 22.33011 ], [ -97.86636, 22.33084 ], [ -97.86698, 22.33257 ], [ -97.86709, 22.33249 ], [ -97.86671, 22.3317 ], [ -97.86468, 22.32667 ], [ -97.86394, 22.32502 ], [ -97.86318, 22.32309 ], [ -97.86235, 22.32335 ], [ -97.86237, 22.32367 ], [ -97.86194, 22.32284 ], [ -97.85994, 22.3235 ] ] } }
]
}
