{
"type": "FeatureCollection",
"name": "shape_74",
"crs": { "type": "name", "properties": { "name": "urn:ogc:def:crs:OGC:1.3:CRS84" } },
"features": [
{ "type": "Feature", "properties": { "data.route.shortName": "74", "data.route.longName": "Isleta Pérez", "shape_id": "shape_74" }, "geometry": { "type": "LineString", "coordinates": [ [ -97.84481, 22.20913 ], [ -97.84525, 22.20978 ], [ -97.84478, 22.20993 ], [ -97.84381, 22.21063 ], [ -97.84196, 22.2118 ], [ -97.84202, 22.21185 ], [ -97.84485, 22.21001 ], [ -97.84529, 22.20984 ], [ -97.84623, 22.21114 ], [ -97.84785, 22.21185 ], [ -97.85458, 22.21483 ], [ -97.85579, 22.21251 ], [ -97.85667, 22.21287 ], [ -97.85694, 22.2124 ], [ -97.85602, 22.21201 ], [ -97.85349, 22.2111 ], [ -97.85173, 22.21043 ], [ -97.85082, 22.21004 ], [ -97.84988, 22.20989 ], [ -97.84901, 22.20998 ], [ -97.8484, 22.21057 ], [ -97.84826, 22.21096 ], [ -97.84763, 22.21082 ], [ -97.84664, 22.21131 ], [ -97.84623, 22.21114 ], [ -97.84529, 22.20984 ], [ -97.8452, 22.20972 ], [ -97.84479, 22.20918 ] ] } }
]
}
