{
"type": "FeatureCollection",
"name": "shape_83",
"crs": { "type": "name", "properties": { "name": "urn:ogc:def:crs:OGC:1.3:CRS84" } },
"features": [
{ "type": "Feature", "properties": { "data.route.shortName": "83", "data.route.longName": "Tampico - Playa", "shape_id": "shape_83" }, "geometry": { "type": "LineString", "coordinates": [ [ -97.79428, 22.27516 ], [ -97.79583, 22.27471 ], [ -97.80002, 22.27411 ], [ -97.80131, 22.27387 ], [ -97.80937, 22.26974 ], [ -97.81433, 22.26712 ], [ -97.83226, 22.25192 ], [ -97.83544, 22.24916 ], [ -97.84151, 22.23957 ], [ -97.84267, 22.23778 ], [ -97.8455, 22.2301 ], [ -97.84866, 22.22154 ], [ -97.85043, 22.21693 ], [ -97.85123, 22.21526 ], [ -97.85375, 22.21641 ], [ -97.85588, 22.21246 ], [ -97.85588, 22.21246 ], [ -97.85306, 22.21188 ], [ -97.85123, 22.21526 ], [ -97.85043, 22.21693 ], [ -97.84866, 22.22154 ], [ -97.8455, 22.2301 ], [ -97.84267, 22.23778 ], [ -97.84151, 22.23957 ], [ -97.83544, 22.24916 ], [ -97.83226, 22.25192 ], [ -97.81433, 22.26712 ], [ -97.80937, 22.26974 ], [ -97.80131, 22.27387 ], [ -97.80002, 22.27411 ], [ -97.79594, 22.27472 ], [ -97.79423, 22.27515 ] ] } }
]
}
