{
"type": "FeatureCollection",
"name": "shape_67",
"crs": { "type": "name", "properties": { "name": "urn:ogc:def:crs:OGC:1.3:CRS84" } },
"features": [
{ "type": "Feature", "properties": { "data.route.shortName": "67", "data.route.longName": "Central Camionera - Madero", "shape_id": "shape_67" }, "geometry": { "type": "LineString", "coordinates": [ [ -97.85804, 22.25045 ], [ -97.85752, 22.24652 ], [ -97.8552, 22.24533 ], [ -97.8551, 22.24708 ], [ -97.85458, 22.24817 ], [ -97.85484, 22.2503 ], [ -97.85385, 22.24976 ], [ -97.85385, 22.24976 ], [ -97.85363, 22.24809 ], [ -97.85063, 22.24653 ], [ -97.85021, 22.24721 ], [ -97.84402, 22.24388 ], [ -97.84318, 22.24535 ], [ -97.84182, 22.24747 ], [ -97.8414, 22.24819 ], [ -97.83988, 22.24733 ], [ -97.83944, 22.2481 ], [ -97.83944, 22.2481 ], [ -97.83794, 22.24723 ], [ -97.83972, 22.24444 ], [ -97.84276, 22.24601 ], [ -97.84318, 22.24535 ], [ -97.84402, 22.24388 ], [ -97.85021, 22.24721 ], [ -97.85063, 22.24653 ], [ -97.85363, 22.24809 ], [ -97.85385, 22.24976 ], [ -97.85385, 22.24976 ], [ -97.85484, 22.2503 ], [ -97.85458, 22.24817 ], [ -97.8551, 22.24708 ], [ -97.85525, 22.24536 ], [ -97.85751, 22.24655 ], [ -97.8581, 22.25043 ] ] } }
]
}
