{
"type": "FeatureCollection",
"name": "shape_79",
"crs": { "type": "name", "properties": { "name": "urn:ogc:def:crs:OGC:1.3:CRS84" } },
"features": [
{ "type": "Feature", "properties": { "data.route.shortName": "79", "data.route.longName": "MAUN", "shape_id": "shape_79" }, "geometry": { "type": "LineString", "coordinates": [ [ -97.84712, 22.32617 ], [ -97.84906, 22.32547 ], [ -97.85095, 22.3243 ], [ -97.85379, 22.32285 ], [ -97.85238, 22.31977 ], [ -97.85113, 22.31724 ], [ -97.85002, 22.31486 ], [ -97.85127, 22.31393 ], [ -97.8487, 22.30622 ], [ -97.84903, 22.30571 ], [ -97.84878, 22.30518 ], [ -97.8487, 22.30475 ], [ -97.84818, 22.30357 ], [ -97.8465, 22.30418 ], [ -97.84621, 22.30349 ], [ -97.846, 22.30346 ], [ -97.84592, 22.30077 ], [ -97.84442, 22.30083 ], [ -97.84422, 22.30079 ], [ -97.84444, 22.29784 ], [ -97.84475, 22.29625 ], [ -97.84604, 22.29615 ], [ -97.84543, 22.28927 ], [ -97.84854, 22.28903 ], [ -97.84848, 22.28842 ], [ -97.84806, 22.28827 ], [ -97.84867, 22.28659 ], [ -97.84439, 22.28519 ], [ -97.84586, 22.28127 ], [ -97.84012, 22.27944 ], [ -97.84115, 22.27688 ], [ -97.84337, 22.27681 ], [ -97.84389, 22.27663 ], [ -97.84484, 22.27593 ], [ -97.84551, 22.27512 ], [ -97.84576, 22.275 ], [ -97.84406, 22.27064 ], [ -97.84521, 22.26761 ], [ -97.84612, 22.26527 ], [ -97.84675, 22.26359 ], [ -97.8474, 22.26187 ], [ -97.84398, 22.26024 ], [ -97.84311, 22.25986 ], [ -97.84371, 22.25883 ], [ -97.83841, 22.25345 ], [ -97.83909, 22.25292 ], [ -97.83609, 22.24988 ], [ -97.83609, 22.24988 ], [ -97.83558, 22.25035 ], [ -97.83578, 22.25078 ], [ -97.83602, 22.251 ], [ -97.83783, 22.25288 ], [ -97.83841, 22.25345 ], [ -97.84371, 22.25883 ], [ -97.84311, 22.25986 ], [ -97.84398, 22.26024 ], [ -97.8474, 22.26187 ], [ -97.84675, 22.26359 ], [ -97.84612, 22.26527 ], [ -97.84521, 22.26761 ], [ -97.84406, 22.27064 ], [ -97.84576, 22.275 ], [ -97.84551, 22.27512 ], [ -97.84484, 22.27593 ], [ -97.84389, 22.27663 ], [ -97.84337, 22.27681 ], [ -97.84115, 22.27688 ], [ -97.84012, 22.27944 ], [ -97.84586, 22.28127 ], [ -97.84439, 22.28519 ], [ -97.84867, 22.28659 ], [ -97.84806, 22.28827 ], [ -97.84848, 22.28842 ], [ -97.84854, 22.28903 ], [ -97.84543, 22.28927 ], [ -97.84604, 22.29615 ], [ -97.84475, 22.29625 ], [ -97.84444, 22.29784 ], [ -97.84422, 22.30079 ], [ -97.84442, 22.30083 ], [ -97.84592, 22.30077 ], [ -97.846, 22.30346 ], [ -97.84621, 22.30349 ], [ -97.8465, 22.30418 ], [ -97.84818, 22.30357 ], [ -97.8487, 22.30475 ], [ -97.84878, 22.30518 ], [ -97.84903, 22.30571 ], [ -97.8487, 22.30622 ], [ -97.85127, 22.31393 ], [ -97.85002, 22.31486 ], [ -97.85113, 22.31724 ], [ -97.85238, 22.31977 ], [ -97.85379, 22.32285 ], [ -97.85095, 22.3243 ], [ -97.84906, 22.32547 ] ] } }
]
}
