{
"type": "FeatureCollection",
"name": "shape_44",
"crs": { "type": "name", "properties": { "name": "urn:ogc:def:crs:OGC:1.3:CRS84" } },
"features": [
{ "type": "Feature", "properties": { "data.route.shortName": "44", "data.route.longName": "Obrera por Republica de Cuba", "shape_id": "shape_44" }, "geometry": { "type": "LineString", "coordinates": [ [ -97.82899, 22.26411 ], [ -97.83041, 22.26297 ], [ -97.82836, 22.2609 ], [ -97.82907, 22.26033 ], [ -97.82788, 22.25911 ], [ -97.83538, 22.25274 ], [ -97.83418, 22.25151 ], [ -97.83608, 22.24985 ], [ -97.83729, 22.25109 ], [ -97.83625, 22.25191 ], [ -97.83747, 22.25488 ], [ -97.84137, 22.25883 ], [ -97.84462, 22.25609 ], [ -97.84478, 22.25587 ], [ -97.84638, 22.25341 ], [ -97.85068, 22.24656 ], [ -97.85087, 22.24663 ], [ -97.85153, 22.24605 ], [ -97.85277, 22.24407 ], [ -97.85206, 22.24373 ], [ -97.85281, 22.24218 ], [ -97.85328, 22.24121 ], [ -97.85389, 22.24041 ], [ -97.85338, 22.23866 ], [ -97.85175, 22.2377 ], [ -97.85014, 22.23721 ], [ -97.84943, 22.23665 ], [ -97.84797, 22.23288 ], [ -97.8466, 22.23038 ], [ -97.84737, 22.22829 ], [ -97.85542, 22.21331 ], [ -97.85585, 22.21246 ], [ -97.85582, 22.21252 ], [ -97.85484, 22.21228 ], [ -97.85248, 22.21685 ], [ -97.85334, 22.21717 ], [ -97.84737, 22.22829 ], [ -97.8466, 22.23038 ], [ -97.84797, 22.23288 ], [ -97.84943, 22.23665 ], [ -97.85014, 22.23721 ], [ -97.85175, 22.2377 ], [ -97.85338, 22.23866 ], [ -97.85389, 22.24041 ], [ -97.85328, 22.24121 ], [ -97.85281, 22.24218 ], [ -97.85206, 22.24373 ], [ -97.85277, 22.24407 ], [ -97.85153, 22.24605 ], [ -97.85087, 22.24663 ], [ -97.85068, 22.24656 ], [ -97.84638, 22.25341 ], [ -97.84478, 22.25587 ], [ -97.84462, 22.25609 ], [ -97.84137, 22.25883 ], [ -97.83747, 22.25488 ], [ -97.83625, 22.25191 ], [ -97.83599, 22.2513 ], [ -97.83555, 22.25033 ], [ -97.83418, 22.25151 ], [ -97.83538, 22.25274 ], [ -97.82788, 22.25911 ], [ -97.82907, 22.26033 ], [ -97.8284, 22.26099 ], [ -97.83039, 22.26296 ], [ -97.82899, 22.26415 ] ] } }
]
}
