{
"type": "FeatureCollection",
"name": "shape_22",
"crs": { "type": "name", "properties": { "name": "urn:ogc:def:crs:OGC:1.3:CRS84" } },
"features": [
{ "type": "Feature", "properties": { "data.route.shortName": "22", "data.route.longName": "Tampico - Borreguera por boulevard Zona Conurbada Tampico - Madero - Altamira", "shape_id": "shape_22" }, "geometry": { "type": "LineString", "coordinates": [ [ -97.86413, 22.33074 ], [ -97.86065, 22.32222 ], [ -97.8604, 22.32185 ], [ -97.86057, 22.32157 ], [ -97.86079, 22.32137 ], [ -97.85736, 22.31123 ], [ -97.85707, 22.31133 ], [ -97.85642, 22.30935 ], [ -97.8551, 22.30613 ], [ -97.85769, 22.30508 ], [ -97.85626, 22.3017 ], [ -97.85554, 22.30007 ], [ -97.85396, 22.29611 ], [ -97.85253, 22.29266 ], [ -97.85292, 22.29226 ], [ -97.84792, 22.27996 ], [ -97.84561, 22.27453 ], [ -97.84977, 22.26374 ], [ -97.85441, 22.25117 ], [ -97.85492, 22.25034 ], [ -97.85456, 22.24793 ], [ -97.85512, 22.24702 ], [ -97.85527, 22.24456 ], [ -97.85525, 22.24239 ], [ -97.85383, 22.24054 ], [ -97.85291, 22.2383 ], [ -97.84986, 22.23709 ], [ -97.84855, 22.23437 ], [ -97.84748, 22.2319 ], [ -97.84662, 22.2304 ], [ -97.85608, 22.21206 ], [ -97.85521, 22.21173 ], [ -97.85239, 22.21681 ], [ -97.85338, 22.21725 ], [ -97.85526, 22.21172 ], [ -97.85239, 22.21681 ], [ -97.85279, 22.217 ], [ -97.85331, 22.21722 ], [ -97.84662, 22.2304 ], [ -97.84748, 22.2319 ], [ -97.84855, 22.23437 ], [ -97.84986, 22.23709 ], [ -97.85291, 22.2383 ], [ -97.85383, 22.24054 ], [ -97.85525, 22.24239 ], [ -97.85527, 22.24456 ], [ -97.85512, 22.24702 ], [ -97.85456, 22.24793 ], [ -97.85492, 22.25034 ], [ -97.85441, 22.25117 ], [ -97.84977, 22.26374 ], [ -97.84561, 22.27453 ], [ -97.84792, 22.27996 ], [ -97.85292, 22.29226 ], [ -97.85253, 22.29266 ], [ -97.85396, 22.29611 ], [ -97.85554, 22.30007 ], [ -97.85626, 22.3017 ], [ -97.85769, 22.30508 ], [ -97.8551, 22.30613 ], [ -97.85642, 22.30935 ], [ -97.85707, 22.31133 ], [ -97.85736, 22.31123 ], [ -97.86079, 22.32137 ], [ -97.86057, 22.32157 ], [ -97.8604, 22.32185 ], [ -97.86414, 22.33073 ] ] } }
]
}
