{
"type": "FeatureCollection",
"name": "shape_31",
"crs": { "type": "name", "properties": { "name": "urn:ogc:def:crs:OGC:1.3:CRS84" } },
"features": [
{ "type": "Feature", "properties": { "data.route.shortName": "31", "data.route.longName": "Tierra Alta - Niños Héroes - Casa Blanca", "shape_id": "shape_31" }, "geometry": { "type": "LineString", "coordinates": [ [ -97.89684, 22.3249 ], [ -97.89431, 22.32439 ], [ -97.89533, 22.32102 ], [ -97.89579, 22.31956 ], [ -97.89622, 22.31861 ], [ -97.89622, 22.31824 ], [ -97.8959, 22.31824 ], [ -97.89537, 22.31711 ], [ -97.89493, 22.31725 ], [ -97.89281, 22.31672 ], [ -97.89054, 22.31628 ], [ -97.88992, 22.31892 ], [ -97.88888, 22.31868 ], [ -97.88685, 22.32348 ], [ -97.88518, 22.32324 ], [ -97.88522, 22.319 ], [ -97.8825, 22.31929 ], [ -97.88208, 22.30968 ], [ -97.88087, 22.3097 ], [ -97.88118, 22.30861 ], [ -97.88146, 22.30778 ], [ -97.88183, 22.30634 ], [ -97.88187, 22.3055 ], [ -97.88173, 22.30463 ], [ -97.8812, 22.30351 ], [ -97.87896, 22.30005 ], [ -97.87773, 22.29808 ], [ -97.87336, 22.29118 ], [ -97.87297, 22.28883 ], [ -97.87338, 22.28699 ], [ -97.87394, 22.28531 ], [ -97.87368, 22.28388 ], [ -97.87291, 22.28215 ], [ -97.8731, 22.2781 ], [ -97.87471, 22.2728 ], [ -97.87368, 22.26992 ], [ -97.87381, 22.26704 ], [ -97.87503, 22.26406 ], [ -97.87621, 22.25935 ], [ -97.87649, 22.25727 ], [ -97.8766, 22.25502 ], [ -97.87443, 22.24893 ], [ -97.87308, 22.24654 ], [ -97.86784, 22.23492 ], [ -97.86347, 22.2234 ], [ -97.86328, 22.22156 ], [ -97.85497, 22.218 ], [ -97.85588, 22.21637 ], [ -97.84991, 22.21372 ], [ -97.85164, 22.21039 ], [ -97.85079, 22.21006 ], [ -97.84978, 22.20985 ], [ -97.84902, 22.20995 ], [ -97.84865, 22.2102 ], [ -97.84821, 22.21094 ], [ -97.84776, 22.21079 ], [ -97.84712, 22.21104 ], [ -97.84665, 22.2113 ], [ -97.84783, 22.21185 ], [ -97.84821, 22.21094 ], [ -97.84821, 22.21094 ], [ -97.84783, 22.21185 ], [ -97.84665, 22.2113 ], [ -97.84712, 22.21104 ], [ -97.84776, 22.21079 ], [ -97.84821, 22.21094 ], [ -97.84783, 22.21184 ], [ -97.84847, 22.21212 ], [ -97.84872, 22.21225 ], [ -97.84915, 22.21238 ], [ -97.84949, 22.2126 ], [ -97.85206, 22.21371 ], [ -97.85127, 22.21527 ], [ -97.85458, 22.21681 ], [ -97.85626, 22.21753 ], [ -97.86334, 22.22071 ], [ -97.86328, 22.22156 ], [ -97.86347, 22.2234 ], [ -97.86784, 22.23492 ], [ -97.87308, 22.24654 ], [ -97.87443, 22.24893 ], [ -97.8766, 22.25502 ], [ -97.87649, 22.25727 ], [ -97.87621, 22.25935 ], [ -97.87503, 22.26406 ], [ -97.87381, 22.26704 ], [ -97.87368, 22.26992 ], [ -97.87471, 22.2728 ], [ -97.8731, 22.2781 ], [ -97.87291, 22.28215 ], [ -97.87368, 22.28388 ], [ -97.87394, 22.28531 ], [ -97.87338, 22.28699 ], [ -97.87297, 22.28883 ], [ -97.87336, 22.29118 ], [ -97.87773, 22.29808 ], [ -97.87896, 22.30005 ], [ -97.8812, 22.30351 ], [ -97.88173, 22.30463 ], [ -97.88187, 22.3055 ], [ -97.88183, 22.30634 ], [ -97.88146, 22.30778 ], [ -97.88118, 22.30861 ], [ -97.87874, 22.30875 ], [ -97.8788, 22.31071 ], [ -97.88215, 22.31053 ], [ -97.8825, 22.31929 ], [ -97.88522, 22.319 ], [ -97.88518, 22.32324 ], [ -97.88685, 22.32348 ], [ -97.88888, 22.31868 ], [ -97.88992, 22.31892 ], [ -97.89054, 22.31628 ], [ -97.89281, 22.31672 ], [ -97.89493, 22.31725 ], [ -97.89537, 22.31711 ], [ -97.8959, 22.31824 ], [ -97.89622, 22.31824 ], [ -97.89622, 22.31861 ], [ -97.89579, 22.31956 ], [ -97.89533, 22.32102 ], [ -97.89431, 22.32439 ] ] } }
]
}
