{
"type": "FeatureCollection",
"name": "shape_78",
"crs": { "type": "name", "properties": { "name": "urn:ogc:def:crs:OGC:1.3:CRS84" } },
"features": [
{ "type": "Feature", "properties": { "data.route.shortName": "78", "data.route.longName": "Germinal por Águilas", "shape_id": "shape_78" }, "geometry": { "type": "LineString", "coordinates": [ [ -97.85762, 22.30493 ], [ -97.86156, 22.30354 ], [ -97.86318, 22.30732 ], [ -97.86376, 22.30709 ], [ -97.86904, 22.3072 ], [ -97.86887, 22.31068 ], [ -97.87518, 22.31097 ], [ -97.88042, 22.31056 ], [ -97.88181, 22.30567 ], [ -97.88125, 22.30389 ], [ -97.87342, 22.29122 ], [ -97.87299, 22.28908 ], [ -97.8737, 22.28566 ], [ -97.87387, 22.28441 ], [ -97.87297, 22.28219 ], [ -97.87312, 22.27847 ], [ -97.87471, 22.27289 ], [ -97.87376, 22.27006 ], [ -97.87376, 22.26704 ], [ -97.87542, 22.26283 ], [ -97.87651, 22.25786 ], [ -97.87649, 22.25629 ], [ -97.87617, 22.25379 ], [ -97.87396, 22.24795 ], [ -97.87153, 22.24333 ], [ -97.86758, 22.23421 ], [ -97.86482, 22.22686 ], [ -97.86361, 22.2239 ], [ -97.86334, 22.22217 ], [ -97.86325, 22.22066 ], [ -97.86269, 22.21943 ], [ -97.85926, 22.21794 ], [ -97.86007, 22.21637 ], [ -97.85918, 22.21595 ], [ -97.85919, 22.21599 ], [ -97.85797, 22.2184 ], [ -97.85982, 22.21915 ], [ -97.86233, 22.22024 ], [ -97.86325, 22.22066 ], [ -97.86334, 22.22217 ], [ -97.86361, 22.2239 ], [ -97.86482, 22.22686 ], [ -97.86758, 22.23421 ], [ -97.87153, 22.24333 ], [ -97.87396, 22.24795 ], [ -97.87617, 22.25379 ], [ -97.87649, 22.25629 ], [ -97.87651, 22.25786 ], [ -97.87542, 22.26283 ], [ -97.87376, 22.26704 ], [ -97.87376, 22.27006 ], [ -97.87471, 22.27289 ], [ -97.87312, 22.27847 ], [ -97.87297, 22.28219 ], [ -97.87387, 22.28441 ], [ -97.8737, 22.28566 ], [ -97.87299, 22.28908 ], [ -97.87342, 22.29122 ], [ -97.88125, 22.30389 ], [ -97.88181, 22.30567 ], [ -97.88111, 22.30859 ], [ -97.87382, 22.30904 ], [ -97.869, 22.30877 ], [ -97.86904, 22.3072 ], [ -97.86376, 22.30709 ], [ -97.86318, 22.30732 ], [ -97.86156, 22.30357 ], [ -97.85766, 22.30492 ] ] } }
]
}
