{
"type": "FeatureCollection",
"name": "shape_86",
"crs": { "type": "name", "properties": { "name": "urn:ogc:def:crs:OGC:1.3:CRS84" } },
"features": [
{ "type": "Feature", "properties": { "data.route.shortName": "86", "data.route.longName": "Águila Echeverría", "shape_id": "shape_86" }, "geometry": { "type": "LineString", "coordinates": [ [ -97.88632, 22.27757 ], [ -97.8847, 22.27838 ], [ -97.88389, 22.27902 ], [ -97.88127, 22.27899 ], [ -97.87981, 22.27843 ], [ -97.87836, 22.27695 ], [ -97.87726, 22.27639 ], [ -97.87387, 22.27548 ], [ -97.87473, 22.27276 ], [ -97.87363, 22.26954 ], [ -97.87381, 22.26692 ], [ -97.87471, 22.26507 ], [ -97.87662, 22.25719 ], [ -97.87645, 22.25494 ], [ -97.87445, 22.24895 ], [ -97.87323, 22.24654 ], [ -97.86866, 22.23675 ], [ -97.86419, 22.22539 ], [ -97.86344, 22.22344 ], [ -97.86325, 22.2206 ], [ -97.86263, 22.21935 ], [ -97.85754, 22.21713 ], [ -97.8598, 22.21285 ], [ -97.85886, 22.21251 ], [ -97.85796, 22.21442 ], [ -97.85966, 22.21517 ], [ -97.85882, 22.2148 ], [ -97.85968, 22.21517 ], [ -97.85928, 22.21601 ], [ -97.8588, 22.21675 ], [ -97.85801, 22.21837 ], [ -97.8589, 22.21875 ], [ -97.8623, 22.22023 ], [ -97.86325, 22.2206 ], [ -97.86344, 22.22344 ], [ -97.86419, 22.22539 ], [ -97.86866, 22.23675 ], [ -97.87323, 22.24654 ], [ -97.87445, 22.24895 ], [ -97.87645, 22.25494 ], [ -97.87662, 22.25719 ], [ -97.87471, 22.26507 ], [ -97.87381, 22.26692 ], [ -97.87363, 22.26954 ], [ -97.87473, 22.27276 ], [ -97.87387, 22.27548 ], [ -97.87726, 22.27639 ], [ -97.87836, 22.27695 ], [ -97.87981, 22.27843 ], [ -97.88127, 22.27899 ], [ -97.88389, 22.27902 ], [ -97.88522, 22.27939 ], [ -97.88537, 22.27873 ], [ -97.88515, 22.27818 ], [ -97.88388, 22.27901 ] ] } }
]
}
