{
"type": "FeatureCollection",
"name": "shape_70",
"crs": { "type": "name", "properties": { "name": "urn:ogc:def:crs:OGC:1.3:CRS84" } },
"features": [
{ "type": "Feature", "properties": { "data.route.shortName": "70", "data.route.longName": "Germinal por Boulevard", "shape_id": "shape_70" }, "geometry": { "type": "LineString", "coordinates": [ [ -97.85761, 22.30506 ], [ -97.8535, 22.29508 ], [ -97.8525, 22.29251 ], [ -97.85299, 22.29213 ], [ -97.84555, 22.27452 ], [ -97.84677, 22.27182 ], [ -97.84836, 22.26737 ], [ -97.85213, 22.25733 ], [ -97.85359, 22.25352 ], [ -97.85443, 22.25131 ], [ -97.85486, 22.2505 ], [ -97.85464, 22.24801 ], [ -97.85513, 22.24704 ], [ -97.85536, 22.24314 ], [ -97.85505, 22.2421 ], [ -97.85388, 22.24044 ], [ -97.85341, 22.23902 ], [ -97.85264, 22.23805 ], [ -97.84988, 22.2371 ], [ -97.84923, 22.23609 ], [ -97.84798, 22.23284 ], [ -97.84664, 22.23007 ], [ -97.84815, 22.22661 ], [ -97.8554, 22.21331 ], [ -97.85582, 22.21242 ], [ -97.8549, 22.21228 ], [ -97.8549, 22.21228 ], [ -97.85475, 22.2126 ], [ -97.85379, 22.2144 ], [ -97.85246, 22.21679 ], [ -97.85331, 22.21721 ], [ -97.84815, 22.22661 ], [ -97.84664, 22.23007 ], [ -97.84798, 22.23284 ], [ -97.84923, 22.23609 ], [ -97.84988, 22.2371 ], [ -97.85264, 22.23805 ], [ -97.85341, 22.23902 ], [ -97.85388, 22.24044 ], [ -97.85505, 22.2421 ], [ -97.85536, 22.24314 ], [ -97.85513, 22.24704 ], [ -97.85464, 22.24801 ], [ -97.85486, 22.2505 ], [ -97.85443, 22.25131 ], [ -97.85359, 22.25352 ], [ -97.85213, 22.25733 ], [ -97.84836, 22.26737 ], [ -97.84677, 22.27182 ], [ -97.84529, 22.27466 ], [ -97.85216, 22.29184 ], [ -97.8525, 22.29251 ], [ -97.85765, 22.30511 ] ] } }
]
}
