{
"type": "FeatureCollection",
"name": "shape_103B",
"crs": { "type": "name", "properties": { "name": "urn:ogc:def:crs:OGC:1.3:CRS84" } },
"features": [
{ "type": "Feature", "properties": { "data.route.shortName": "103B", "data.route.longName": "Electricistas - Arboledas - Tampico por H. Ayuntamiento y Av. Hidalgo", "shape_id": "shape_103B" }, "geometry": { "type": "LineString", "coordinates": [ [ -97.93369, 22.41553 ], [ -97.93496, 22.41569 ], [ -97.93455, 22.41861 ], [ -97.93479, 22.41902 ], [ -97.93352, 22.42708 ], [ -97.93082, 22.42563 ], [ -97.92979, 22.42565 ], [ -97.92516, 22.42503 ], [ -97.92644, 22.41625 ], [ -97.92436, 22.41603 ], [ -97.92082, 22.41545 ], [ -97.92127, 22.4121 ], [ -97.92234, 22.41224 ], [ -97.9227, 22.40938 ], [ -97.9217, 22.40926 ], [ -97.92195, 22.40769 ], [ -97.91954, 22.40748 ], [ -97.91965, 22.40658 ], [ -97.91913, 22.40659 ], [ -97.9151, 22.4062 ], [ -97.91516, 22.40537 ], [ -97.91548, 22.40542 ], [ -97.91601, 22.40545 ], [ -97.91651, 22.40243 ], [ -97.91655, 22.40171 ], [ -97.91348, 22.4026 ], [ -97.91033, 22.40379 ], [ -97.90958, 22.40073 ], [ -97.90936, 22.3994 ], [ -97.90994, 22.39938 ], [ -97.90949, 22.39936 ], [ -97.9098, 22.39781 ], [ -97.91025, 22.39775 ], [ -97.91056, 22.39543 ], [ -97.91078, 22.39458 ], [ -97.91068, 22.39387 ], [ -97.91051, 22.39333 ], [ -97.91018, 22.39289 ], [ -97.91115, 22.39208 ], [ -97.91417, 22.39289 ], [ -97.91438, 22.39178 ], [ -97.91449, 22.39064 ], [ -97.91431, 22.38949 ], [ -97.91407, 22.38903 ], [ -97.91241, 22.38718 ], [ -97.9131, 22.38653 ], [ -97.91426, 22.38448 ], [ -97.91477, 22.38357 ], [ -97.91543, 22.38325 ], [ -97.90664, 22.37466 ], [ -97.89999, 22.3681 ], [ -97.88739, 22.3544 ], [ -97.88415, 22.35182 ], [ -97.88336, 22.35119 ], [ -97.88039, 22.34956 ], [ -97.87829, 22.34785 ], [ -97.8763, 22.34573 ], [ -97.87372, 22.33739 ], [ -97.87321, 22.33521 ], [ -97.87387, 22.33144 ], [ -97.88179, 22.30607 ], [ -97.8817, 22.3047 ], [ -97.8811, 22.30355 ], [ -97.87329, 22.29118 ], [ -97.87295, 22.28836 ], [ -97.87387, 22.28556 ], [ -97.87389, 22.28407 ], [ -97.87288, 22.28221 ], [ -97.87299, 22.27959 ], [ -97.87327, 22.27728 ], [ -97.87471, 22.27268 ], [ -97.87372, 22.27008 ], [ -97.87385, 22.26688 ], [ -97.87486, 22.26493 ], [ -97.87664, 22.25749 ], [ -97.87649, 22.25564 ], [ -97.87578, 22.25252 ], [ -97.87312, 22.24646 ], [ -97.87097, 22.24203 ], [ -97.86853, 22.23633 ], [ -97.86336, 22.22313 ], [ -97.86318, 22.22066 ], [ -97.86271, 22.21941 ], [ -97.85924, 22.21788 ], [ -97.86097, 22.21456 ], [ -97.86351, 22.21566 ], [ -97.86258, 22.2175 ], [ -97.85836, 22.21562 ], [ -97.85881, 22.21478 ], [ -97.85964, 22.21518 ], [ -97.85964, 22.21518 ], [ -97.85909, 22.21635 ], [ -97.85838, 22.21762 ], [ -97.85801, 22.2184 ], [ -97.86063, 22.21949 ], [ -97.86198, 22.22013 ], [ -97.86241, 22.2203 ], [ -97.86276, 22.2204 ], [ -97.86318, 22.22066 ], [ -97.86336, 22.22313 ], [ -97.86853, 22.23633 ], [ -97.8702, 22.24013 ], [ -97.86917, 22.24048 ], [ -97.86685, 22.24122 ], [ -97.86625, 22.24128 ], [ -97.86653, 22.24684 ], [ -97.86653, 22.24758 ], [ -97.86595, 22.24998 ], [ -97.86325, 22.25077 ], [ -97.86334, 22.2528 ], [ -97.86475, 22.25308 ], [ -97.86471, 22.25524 ], [ -97.86392, 22.25727 ], [ -97.86205, 22.26031 ], [ -97.86102, 22.26253 ], [ -97.85994, 22.26483 ], [ -97.85902, 22.26839 ], [ -97.8578, 22.27182 ], [ -97.85634, 22.27536 ], [ -97.85475, 22.2744 ], [ -97.85604, 22.27643 ], [ -97.85879, 22.27802 ], [ -97.86231, 22.28076 ], [ -97.86531, 22.28453 ], [ -97.869, 22.28711 ], [ -97.8711, 22.2887 ], [ -97.87329, 22.29118 ], [ -97.8811, 22.30355 ], [ -97.8817, 22.3047 ], [ -97.88179, 22.30607 ], [ -97.87387, 22.33144 ], [ -97.87321, 22.33521 ], [ -97.87372, 22.33739 ], [ -97.8763, 22.34573 ], [ -97.87829, 22.34785 ], [ -97.88039, 22.34956 ], [ -97.88336, 22.35119 ], [ -97.88415, 22.35182 ], [ -97.88739, 22.3544 ], [ -97.89999, 22.3681 ], [ -97.90664, 22.37466 ], [ -97.91543, 22.38325 ], [ -97.91477, 22.38357 ], [ -97.91426, 22.38448 ], [ -97.9131, 22.38653 ], [ -97.91241, 22.38718 ], [ -97.91407, 22.38903 ], [ -97.91431, 22.38949 ], [ -97.91449, 22.39064 ], [ -97.91438, 22.39178 ], [ -97.91417, 22.39289 ], [ -97.91115, 22.39208 ], [ -97.91018, 22.39289 ], [ -97.91051, 22.39333 ], [ -97.91068, 22.39387 ], [ -97.91078, 22.39458 ], [ -97.91056, 22.39543 ], [ -97.91025, 22.39775 ], [ -97.9098, 22.39781 ], [ -97.90949, 22.39936 ], [ -97.90994, 22.39938 ], [ -97.90936, 22.3994 ], [ -97.90958, 22.40073 ], [ -97.91033, 22.40379 ], [ -97.91348, 22.4026 ], [ -97.91655, 22.40171 ], [ -97.91651, 22.40243 ], [ -97.91601, 22.40545 ], [ -97.91548, 22.40542 ], [ -97.91516, 22.40537 ], [ -97.9151, 22.4062 ], [ -97.91913, 22.40659 ], [ -97.91965, 22.40658 ], [ -97.91954, 22.40748 ], [ -97.92195, 22.40769 ], [ -97.9217, 22.40926 ], [ -97.9227, 22.40938 ], [ -97.92234, 22.41224 ], [ -97.92127, 22.4121 ], [ -97.92082, 22.41545 ], [ -97.92436, 22.41603 ], [ -97.92644, 22.41625 ], [ -97.92516, 22.42503 ], [ -97.92979, 22.42565 ], [ -97.93082, 22.42563 ], [ -97.93352, 22.42708 ], [ -97.93479, 22.41902 ], [ -97.93455, 22.41861 ], [ -97.93498, 22.41565 ], [ -97.93374, 22.41553 ] ] } }
]
}
