{
"type": "FeatureCollection",
"name": "shape_100A",
"crs": { "type": "name", "properties": { "name": "urn:ogc:def:crs:OGC:1.3:CRS84" } },
"features": [
{ "type": "Feature", "properties": { "data.route.shortName": "100A", "data.route.longName": "Infonavit - Altamira - Tampico por Av. Ayuntamiento y Av. Hidalgo", "shape_id": "shape_100A" }, "geometry": { "type": "LineString", "coordinates": [ [ -97.95039, 22.39286 ], [ -97.9477, 22.39259 ], [ -97.94756, 22.39456 ], [ -97.94834, 22.39516 ], [ -97.94911, 22.39544 ], [ -97.95021, 22.39478 ], [ -97.95044, 22.39243 ], [ -97.95111, 22.39156 ], [ -97.95062, 22.39125 ], [ -97.95147, 22.39031 ], [ -97.95004, 22.38728 ], [ -97.94792, 22.38679 ], [ -97.94709, 22.3867 ], [ -97.94706, 22.38726 ], [ -97.94519, 22.38702 ], [ -97.94509, 22.38763 ], [ -97.94453, 22.3876 ], [ -97.94435, 22.38874 ], [ -97.94335, 22.38843 ], [ -97.94251, 22.38849 ], [ -97.94184, 22.38853 ], [ -97.94139, 22.39229 ], [ -97.94086, 22.39617 ], [ -97.94075, 22.39851 ], [ -97.94063, 22.3993 ], [ -97.93784, 22.39899 ], [ -97.93801, 22.39722 ], [ -97.93779, 22.39641 ], [ -97.9367, 22.39593 ], [ -97.93344, 22.39536 ], [ -97.92962, 22.39171 ], [ -97.9238, 22.39044 ], [ -97.92264, 22.38998 ], [ -97.92176, 22.38845 ], [ -97.91992, 22.38702 ], [ -97.91747, 22.38546 ], [ -97.91264, 22.38069 ], [ -97.90664, 22.37462 ], [ -97.90275, 22.37085 ], [ -97.90031, 22.36837 ], [ -97.8872, 22.35422 ], [ -97.88316, 22.35105 ], [ -97.88007, 22.34942 ], [ -97.87677, 22.34629 ], [ -97.87585, 22.34474 ], [ -97.87479, 22.34101 ], [ -97.87316, 22.33527 ], [ -97.87385, 22.33106 ], [ -97.87939, 22.31395 ], [ -97.88061, 22.31006 ], [ -97.88181, 22.30619 ], [ -97.88175, 22.30484 ], [ -97.87325, 22.2911 ], [ -97.87314, 22.28985 ], [ -97.87218, 22.28916 ], [ -97.8702, 22.28799 ], [ -97.86649, 22.28532 ], [ -97.86454, 22.28348 ], [ -97.86224, 22.28062 ], [ -97.85608, 22.27536 ], [ -97.85885, 22.26904 ], [ -97.85988, 22.26525 ], [ -97.86205, 22.26032 ], [ -97.86394, 22.25717 ], [ -97.86464, 22.25524 ], [ -97.8648, 22.25437 ], [ -97.86559, 22.25322 ], [ -97.86683, 22.25081 ], [ -97.86728, 22.24932 ], [ -97.86767, 22.24692 ], [ -97.86696, 22.24452 ], [ -97.86651, 22.23862 ], [ -97.86415, 22.22996 ], [ -97.86501, 22.22742 ], [ -97.86349, 22.22352 ], [ -97.86327, 22.2206 ], [ -97.86265, 22.21941 ], [ -97.85932, 22.21798 ], [ -97.86102, 22.21456 ], [ -97.86353, 22.21564 ], [ -97.86263, 22.21748 ], [ -97.85842, 22.21568 ], [ -97.85879, 22.21484 ], [ -97.85958, 22.21516 ], [ -97.85958, 22.21516 ], [ -97.85806, 22.21842 ], [ -97.86149, 22.21987 ], [ -97.86329, 22.22072 ], [ -97.86349, 22.22352 ], [ -97.86501, 22.22742 ], [ -97.86578, 22.2296 ], [ -97.86911, 22.2377 ], [ -97.87299, 22.24658 ], [ -97.87419, 22.24821 ], [ -97.87505, 22.25038 ], [ -97.87655, 22.25637 ], [ -97.87492, 22.26475 ], [ -97.87376, 22.26718 ], [ -97.87394, 22.27015 ], [ -97.87458, 22.27238 ], [ -97.87441, 22.27403 ], [ -97.87291, 22.28004 ], [ -97.87273, 22.28231 ], [ -97.87406, 22.28457 ], [ -97.87218, 22.28916 ], [ -97.87211, 22.28997 ], [ -97.87325, 22.2911 ], [ -97.88175, 22.30484 ], [ -97.88181, 22.30619 ], [ -97.88061, 22.31006 ], [ -97.87939, 22.31395 ], [ -97.87385, 22.33106 ], [ -97.87316, 22.33527 ], [ -97.87479, 22.34101 ], [ -97.87585, 22.34474 ], [ -97.87677, 22.34629 ], [ -97.88007, 22.34942 ], [ -97.88316, 22.35105 ], [ -97.8872, 22.35422 ], [ -97.90031, 22.36837 ], [ -97.90275, 22.37085 ], [ -97.90664, 22.37462 ], [ -97.91264, 22.38069 ], [ -97.91747, 22.38546 ], [ -97.91992, 22.38702 ], [ -97.92176, 22.38845 ], [ -97.92264, 22.38998 ], [ -97.9238, 22.39044 ], [ -97.92962, 22.39171 ], [ -97.93344, 22.39536 ], [ -97.9367, 22.39593 ], [ -97.93779, 22.39641 ], [ -97.93801, 22.39722 ], [ -97.93784, 22.39899 ], [ -97.94063, 22.3993 ], [ -97.94075, 22.39851 ], [ -97.94086, 22.39617 ], [ -97.94139, 22.39229 ], [ -97.94184, 22.38853 ], [ -97.94251, 22.38849 ], [ -97.94335, 22.38843 ], [ -97.94435, 22.38874 ], [ -97.94453, 22.3876 ], [ -97.94509, 22.38763 ], [ -97.94519, 22.38702 ], [ -97.94706, 22.38726 ], [ -97.94709, 22.3867 ], [ -97.94792, 22.38679 ], [ -97.95004, 22.38728 ], [ -97.95147, 22.39031 ], [ -97.95062, 22.39125 ], [ -97.95111, 22.39156 ], [ -97.95044, 22.39243 ], [ -97.95021, 22.39478 ], [ -97.94911, 22.39544 ], [ -97.94834, 22.39516 ], [ -97.94756, 22.39456 ], [ -97.94773, 22.39258 ], [ -97.94902, 22.39268 ], [ -97.95035, 22.3929 ] ] } }
]
}
