{
"type": "FeatureCollection",
"name": "shape_57",
"crs": { "type": "name", "properties": { "name": "urn:ogc:def:crs:OGC:1.3:CRS84" } },
"features": [
{ "type": "Feature", "properties": { "data.route.shortName": "57", "data.route.longName": "Tancol", "shape_id": "shape_57" }, "geometry": { "type": "LineString", "coordinates": [ [ -97.88248, 22.31784 ], [ -97.88565, 22.31782 ], [ -97.88565, 22.31719 ], [ -97.88675, 22.31457 ], [ -97.88726, 22.31118 ], [ -97.89051, 22.31111 ], [ -97.89197, 22.30905 ], [ -97.8935, 22.30636 ], [ -97.89363, 22.306 ], [ -97.89259, 22.30524 ], [ -97.89614, 22.30129 ], [ -97.89325, 22.29918 ], [ -97.89283, 22.29995 ], [ -97.89281, 22.30005 ], [ -97.89205, 22.30039 ], [ -97.89173, 22.30049 ], [ -97.89054, 22.3023 ], [ -97.8904, 22.30226 ], [ -97.89024, 22.30254 ], [ -97.88922, 22.30204 ], [ -97.88896, 22.30347 ], [ -97.88863, 22.30323 ], [ -97.88617, 22.30196 ], [ -97.8878, 22.29915 ], [ -97.88977, 22.29807 ], [ -97.88944, 22.29742 ], [ -97.88989, 22.29717 ], [ -97.88825, 22.29633 ], [ -97.88642, 22.29546 ], [ -97.88202, 22.29511 ], [ -97.88024, 22.29445 ], [ -97.87959, 22.29453 ], [ -97.87653, 22.2963 ], [ -97.87381, 22.29197 ], [ -97.8733, 22.29104 ], [ -97.87304, 22.28965 ], [ -97.87294, 22.28887 ], [ -97.87338, 22.28715 ], [ -97.87392, 22.28543 ], [ -97.87383, 22.28384 ], [ -97.87303, 22.2826 ], [ -97.87295, 22.28022 ], [ -97.87329, 22.27774 ], [ -97.87464, 22.27278 ], [ -97.87366, 22.26948 ], [ -97.87372, 22.26702 ], [ -97.87494, 22.26457 ], [ -97.87664, 22.25743 ], [ -97.87653, 22.25498 ], [ -97.87402, 22.24797 ], [ -97.87155, 22.24333 ], [ -97.86801, 22.23532 ], [ -97.86458, 22.22642 ], [ -97.86344, 22.2234 ], [ -97.86321, 22.2215 ], [ -97.85581, 22.21837 ], [ -97.85541, 22.21916 ], [ -97.85541, 22.21916 ], [ -97.8572, 22.21996 ], [ -97.86336, 22.22264 ], [ -97.86344, 22.2234 ], [ -97.86458, 22.22642 ], [ -97.86801, 22.23532 ], [ -97.87155, 22.24333 ], [ -97.87402, 22.24797 ], [ -97.87653, 22.25498 ], [ -97.87664, 22.25743 ], [ -97.87494, 22.26457 ], [ -97.87372, 22.26702 ], [ -97.87366, 22.26948 ], [ -97.87464, 22.27278 ], [ -97.87329, 22.27774 ], [ -97.87295, 22.28022 ], [ -97.87303, 22.2826 ], [ -97.87383, 22.28384 ], [ -97.87392, 22.28543 ], [ -97.87338, 22.28715 ], [ -97.87294, 22.28887 ], [ -97.87304, 22.28965 ], [ -97.8733, 22.29104 ], [ -97.87381, 22.29197 ], [ -97.87653, 22.2963 ], [ -97.87959, 22.29453 ], [ -97.88024, 22.29445 ], [ -97.88202, 22.29511 ], [ -97.88642, 22.29546 ], [ -97.88825, 22.29633 ], [ -97.88989, 22.29717 ], [ -97.88944, 22.29742 ], [ -97.88977, 22.29807 ], [ -97.8878, 22.29915 ], [ -97.88617, 22.30196 ], [ -97.88863, 22.30323 ], [ -97.88896, 22.30347 ], [ -97.88922, 22.30204 ], [ -97.89024, 22.30254 ], [ -97.8904, 22.30226 ], [ -97.89054, 22.3023 ], [ -97.89173, 22.30049 ], [ -97.89205, 22.30039 ], [ -97.89281, 22.30005 ], [ -97.89283, 22.29995 ], [ -97.89325, 22.29918 ], [ -97.89614, 22.30129 ], [ -97.89259, 22.30524 ], [ -97.89363, 22.306 ], [ -97.8935, 22.30636 ], [ -97.89197, 22.30905 ], [ -97.89051, 22.31111 ], [ -97.88726, 22.31118 ], [ -97.88675, 22.31457 ], [ -97.88565, 22.31719 ], [ -97.8847, 22.31736 ], [ -97.88426, 22.31739 ], [ -97.88423, 22.31781 ] ] } }
]
}
