{
"type": "FeatureCollection",
"name": "shape_47",
"crs": { "type": "name", "properties": { "name": "urn:ogc:def:crs:OGC:1.3:CRS84" } },
"features": [
{ "type": "Feature", "properties": { "data.route.shortName": "47", "data.route.longName": "Cetir 78 Bosques por Boulevard", "shape_id": "shape_47" }, "geometry": { "type": "LineString", "coordinates": [ [ -97.88127, 22.33138 ], [ -97.8811, 22.32638 ], [ -97.88565, 22.32618 ], [ -97.88685, 22.32344 ], [ -97.88263, 22.323 ], [ -97.8763, 22.32342 ], [ -97.88177, 22.30601 ], [ -97.88153, 22.30456 ], [ -97.87325, 22.29118 ], [ -97.87312, 22.28957 ], [ -97.87022, 22.28785 ], [ -97.86591, 22.28495 ], [ -97.86291, 22.28137 ], [ -97.85737, 22.27641 ], [ -97.85437, 22.27387 ], [ -97.85218, 22.27291 ], [ -97.85065, 22.27268 ], [ -97.84737, 22.26966 ], [ -97.85111, 22.26021 ], [ -97.85419, 22.25185 ], [ -97.85479, 22.25063 ], [ -97.85458, 22.24809 ], [ -97.85516, 22.24714 ], [ -97.85535, 22.24309 ], [ -97.85484, 22.24195 ], [ -97.85316, 22.23856 ], [ -97.84999, 22.23715 ], [ -97.84934, 22.23647 ], [ -97.84776, 22.23236 ], [ -97.84662, 22.23053 ], [ -97.84683, 22.22916 ], [ -97.85422, 22.21562 ], [ -97.85602, 22.21202 ], [ -97.85777, 22.2127 ], [ -97.85776, 22.21269 ], [ -97.85712, 22.21403 ], [ -97.85626, 22.21365 ], [ -97.85675, 22.21279 ], [ -97.85585, 22.21248 ], [ -97.85484, 22.21228 ], [ -97.85244, 22.21679 ], [ -97.85338, 22.21717 ], [ -97.84683, 22.22916 ], [ -97.84662, 22.23053 ], [ -97.84776, 22.23236 ], [ -97.84934, 22.23647 ], [ -97.84999, 22.23715 ], [ -97.85316, 22.23856 ], [ -97.85484, 22.24195 ], [ -97.85535, 22.24309 ], [ -97.85516, 22.24714 ], [ -97.85458, 22.24809 ], [ -97.85479, 22.25063 ], [ -97.85419, 22.25185 ], [ -97.85111, 22.26021 ], [ -97.84737, 22.26966 ], [ -97.85065, 22.27268 ], [ -97.85218, 22.27291 ], [ -97.85437, 22.27387 ], [ -97.85737, 22.27641 ], [ -97.86291, 22.28137 ], [ -97.86591, 22.28495 ], [ -97.87022, 22.28785 ], [ -97.87312, 22.28957 ], [ -97.87325, 22.29118 ], [ -97.88153, 22.30456 ], [ -97.88177, 22.30601 ], [ -97.8763, 22.32342 ], [ -97.88263, 22.323 ], [ -97.88685, 22.32344 ], [ -97.88565, 22.32618 ], [ -97.88106, 22.32638 ], [ -97.8813, 22.33146 ] ] } }
]
}
