{
"type": "FeatureCollection",
"name": "shape_109A",
"crs": { "type": "name", "properties": { "name": "urn:ogc:def:crs:OGC:1.3:CRS84" } },
"features": [
{ "type": "Feature", "properties": { "data.route.shortName": "109A", "data.route.longName": "Aldama - Lomas del Real - Tampico por Av. Hidalgo y Ayuntamiento", "shape_id": "shape_109A" }, "geometry": { "type": "LineString", "coordinates": [ [ -97.89333, 22.43547 ], [ -97.88619, 22.42414 ], [ -97.88503, 22.4221 ], [ -97.88473, 22.42005 ], [ -97.88677, 22.41406 ], [ -97.897, 22.38571 ], [ -97.90044, 22.38167 ], [ -97.90181, 22.37689 ], [ -97.90342, 22.37448 ], [ -97.90411, 22.37319 ], [ -97.90355, 22.37155 ], [ -97.89818, 22.36625 ], [ -97.88724, 22.35418 ], [ -97.88372, 22.35139 ], [ -97.88267, 22.35093 ], [ -97.88012, 22.3494 ], [ -97.8767, 22.34629 ], [ -97.87589, 22.34472 ], [ -97.87319, 22.33525 ], [ -97.87391, 22.33142 ], [ -97.88181, 22.30615 ], [ -97.8817, 22.3049 ], [ -97.88142, 22.30399 ], [ -97.87327, 22.2911 ], [ -97.87312, 22.28957 ], [ -97.87299, 22.2881 ], [ -97.87389, 22.28558 ], [ -97.87385, 22.28435 ], [ -97.87299, 22.28233 ], [ -97.87306, 22.27937 ], [ -97.874, 22.27546 ], [ -97.87479, 22.27258 ], [ -97.87381, 22.27031 ], [ -97.87374, 22.26702 ], [ -97.8746, 22.26537 ], [ -97.87657, 22.25745 ], [ -97.87642, 22.25514 ], [ -97.8743, 22.24883 ], [ -97.87155, 22.24331 ], [ -97.8673, 22.23353 ], [ -97.86338, 22.22344 ], [ -97.86321, 22.22064 ], [ -97.85799, 22.2184 ], [ -97.85967, 22.21519 ], [ -97.85967, 22.21519 ], [ -97.85879, 22.21476 ], [ -97.85836, 22.21562 ], [ -97.86262, 22.21749 ], [ -97.86346, 22.21568 ], [ -97.86095, 22.21454 ], [ -97.85926, 22.21792 ], [ -97.86267, 22.21943 ], [ -97.86321, 22.22064 ], [ -97.86338, 22.22344 ], [ -97.86509, 22.2275 ], [ -97.86406, 22.2298 ], [ -97.86531, 22.23445 ], [ -97.86627, 22.23721 ], [ -97.86709, 22.24275 ], [ -97.867, 22.24442 ], [ -97.86726, 22.24573 ], [ -97.86765, 22.24706 ], [ -97.8672, 22.24948 ], [ -97.86673, 22.25121 ], [ -97.8648, 22.25445 ], [ -97.86475, 22.25526 ], [ -97.86376, 22.25752 ], [ -97.86047, 22.26339 ], [ -97.85939, 22.26714 ], [ -97.85638, 22.27544 ], [ -97.85857, 22.27754 ], [ -97.86286, 22.28135 ], [ -97.86574, 22.28469 ], [ -97.87054, 22.28822 ], [ -97.87291, 22.28957 ], [ -97.87327, 22.2911 ], [ -97.88142, 22.30399 ], [ -97.8817, 22.3049 ], [ -97.88181, 22.30615 ], [ -97.87391, 22.33142 ], [ -97.87319, 22.33525 ], [ -97.87589, 22.34472 ], [ -97.8767, 22.34629 ], [ -97.88012, 22.3494 ], [ -97.88267, 22.35093 ], [ -97.88372, 22.35139 ], [ -97.88724, 22.35418 ], [ -97.89818, 22.36625 ], [ -97.90355, 22.37155 ], [ -97.90411, 22.37319 ], [ -97.90342, 22.37448 ], [ -97.90181, 22.37689 ], [ -97.90044, 22.38167 ], [ -97.897, 22.38571 ], [ -97.88677, 22.41406 ], [ -97.88473, 22.42005 ], [ -97.88503, 22.4221 ], [ -97.88619, 22.42414 ] ] } }
]
}
