{
"type": "FeatureCollection",
"name": "shape_51",
"crs": { "type": "name", "properties": { "name": "urn:ogc:def:crs:OGC:1.3:CRS84" } },
"features": [
{ "type": "Feature", "properties": { "data.route.shortName": "51", "data.route.longName": "Serapio Venegas por Boulevard", "shape_id": "shape_51" }, "geometry": { "type": "LineString", "coordinates": [ [ -97.85731, 22.33503 ], [ -97.86384, 22.33276 ], [ -97.86768, 22.34204 ], [ -97.86865, 22.34167 ], [ -97.86443, 22.33157 ], [ -97.86815, 22.33025 ], [ -97.86859, 22.33128 ], [ -97.87324, 22.32964 ], [ -97.87256, 22.3274 ], [ -97.87216, 22.32646 ], [ -97.8707, 22.32448 ], [ -97.87007, 22.32367 ], [ -97.86956, 22.32157 ], [ -97.86845, 22.31702 ], [ -97.86906, 22.30719 ], [ -97.86376, 22.3071 ], [ -97.86315, 22.30734 ], [ -97.86266, 22.30625 ], [ -97.86156, 22.30354 ], [ -97.85761, 22.30497 ], [ -97.8544, 22.29716 ], [ -97.85246, 22.29252 ], [ -97.84984, 22.28578 ], [ -97.84531, 22.27471 ], [ -97.84568, 22.27431 ], [ -97.85304, 22.2551 ], [ -97.85426, 22.25157 ], [ -97.85492, 22.25059 ], [ -97.85462, 22.24797 ], [ -97.8552, 22.247 ], [ -97.85537, 22.24327 ], [ -97.85512, 22.24225 ], [ -97.85402, 22.24078 ], [ -97.85323, 22.23878 ], [ -97.85261, 22.23804 ], [ -97.84982, 22.23709 ], [ -97.84879, 22.23492 ], [ -97.8478, 22.2325 ], [ -97.84666, 22.23073 ], [ -97.84679, 22.22928 ], [ -97.85604, 22.21206 ], [ -97.85777, 22.2127 ], [ -97.85799, 22.21218 ], [ -97.85799, 22.21218 ], [ -97.85777, 22.2127 ], [ -97.85694, 22.21242 ], [ -97.85672, 22.21283 ], [ -97.85582, 22.21244 ], [ -97.8549, 22.21233 ], [ -97.85241, 22.2168 ], [ -97.8533, 22.21723 ], [ -97.84679, 22.22928 ], [ -97.84666, 22.23073 ], [ -97.84776, 22.23234 ], [ -97.84819, 22.23329 ], [ -97.84879, 22.23492 ], [ -97.84982, 22.23709 ], [ -97.85261, 22.23804 ], [ -97.85323, 22.23878 ], [ -97.85402, 22.24078 ], [ -97.85512, 22.24225 ], [ -97.85537, 22.24327 ], [ -97.8552, 22.247 ], [ -97.85462, 22.24797 ], [ -97.85492, 22.25059 ], [ -97.85426, 22.25157 ], [ -97.85304, 22.2551 ], [ -97.84568, 22.27431 ], [ -97.84563, 22.2745 ], [ -97.84984, 22.28578 ], [ -97.85295, 22.29219 ], [ -97.85256, 22.29263 ], [ -97.8544, 22.29716 ], [ -97.85761, 22.30497 ], [ -97.86156, 22.30354 ], [ -97.86266, 22.30625 ], [ -97.86315, 22.30734 ], [ -97.86376, 22.3071 ], [ -97.86906, 22.30719 ], [ -97.86845, 22.31702 ], [ -97.86956, 22.32157 ], [ -97.87007, 22.32367 ], [ -97.8707, 22.32448 ], [ -97.87216, 22.32646 ], [ -97.87256, 22.3274 ], [ -97.87324, 22.32964 ], [ -97.86859, 22.33128 ], [ -97.86815, 22.33025 ], [ -97.86443, 22.33157 ], [ -97.86865, 22.34167 ], [ -97.86768, 22.34204 ], [ -97.86387, 22.33281 ], [ -97.85737, 22.33513 ] ] } }
]
}
