{
"type": "FeatureCollection",
"name": "shape_100",
"crs": { "type": "name", "properties": { "name": "urn:ogc:def:crs:OGC:1.3:CRS84" } },
"features": [
{ "type": "Feature", "properties": { "data.route.shortName": "100", "data.route.longName": "Infonavit - Altamira - Tampico por Av. Hidalgo y Ayuntamiento", "shape_id": "shape_100" }, "geometry": { "type": "LineString", "coordinates": [ [ -97.95037, 22.39286 ], [ -97.94771, 22.39262 ], [ -97.9475, 22.39448 ], [ -97.94826, 22.39515 ], [ -97.94917, 22.39545 ], [ -97.95021, 22.39481 ], [ -97.95041, 22.39266 ], [ -97.95043, 22.39239 ], [ -97.9517, 22.39081 ], [ -97.95029, 22.38777 ], [ -97.94702, 22.38722 ], [ -97.94696, 22.38784 ], [ -97.94449, 22.38761 ], [ -97.9444, 22.38858 ], [ -97.94288, 22.38836 ], [ -97.94246, 22.38858 ], [ -97.94182, 22.38852 ], [ -97.94156, 22.39112 ], [ -97.94073, 22.39756 ], [ -97.94079, 22.39846 ], [ -97.94061, 22.39936 ], [ -97.93781, 22.39898 ], [ -97.938, 22.39709 ], [ -97.93777, 22.39644 ], [ -97.93703, 22.39601 ], [ -97.93386, 22.39547 ], [ -97.93316, 22.39513 ], [ -97.93033, 22.3923 ], [ -97.92973, 22.39181 ], [ -97.92443, 22.3906 ], [ -97.9237, 22.39044 ], [ -97.92293, 22.39019 ], [ -97.92244, 22.38964 ], [ -97.9221, 22.38892 ], [ -97.92158, 22.38828 ], [ -97.92037, 22.38734 ], [ -97.91906, 22.38696 ], [ -97.9123, 22.3804 ], [ -97.9078, 22.37583 ], [ -97.90378, 22.37177 ], [ -97.89994, 22.36804 ], [ -97.88986, 22.35704 ], [ -97.88698, 22.35399 ], [ -97.88344, 22.35117 ], [ -97.88022, 22.34952 ], [ -97.87816, 22.34779 ], [ -97.87649, 22.34583 ], [ -97.8758, 22.34456 ], [ -97.87336, 22.33636 ], [ -97.87314, 22.33523 ], [ -97.87557, 22.32602 ], [ -97.8811, 22.30857 ], [ -97.88175, 22.30651 ], [ -97.88155, 22.30448 ], [ -97.87331, 22.29108 ], [ -97.87295, 22.28822 ], [ -97.87406, 22.28525 ], [ -97.87295, 22.28247 ], [ -97.87308, 22.27907 ], [ -97.874, 22.27536 ], [ -97.87473, 22.27266 ], [ -97.87368, 22.27 ], [ -97.87378, 22.2669 ], [ -97.87458, 22.26543 ], [ -97.87615, 22.25949 ], [ -97.87664, 22.25729 ], [ -97.87612, 22.25377 ], [ -97.87437, 22.24887 ], [ -97.87308, 22.24648 ], [ -97.87057, 22.24114 ], [ -97.86769, 22.23441 ], [ -97.86434, 22.22589 ], [ -97.86336, 22.22316 ], [ -97.86321, 22.22064 ], [ -97.86271, 22.21943 ], [ -97.85924, 22.21794 ], [ -97.86004, 22.21634 ], [ -97.86099, 22.21459 ], [ -97.86349, 22.21568 ], [ -97.86267, 22.21748 ], [ -97.85842, 22.21563 ], [ -97.85881, 22.21473 ], [ -97.85968, 22.21519 ], [ -97.85968, 22.21519 ], [ -97.85885, 22.21663 ], [ -97.85799, 22.2184 ], [ -97.86228, 22.22026 ], [ -97.86321, 22.22064 ], [ -97.86336, 22.22316 ], [ -97.86434, 22.22589 ], [ -97.86503, 22.22738 ], [ -97.86413, 22.2298 ], [ -97.8655, 22.23486 ], [ -97.86662, 22.23882 ], [ -97.86713, 22.24279 ], [ -97.86707, 22.24487 ], [ -97.86764, 22.24702 ], [ -97.86716, 22.25014 ], [ -97.8655, 22.25316 ], [ -97.86475, 22.25457 ], [ -97.86462, 22.2556 ], [ -97.86263, 22.25943 ], [ -97.86068, 22.2632 ], [ -97.8563, 22.27546 ], [ -97.85443, 22.27399 ], [ -97.85434, 22.27419 ], [ -97.85589, 22.27627 ], [ -97.85681, 22.27704 ], [ -97.85926, 22.27816 ], [ -97.86282, 22.28112 ], [ -97.86577, 22.28479 ], [ -97.8707, 22.28846 ], [ -97.87331, 22.29108 ], [ -97.88155, 22.30448 ], [ -97.88175, 22.30651 ], [ -97.8811, 22.30857 ], [ -97.87557, 22.32602 ], [ -97.87314, 22.33523 ], [ -97.87336, 22.33636 ], [ -97.8758, 22.34456 ], [ -97.87649, 22.34583 ], [ -97.87816, 22.34779 ], [ -97.88022, 22.34952 ], [ -97.88344, 22.35117 ], [ -97.88698, 22.35399 ], [ -97.88986, 22.35704 ], [ -97.89994, 22.36804 ], [ -97.90378, 22.37177 ], [ -97.9078, 22.37583 ], [ -97.9123, 22.3804 ], [ -97.91906, 22.38696 ], [ -97.92037, 22.38734 ], [ -97.92158, 22.38828 ], [ -97.9221, 22.38892 ], [ -97.92244, 22.38964 ], [ -97.92293, 22.39019 ], [ -97.9237, 22.39044 ], [ -97.92443, 22.3906 ], [ -97.92973, 22.39181 ], [ -97.93033, 22.3923 ], [ -97.93316, 22.39513 ], [ -97.93386, 22.39547 ], [ -97.93703, 22.39601 ], [ -97.93777, 22.39644 ], [ -97.938, 22.39709 ], [ -97.93781, 22.39898 ], [ -97.94061, 22.39936 ], [ -97.94079, 22.39846 ], [ -97.94073, 22.39756 ], [ -97.94156, 22.39112 ], [ -97.94182, 22.38852 ], [ -97.94246, 22.38858 ], [ -97.94288, 22.38836 ], [ -97.9444, 22.38858 ], [ -97.94449, 22.38761 ], [ -97.94696, 22.38784 ], [ -97.94702, 22.38722 ], [ -97.95029, 22.38777 ], [ -97.9517, 22.39081 ], [ -97.95043, 22.39239 ], [ -97.95041, 22.39266 ], [ -97.95021, 22.39481 ], [ -97.94917, 22.39545 ], [ -97.94826, 22.39515 ], [ -97.9475, 22.39448 ], [ -97.94771, 22.39262 ] ] } }
]
}
