{
"type": "FeatureCollection",
"name": "shape_59",
"crs": { "type": "name", "properties": { "name": "urn:ogc:def:crs:OGC:1.3:CRS84" } },
"features": [
{ "type": "Feature", "properties": { "data.route.shortName": "59", "data.route.longName": "Águila - Madero", "shape_id": "shape_59" }, "geometry": { "type": "LineString", "coordinates": [ [ -97.8727, 22.24762 ], [ -97.87185, 22.24809 ], [ -97.87145, 22.24736 ], [ -97.86721, 22.2494 ], [ -97.86597, 22.24993 ], [ -97.86357, 22.25062 ], [ -97.85357, 22.25355 ], [ -97.85168, 22.25409 ], [ -97.83523, 22.24485 ], [ -97.83433, 22.24626 ], [ -97.83433, 22.24626 ], [ -97.83553, 22.24694 ], [ -97.85003, 22.25461 ], [ -97.85357, 22.25355 ], [ -97.86357, 22.25062 ], [ -97.86597, 22.24993 ], [ -97.87233, 22.24696 ], [ -97.87269, 22.24762 ] ] } }
]
}
