{
"type": "FeatureCollection",
"name": "shape_101A",
"crs": { "type": "name", "properties": { "name": "urn:ogc:def:crs:OGC:1.3:CRS84" } },
"features": [
{ "type": "Feature", "properties": { "data.route.shortName": "101A", "data.route.longName": "Nuevo Madero - Tampico por Ayuntamiento y Av. Hidalgo Zona Conurbada Tampico - Madero - Altamira", "shape_id": "shape_101A" }, "geometry": { "type": "LineString", "coordinates": [ [ -97.8485, 22.346 ], [ -97.84819, 22.34414 ], [ -97.84916, 22.34396 ], [ -97.84956, 22.34634 ], [ -97.84989, 22.34818 ], [ -97.85036, 22.3481 ], [ -97.8505, 22.34868 ], [ -97.84929, 22.34888 ], [ -97.85032, 22.35398 ], [ -97.85139, 22.35382 ], [ -97.85161, 22.35472 ], [ -97.85487, 22.35414 ], [ -97.85363, 22.34772 ], [ -97.85468, 22.34749 ], [ -97.86357, 22.34597 ], [ -97.86374, 22.34575 ], [ -97.86449, 22.34278 ], [ -97.8653, 22.34293 ], [ -97.8677, 22.34205 ], [ -97.86861, 22.3417 ], [ -97.87433, 22.3397 ], [ -97.87571, 22.3442 ], [ -97.87613, 22.34543 ], [ -97.87645, 22.34596 ], [ -97.87711, 22.34674 ], [ -97.87817, 22.34783 ], [ -97.87824, 22.34771 ], [ -97.87716, 22.34656 ], [ -97.87649, 22.3458 ], [ -97.87627, 22.34542 ], [ -97.8759, 22.3443 ], [ -97.87454, 22.33964 ], [ -97.87385, 22.33741 ], [ -97.87319, 22.33527 ], [ -97.87387, 22.33132 ], [ -97.88014, 22.31137 ], [ -97.88179, 22.30595 ], [ -97.88173, 22.3046 ], [ -97.87327, 22.29096 ], [ -97.87303, 22.28965 ], [ -97.87164, 22.28884 ], [ -97.87012, 22.28779 ], [ -97.86557, 22.28463 ], [ -97.86316, 22.28169 ], [ -97.86209, 22.2805 ], [ -97.85626, 22.27546 ], [ -97.85904, 22.26849 ], [ -97.85962, 22.26626 ], [ -97.86035, 22.26378 ], [ -97.86072, 22.26303 ], [ -97.86211, 22.26019 ], [ -97.86396, 22.25713 ], [ -97.86467, 22.2552 ], [ -97.86475, 22.25433 ], [ -97.86565, 22.25312 ], [ -97.86679, 22.25095 ], [ -97.86722, 22.24944 ], [ -97.86763, 22.24698 ], [ -97.86696, 22.24438 ], [ -97.86705, 22.24271 ], [ -97.86623, 22.23719 ], [ -97.8652, 22.23433 ], [ -97.86413, 22.23002 ], [ -97.8649, 22.22742 ], [ -97.86349, 22.22366 ], [ -97.86321, 22.22066 ], [ -97.86271, 22.21943 ], [ -97.85926, 22.21792 ], [ -97.86095, 22.21458 ], [ -97.86349, 22.21566 ], [ -97.86258, 22.21748 ], [ -97.85834, 22.21564 ], [ -97.85885, 22.21482 ], [ -97.8596, 22.21516 ], [ -97.8596, 22.21516 ], [ -97.85801, 22.21842 ], [ -97.86321, 22.22066 ], [ -97.86349, 22.22366 ], [ -97.8649, 22.22742 ], [ -97.86576, 22.2295 ], [ -97.86419, 22.23026 ], [ -97.86278, 22.23073 ], [ -97.86364, 22.23349 ], [ -97.86342, 22.23377 ], [ -97.86355, 22.23822 ], [ -97.86359, 22.24118 ], [ -97.86417, 22.2412 ], [ -97.86432, 22.2415 ], [ -97.86625, 22.24128 ], [ -97.86649, 22.24609 ], [ -97.86651, 22.24758 ], [ -97.86602, 22.24994 ], [ -97.8625, 22.25095 ], [ -97.86267, 22.25262 ], [ -97.86194, 22.25459 ], [ -97.86151, 22.25528 ], [ -97.86057, 22.25723 ], [ -97.85992, 22.25891 ], [ -97.86059, 22.25983 ], [ -97.86201, 22.2604 ], [ -97.86072, 22.26303 ], [ -97.86035, 22.26378 ], [ -97.85962, 22.26626 ], [ -97.85904, 22.26849 ], [ -97.85628, 22.27538 ], [ -97.85462, 22.27442 ], [ -97.85617, 22.27675 ], [ -97.85919, 22.2781 ], [ -97.86209, 22.2805 ], [ -97.86316, 22.28169 ], [ -97.86557, 22.28463 ], [ -97.87012, 22.28779 ], [ -97.87164, 22.28884 ], [ -97.87303, 22.28965 ], [ -97.87327, 22.29096 ], [ -97.88173, 22.3046 ], [ -97.88179, 22.30595 ], [ -97.88014, 22.31137 ], [ -97.87387, 22.33132 ], [ -97.87319, 22.33527 ], [ -97.87385, 22.33741 ], [ -97.87423, 22.3393 ], [ -97.87433, 22.3397 ], [ -97.86861, 22.3417 ], [ -97.8677, 22.34205 ], [ -97.8653, 22.34293 ], [ -97.86449, 22.34278 ], [ -97.86374, 22.34575 ], [ -97.86357, 22.34597 ], [ -97.85468, 22.34749 ], [ -97.85363, 22.34772 ], [ -97.85487, 22.35414 ], [ -97.85161, 22.35472 ], [ -97.85139, 22.35382 ], [ -97.85032, 22.35398 ], [ -97.84929, 22.34888 ], [ -97.8505, 22.34868 ], [ -97.85036, 22.3481 ], [ -97.84989, 22.34818 ], [ -97.84956, 22.34634 ], [ -97.84916, 22.34396 ], [ -97.84819, 22.34414 ], [ -97.84851, 22.34601 ] ] } }
]
}
