{
"type": "FeatureCollection",
"name": "shape_34",
"crs": { "type": "name", "properties": { "name": "urn:ogc:def:crs:OGC:1.3:CRS84" } },
"features": [
{ "type": "Feature", "properties": { "data.route.shortName": "34", "data.route.longName": "Las flores - Madero -", "shape_id": "shape_34" }, "geometry": { "type": "LineString", "coordinates": [ [ -97.84274, 22.29964 ], [ -97.84246, 22.29483 ], [ -97.83805, 22.29609 ], [ -97.83715, 22.29336 ], [ -97.83671, 22.29199 ], [ -97.83644, 22.29065 ], [ -97.83632, 22.2887 ], [ -97.83529, 22.28879 ], [ -97.83489, 22.28842 ], [ -97.83455, 22.27705 ], [ -97.83889, 22.27692 ], [ -97.83365, 22.26092 ], [ -97.83373, 22.26081 ], [ -97.83195, 22.25899 ], [ -97.83262, 22.25843 ], [ -97.82961, 22.2554 ], [ -97.83545, 22.25038 ], [ -97.83575, 22.25112 ], [ -97.83605, 22.25101 ], [ -97.8367, 22.2505 ], [ -97.83733, 22.24978 ], [ -97.83781, 22.24907 ], [ -97.84184, 22.24272 ], [ -97.84101, 22.24229 ], [ -97.84312, 22.23888 ], [ -97.84226, 22.23845 ], [ -97.84267, 22.23772 ], [ -97.84357, 22.23529 ], [ -97.84599, 22.22879 ], [ -97.85011, 22.21775 ], [ -97.84827, 22.21696 ], [ -97.85034, 22.21293 ], [ -97.85712, 22.21598 ], [ -97.85667, 22.21674 ], [ -97.85162, 22.21447 ], [ -97.85011, 22.21775 ], [ -97.85011, 22.21775 ], [ -97.85162, 22.21447 ], [ -97.85667, 22.21674 ], [ -97.85712, 22.21598 ], [ -97.85034, 22.21293 ], [ -97.84827, 22.21696 ], [ -97.85011, 22.21775 ], [ -97.84599, 22.22879 ], [ -97.84357, 22.23529 ], [ -97.84267, 22.23772 ], [ -97.84226, 22.23845 ], [ -97.84312, 22.23888 ], [ -97.84101, 22.24229 ], [ -97.83882, 22.24588 ], [ -97.83796, 22.24537 ], [ -97.83576, 22.24892 ], [ -97.83517, 22.24946 ], [ -97.83503, 22.24955 ], [ -97.8352, 22.24985 ], [ -97.83545, 22.25038 ], [ -97.82961, 22.2554 ], [ -97.83262, 22.25843 ], [ -97.83195, 22.25899 ], [ -97.83373, 22.26081 ], [ -97.83437, 22.2614 ], [ -97.83336, 22.26221 ], [ -97.83737, 22.27484 ], [ -97.83793, 22.27635 ], [ -97.83866, 22.27623 ], [ -97.83887, 22.27687 ], [ -97.83455, 22.27705 ], [ -97.83489, 22.28842 ], [ -97.83529, 22.28879 ], [ -97.83632, 22.2887 ], [ -97.83644, 22.29065 ], [ -97.83671, 22.29199 ], [ -97.83715, 22.29336 ], [ -97.83805, 22.29609 ], [ -97.84246, 22.29483 ] ] } }
]
}
