{
"type": "FeatureCollection",
"name": "shape_32",
"crs": { "type": "name", "properties": { "name": "urn:ogc:def:crs:OGC:1.3:CRS84" } },
"features": [
{ "type": "Feature", "properties": { "data.route.shortName": "32", "data.route.longName": "Madero - Heriberto Kehoe - Las Flores", "shape_id": "shape_32" }, "geometry": { "type": "LineString", "coordinates": [ [ -97.83832, 22.297 ], [ -97.83794, 22.29565 ], [ -97.8376, 22.29473 ], [ -97.83703, 22.29291 ], [ -97.83665, 22.29178 ], [ -97.83642, 22.29065 ], [ -97.83633, 22.28872 ], [ -97.83527, 22.28876 ], [ -97.83489, 22.28887 ], [ -97.83452, 22.27701 ], [ -97.83356, 22.27698 ], [ -97.83358, 22.27669 ], [ -97.83425, 22.27665 ], [ -97.83382, 22.27534 ], [ -97.83361, 22.27464 ], [ -97.82447, 22.26526 ], [ -97.82746, 22.26264 ], [ -97.83726, 22.25445 ], [ -97.83518, 22.24946 ], [ -97.83759, 22.24612 ], [ -97.8352, 22.24485 ], [ -97.83564, 22.24415 ], [ -97.83785, 22.24532 ], [ -97.8374, 22.246 ], [ -97.8374, 22.246 ], [ -97.83785, 22.24532 ], [ -97.83564, 22.24415 ], [ -97.8352, 22.24485 ], [ -97.83759, 22.24612 ], [ -97.83518, 22.24946 ], [ -97.83726, 22.25445 ], [ -97.82746, 22.26264 ], [ -97.82447, 22.26526 ], [ -97.83361, 22.27464 ], [ -97.83382, 22.27534 ], [ -97.83425, 22.27665 ], [ -97.83358, 22.27669 ], [ -97.83356, 22.27698 ], [ -97.83452, 22.27701 ], [ -97.83489, 22.28887 ], [ -97.83527, 22.28876 ], [ -97.83633, 22.28872 ], [ -97.83642, 22.29065 ], [ -97.83665, 22.29178 ], [ -97.83703, 22.29291 ], [ -97.8376, 22.29473 ], [ -97.83794, 22.29565 ] ] } }
]
}
