{
"type": "FeatureCollection",
"name": "shape_11",
"crs": { "type": "name", "properties": { "name": "urn:ogc:def:crs:OGC:1.3:CRS84" } },
"features": [
{ "type": "Feature", "properties": { "data.route.shortName": "11", "data.route.longName": "Tampico - Colonias - El Fuerte - Penal por Av. Hidalgo y Ayuntamiento", "shape_id": "shape_11" }, "geometry": { "type": "LineString", "coordinates": [ [ -98.07474, 22.43424 ], [ -98.07414, 22.43523 ], [ -98.06723, 22.44391 ], [ -98.06457, 22.44729 ], [ -98.06285, 22.4507 ], [ -98.05482, 22.44816 ], [ -98.01648, 22.43527 ], [ -98.01569, 22.44094 ], [ -98.01629, 22.44112 ], [ -98.01157, 22.47372 ], [ -98.01058, 22.47985 ], [ -98.00129, 22.47592 ], [ -97.99221, 22.47194 ], [ -97.99052, 22.47015 ], [ -97.97852, 22.4527 ], [ -97.97116, 22.44225 ], [ -97.94944, 22.42648 ], [ -97.94586, 22.42357 ], [ -97.9429, 22.41968 ], [ -97.94258, 22.41841 ], [ -97.94161, 22.41605 ], [ -97.93721, 22.40579 ], [ -97.93803, 22.39694 ], [ -97.9376, 22.39621 ], [ -97.93333, 22.39532 ], [ -97.92949, 22.39163 ], [ -97.92372, 22.39044 ], [ -97.92297, 22.39018 ], [ -97.92198, 22.38887 ], [ -97.92052, 22.38736 ], [ -97.91897, 22.38671 ], [ -97.90704, 22.37516 ], [ -97.90138, 22.36952 ], [ -97.88735, 22.35428 ], [ -97.88273, 22.35093 ], [ -97.87964, 22.34916 ], [ -97.87636, 22.34579 ], [ -97.87323, 22.33595 ], [ -97.87325, 22.33515 ], [ -97.87389, 22.33124 ], [ -97.88177, 22.30629 ], [ -97.88166, 22.30468 ], [ -97.87329, 22.29114 ], [ -97.87295, 22.28814 ], [ -97.87402, 22.28483 ], [ -97.87355, 22.28352 ], [ -97.87284, 22.28209 ], [ -97.87321, 22.27792 ], [ -97.87464, 22.27282 ], [ -97.8737, 22.26984 ], [ -97.87381, 22.26698 ], [ -97.8746, 22.26537 ], [ -97.87621, 22.25947 ], [ -97.8767, 22.25737 ], [ -97.87619, 22.25397 ], [ -97.87396, 22.24795 ], [ -97.87136, 22.24289 ], [ -97.86685, 22.23214 ], [ -97.86366, 22.2239 ], [ -97.86331, 22.22255 ], [ -97.86327, 22.22066 ], [ -97.86265, 22.21939 ], [ -97.85928, 22.2179 ], [ -97.86092, 22.21457 ], [ -97.86345, 22.21565 ], [ -97.86262, 22.21748 ], [ -97.85838, 22.21561 ], [ -97.85884, 22.21478 ], [ -97.85962, 22.21514 ], [ -97.85962, 22.21514 ], [ -97.85801, 22.21842 ], [ -97.86327, 22.22066 ], [ -97.86331, 22.22255 ], [ -97.86366, 22.2239 ], [ -97.86685, 22.23214 ], [ -97.87136, 22.24289 ], [ -97.87396, 22.24795 ], [ -97.87619, 22.25397 ], [ -97.8767, 22.25737 ], [ -97.87621, 22.25947 ], [ -97.8746, 22.26537 ], [ -97.87381, 22.26698 ], [ -97.8737, 22.26984 ], [ -97.87464, 22.27282 ], [ -97.87321, 22.27792 ], [ -97.87284, 22.28209 ], [ -97.87355, 22.28352 ], [ -97.87402, 22.28483 ], [ -97.87295, 22.28814 ], [ -97.87329, 22.29114 ], [ -97.88166, 22.30468 ], [ -97.88177, 22.30629 ], [ -97.87389, 22.33124 ], [ -97.87325, 22.33515 ], [ -97.87323, 22.33595 ], [ -97.87636, 22.34579 ], [ -97.87964, 22.34916 ], [ -97.88273, 22.35093 ], [ -97.88735, 22.35428 ], [ -97.90138, 22.36952 ], [ -97.90704, 22.37516 ], [ -97.91897, 22.38671 ], [ -97.92052, 22.38736 ], [ -97.92198, 22.38887 ], [ -97.92297, 22.39018 ], [ -97.92372, 22.39044 ], [ -97.92949, 22.39163 ], [ -97.93333, 22.39532 ], [ -97.9376, 22.39621 ], [ -97.93803, 22.39694 ], [ -97.93721, 22.40579 ], [ -97.94161, 22.41605 ], [ -97.94258, 22.41841 ], [ -97.9429, 22.41968 ], [ -97.94586, 22.42357 ], [ -97.94944, 22.42648 ], [ -97.97116, 22.44225 ], [ -97.97852, 22.4527 ], [ -97.99052, 22.47015 ], [ -97.99221, 22.47194 ], [ -98.00129, 22.47592 ], [ -98.01058, 22.47985 ], [ -98.01157, 22.47372 ], [ -98.01629, 22.44112 ], [ -98.01569, 22.44094 ], [ -98.01648, 22.43527 ], [ -98.05482, 22.44816 ], [ -98.06285, 22.4507 ], [ -98.06457, 22.44729 ], [ -98.06723, 22.44391 ], [ -98.07414, 22.43523 ] ] } }
]
}
