{
"type": "FeatureCollection",
"name": "shape_42",
"crs": { "type": "name", "properties": { "name": "urn:ogc:def:crs:OGC:1.3:CRS84" } },
"features": [
{ "type": "Feature", "properties": { "data.route.shortName": "42", "data.route.longName": "Pedro José Méndez - Carnitas Orta", "shape_id": "shape_42" }, "geometry": { "type": "LineString", "coordinates": [ [ -97.88942, 22.31387 ], [ -97.8896, 22.31331 ], [ -97.88986, 22.31187 ], [ -97.88214, 22.31207 ], [ -97.88207, 22.30843 ], [ -97.88062, 22.30862 ], [ -97.87649, 22.30884 ], [ -97.87381, 22.30899 ], [ -97.86899, 22.30875 ], [ -97.86904, 22.30719 ], [ -97.86378, 22.3071 ], [ -97.86315, 22.30734 ], [ -97.86153, 22.30355 ], [ -97.85761, 22.30496 ], [ -97.85618, 22.30172 ], [ -97.85368, 22.30265 ], [ -97.85167, 22.29772 ], [ -97.85424, 22.29678 ], [ -97.85525, 22.29934 ], [ -97.85735, 22.29865 ], [ -97.85517, 22.2935 ], [ -97.85368, 22.29411 ], [ -97.85294, 22.29223 ], [ -97.85398, 22.28714 ], [ -97.85422, 22.28568 ], [ -97.8542, 22.28359 ], [ -97.85397, 22.28248 ], [ -97.85404, 22.28027 ], [ -97.85483, 22.27815 ], [ -97.85466, 22.27854 ], [ -97.85042, 22.27789 ], [ -97.85201, 22.27386 ], [ -97.85206, 22.27297 ], [ -97.85316, 22.27034 ], [ -97.85564, 22.27116 ], [ -97.85876, 22.26252 ], [ -97.85917, 22.26107 ], [ -97.85813, 22.26077 ], [ -97.85702, 22.26061 ], [ -97.8561, 22.26031 ], [ -97.85667, 22.25895 ], [ -97.85688, 22.25822 ], [ -97.85692, 22.25722 ], [ -97.85775, 22.25566 ], [ -97.85808, 22.25526 ], [ -97.85821, 22.25213 ], [ -97.85752, 22.2465 ], [ -97.85516, 22.24531 ], [ -97.85535, 22.2434 ], [ -97.85495, 22.24205 ], [ -97.85806, 22.24037 ], [ -97.85896, 22.23659 ], [ -97.85746, 22.2349 ], [ -97.85692, 22.23389 ], [ -97.85947, 22.23113 ], [ -97.85967, 22.23002 ], [ -97.85855, 22.22585 ], [ -97.85758, 22.22551 ], [ -97.85942, 22.2219 ], [ -97.85585, 22.22031 ], [ -97.85919, 22.21404 ], [ -97.85832, 22.21357 ], [ -97.85403, 22.2217 ], [ -97.85445, 22.2218 ], [ -97.85572, 22.22185 ], [ -97.85645, 22.22224 ], [ -97.85671, 22.22277 ], [ -97.85608, 22.22426 ], [ -97.85626, 22.22483 ], [ -97.85668, 22.22545 ], [ -97.85758, 22.22551 ], [ -97.85758, 22.22551 ], [ -97.85668, 22.22545 ], [ -97.85626, 22.22483 ], [ -97.85608, 22.22426 ], [ -97.85671, 22.22277 ], [ -97.85645, 22.22224 ], [ -97.85572, 22.22185 ], [ -97.85445, 22.2218 ], [ -97.85403, 22.2217 ], [ -97.85832, 22.21357 ], [ -97.85919, 22.21404 ], [ -97.85585, 22.22031 ], [ -97.85942, 22.2219 ], [ -97.85758, 22.22551 ], [ -97.85855, 22.22585 ], [ -97.85967, 22.23002 ], [ -97.85947, 22.23113 ], [ -97.85692, 22.23389 ], [ -97.85746, 22.2349 ], [ -97.85896, 22.23659 ], [ -97.85806, 22.24037 ], [ -97.85495, 22.24205 ], [ -97.85535, 22.2434 ], [ -97.85516, 22.24531 ], [ -97.85752, 22.2465 ], [ -97.85821, 22.25213 ], [ -97.85808, 22.25526 ], [ -97.85775, 22.25566 ], [ -97.85692, 22.25722 ], [ -97.85688, 22.25822 ], [ -97.85667, 22.25895 ], [ -97.8561, 22.26031 ], [ -97.85702, 22.26061 ], [ -97.85813, 22.26077 ], [ -97.85917, 22.26107 ], [ -97.85876, 22.26252 ], [ -97.85564, 22.27116 ], [ -97.85316, 22.27034 ], [ -97.85206, 22.27297 ], [ -97.85201, 22.27386 ], [ -97.85042, 22.27789 ], [ -97.85466, 22.27854 ], [ -97.85483, 22.27815 ], [ -97.85404, 22.28027 ], [ -97.85397, 22.28248 ], [ -97.8542, 22.28359 ], [ -97.85422, 22.28568 ], [ -97.85398, 22.28714 ], [ -97.85294, 22.29223 ], [ -97.85368, 22.29411 ], [ -97.85517, 22.2935 ], [ -97.85735, 22.29865 ], [ -97.85525, 22.29934 ], [ -97.85424, 22.29678 ], [ -97.85167, 22.29772 ], [ -97.85368, 22.30265 ], [ -97.85618, 22.30172 ], [ -97.85761, 22.30496 ], [ -97.86153, 22.30355 ], [ -97.86315, 22.30734 ], [ -97.86378, 22.3071 ], [ -97.86904, 22.30719 ], [ -97.86887, 22.31082 ], [ -97.87366, 22.31088 ], [ -97.87593, 22.31092 ], [ -97.87818, 22.31082 ], [ -97.8805, 22.31062 ], [ -97.88222, 22.31052 ], [ -97.88214, 22.31207 ], [ -97.88986, 22.31187 ], [ -97.8896, 22.31331 ] ] } }
]
}
