{
"type": "FeatureCollection",
"name": "shape_1",
"crs": { "type": "name", "properties": { "name": "urn:ogc:def:crs:OGC:1.3:CRS84" } },
"features": [
{ "type": "Feature", "properties": { "data.route.shortName": "1", "data.route.longName": "Mirador - Aviación por Boulevard", "shape_id": "shape_1" }, "geometry": { "type": "LineString", "coordinates": [ [ -97.85418, 22.21563 ], [ -97.85586, 22.21246 ], [ -97.85486, 22.21226 ], [ -97.85327, 22.21522 ], [ -97.85238, 22.21683 ], [ -97.8533, 22.21716 ], [ -97.85285, 22.2179 ], [ -97.85128, 22.22096 ], [ -97.84898, 22.22517 ], [ -97.84693, 22.22901 ], [ -97.84659, 22.23016 ], [ -97.84677, 22.23108 ], [ -97.84793, 22.23274 ], [ -97.84847, 22.23381 ], [ -97.84902, 22.23544 ], [ -97.84977, 22.23706 ], [ -97.85266, 22.23813 ], [ -97.85335, 22.2389 ], [ -97.85389, 22.24053 ], [ -97.85532, 22.24282 ], [ -97.85528, 22.24566 ], [ -97.85505, 22.24728 ], [ -97.85464, 22.24815 ], [ -97.85487, 22.2504 ], [ -97.85443, 22.25132 ], [ -97.85358, 22.25352 ], [ -97.85265, 22.25574 ], [ -97.85171, 22.25832 ], [ -97.84973, 22.2637 ], [ -97.84752, 22.26972 ], [ -97.85072, 22.27272 ], [ -97.85377, 22.27353 ], [ -97.8549, 22.27472 ], [ -97.85621, 22.27671 ], [ -97.85898, 22.27808 ], [ -97.86291, 22.28127 ], [ -97.86517, 22.28424 ], [ -97.86712, 22.28583 ], [ -97.86843, 22.28684 ], [ -97.87065, 22.28978 ], [ -97.87135, 22.28964 ], [ -97.87188, 22.28973 ], [ -97.87325, 22.29118 ], [ -97.87707, 22.29727 ], [ -97.88116, 22.30387 ], [ -97.8816, 22.30489 ], [ -97.88166, 22.30675 ], [ -97.8786, 22.31606 ], [ -97.8789, 22.31605 ], [ -97.88181, 22.30663 ], [ -97.88179, 22.30489 ], [ -97.88852, 22.30442 ], [ -97.88766, 22.30896 ], [ -97.88723, 22.3112 ], [ -97.89003, 22.31112 ], [ -97.889, 22.31548 ], [ -97.88883, 22.31596 ], [ -97.8889, 22.31615 ], [ -97.88872, 22.3164 ], [ -97.88892, 22.31755 ], [ -97.88892, 22.31755 ], [ -97.88872, 22.3164 ], [ -97.8889, 22.31615 ], [ -97.88883, 22.31596 ], [ -97.889, 22.31548 ], [ -97.89003, 22.31112 ], [ -97.88723, 22.3112 ], [ -97.88766, 22.30896 ], [ -97.88871, 22.30468 ], [ -97.89123, 22.30534 ], [ -97.88942, 22.30398 ], [ -97.88914, 22.30433 ], [ -97.88878, 22.30421 ], [ -97.8887, 22.30447 ], [ -97.88162, 22.30494 ], [ -97.88157, 22.30655 ], [ -97.88031, 22.31058 ], [ -97.87861, 22.3161 ], [ -97.87881, 22.3161 ], [ -97.8805, 22.31054 ], [ -97.8819, 22.30663 ], [ -97.88181, 22.30486 ], [ -97.88132, 22.30381 ], [ -97.87981, 22.30149 ], [ -97.87707, 22.29727 ], [ -97.87333, 22.29115 ], [ -97.87309, 22.28991 ], [ -97.87253, 22.28927 ], [ -97.87133, 22.28861 ], [ -97.87035, 22.28802 ], [ -97.86855, 22.28675 ], [ -97.86712, 22.28583 ], [ -97.86517, 22.28424 ], [ -97.86291, 22.28127 ], [ -97.85898, 22.27808 ], [ -97.85716, 22.27627 ], [ -97.85501, 22.27444 ], [ -97.85377, 22.27353 ], [ -97.85072, 22.27272 ], [ -97.84752, 22.26972 ], [ -97.84973, 22.2637 ], [ -97.85222, 22.25709 ], [ -97.85358, 22.25352 ], [ -97.85443, 22.25132 ], [ -97.85487, 22.2504 ], [ -97.85464, 22.24815 ], [ -97.85505, 22.24728 ], [ -97.85528, 22.24566 ], [ -97.85532, 22.24282 ], [ -97.85389, 22.24053 ], [ -97.85335, 22.2389 ], [ -97.85266, 22.23813 ], [ -97.84977, 22.23706 ], [ -97.84847, 22.23381 ], [ -97.84793, 22.23274 ], [ -97.84677, 22.23108 ], [ -97.84659, 22.23016 ], [ -97.84693, 22.22901 ], [ -97.84898, 22.22517 ], [ -97.85128, 22.22096 ], [ -97.85285, 22.2179 ], [ -97.8533, 22.21716 ], [ -97.85238, 22.21683 ], [ -97.85327, 22.21522 ], [ -97.85486, 22.21226 ], [ -97.85586, 22.21246 ] ] } }
]
}
