{
"type": "FeatureCollection",
"name": "shape_69",
"crs": { "type": "name", "properties": { "name": "urn:ogc:def:crs:OGC:1.3:CRS84" } },
"features": [
{ "type": "Feature", "properties": { "data.route.shortName": "69", "data.route.longName": "Madero - Candelario Garza", "shape_id": "shape_69" }, "geometry": { "type": "LineString", "coordinates": [ [ -97.83447, 22.24888 ], [ -97.83287, 22.25024 ], [ -97.83598, 22.25332 ], [ -97.83708, 22.25446 ], [ -97.83716, 22.25457 ], [ -97.83194, 22.25899 ], [ -97.83035, 22.26031 ], [ -97.82952, 22.26089 ], [ -97.82894, 22.26144 ], [ -97.82448, 22.2653 ], [ -97.83099, 22.27204 ], [ -97.83046, 22.2725 ], [ -97.82994, 22.27295 ], [ -97.82724, 22.27528 ], [ -97.82968, 22.27777 ], [ -97.82793, 22.27837 ], [ -97.82896, 22.28061 ], [ -97.83042, 22.28406 ], [ -97.83042, 22.28406 ], [ -97.82896, 22.28061 ], [ -97.82793, 22.27837 ], [ -97.82968, 22.27777 ], [ -97.82724, 22.27528 ], [ -97.82994, 22.27295 ], [ -97.83046, 22.2725 ], [ -97.83099, 22.27204 ], [ -97.82448, 22.2653 ], [ -97.82894, 22.26144 ], [ -97.82952, 22.26089 ], [ -97.83035, 22.26031 ], [ -97.83194, 22.25899 ], [ -97.83716, 22.25457 ], [ -97.83708, 22.25446 ], [ -97.83598, 22.25332 ], [ -97.83356, 22.2509 ], [ -97.83507, 22.24953 ], [ -97.835, 22.24931 ], [ -97.83487, 22.24926 ], [ -97.83445, 22.24888 ] ] } }
]
}
