{
"type": "FeatureCollection",
"name": "shape_118",
"crs": { "type": "name", "properties": { "name": "urn:ogc:def:crs:OGC:1.3:CRS84" } },
"features": [
{ "type": "Feature", "properties": { "data.route.shortName": "118", "data.route.longName": "Frac. Haciendas - Soriana - Aeropuerto", "shape_id": "shape_118" }, "geometry": { "type": "LineString", "coordinates": [ [ -97.87267, 22.36914 ], [ -97.87367, 22.37028 ], [ -97.87786, 22.36729 ], [ -97.8783, 22.36776 ], [ -97.88326, 22.36475 ], [ -97.88252, 22.36324 ], [ -97.88278, 22.36119 ], [ -97.88178, 22.36106 ], [ -97.88208, 22.35891 ], [ -97.88243, 22.35898 ], [ -97.88722, 22.35424 ], [ -97.88364, 22.35139 ], [ -97.88093, 22.34988 ], [ -97.87891, 22.34845 ], [ -97.87698, 22.34658 ], [ -97.87576, 22.34426 ], [ -97.87437, 22.33976 ], [ -97.87323, 22.33575 ], [ -97.87346, 22.33344 ], [ -97.87391, 22.33114 ], [ -97.87522, 22.32713 ], [ -97.87638, 22.32352 ], [ -97.87823, 22.31745 ], [ -97.8793, 22.31415 ], [ -97.88042, 22.31058 ], [ -97.88114, 22.30839 ], [ -97.88162, 22.30673 ], [ -97.88175, 22.30577 ], [ -97.8817, 22.30486 ], [ -97.87977, 22.30149 ], [ -97.87864, 22.29966 ], [ -97.87651, 22.29628 ], [ -97.87333, 22.29111 ], [ -97.87304, 22.28973 ], [ -97.87216, 22.28904 ], [ -97.87071, 22.28827 ], [ -97.86964, 22.28747 ], [ -97.86948, 22.28752 ], [ -97.87054, 22.28832 ], [ -97.87112, 22.28896 ], [ -97.87224, 22.28989 ], [ -97.87333, 22.29111 ], [ -97.87675, 22.29648 ], [ -97.87864, 22.29966 ], [ -97.87994, 22.30174 ], [ -97.8817, 22.30486 ], [ -97.88183, 22.30579 ], [ -97.88162, 22.30673 ], [ -97.88067, 22.30974 ], [ -97.87949, 22.31332 ], [ -97.87823, 22.31759 ], [ -97.87642, 22.32352 ], [ -97.8746, 22.32912 ], [ -97.87391, 22.33114 ], [ -97.87323, 22.33575 ], [ -97.87576, 22.34426 ], [ -97.87698, 22.34658 ], [ -97.88093, 22.34988 ], [ -97.88364, 22.35139 ], [ -97.88722, 22.35424 ], [ -97.88243, 22.35898 ], [ -97.88208, 22.35891 ], [ -97.88178, 22.36106 ], [ -97.88278, 22.36119 ], [ -97.88252, 22.36324 ], [ -97.88326, 22.36475 ], [ -97.8783, 22.36776 ], [ -97.87786, 22.36729 ], [ -97.87484, 22.36416 ], [ -97.87374, 22.36493 ], [ -97.87558, 22.36717 ], [ -97.87271, 22.36919 ], [ -97.87367, 22.37028 ] ] } }
]
}
