{
"type": "FeatureCollection",
"name": "shape_53",
"crs": { "type": "name", "properties": { "name": "urn:ogc:def:crs:OGC:1.3:CRS84" } },
"features": [
{ "type": "Feature", "properties": { "data.route.shortName": "53", "data.route.longName": "Altamira", "shape_id": "shape_53" }, "geometry": { "type": "LineString", "coordinates": [ [ -97.94129, 22.41537 ], [ -97.93724, 22.40567 ], [ -97.93805, 22.39718 ], [ -97.93788, 22.39639 ], [ -97.93728, 22.39603 ], [ -97.93357, 22.39542 ], [ -97.93153, 22.39349 ], [ -97.92957, 22.39169 ], [ -97.92402, 22.39048 ], [ -97.92365, 22.39046 ], [ -97.92285, 22.39015 ], [ -97.9225, 22.38972 ], [ -97.92213, 22.38906 ], [ -97.92185, 22.38855 ], [ -97.92013, 22.38722 ], [ -97.91887, 22.38673 ], [ -97.90964, 22.37762 ], [ -97.90522, 22.37321 ], [ -97.90007, 22.36829 ], [ -97.89042, 22.35772 ], [ -97.88707, 22.35405 ], [ -97.88421, 22.35176 ], [ -97.88269, 22.35083 ], [ -97.87988, 22.34928 ], [ -97.87687, 22.34638 ], [ -97.87587, 22.34478 ], [ -97.87387, 22.33749 ], [ -97.87316, 22.33549 ], [ -97.8737, 22.33215 ], [ -97.87941, 22.31409 ], [ -97.8811, 22.30873 ], [ -97.88179, 22.30605 ], [ -97.88164, 22.30474 ], [ -97.87589, 22.29505 ], [ -97.87336, 22.29124 ], [ -97.87299, 22.28916 ], [ -97.87303, 22.28771 ], [ -97.87387, 22.2854 ], [ -97.87383, 22.28403 ], [ -97.87297, 22.28252 ], [ -97.8731, 22.27873 ], [ -97.87413, 22.275 ], [ -97.87473, 22.2726 ], [ -97.8737, 22.27008 ], [ -97.87376, 22.2671 ], [ -97.8746, 22.26517 ], [ -97.87666, 22.25741 ], [ -97.8761, 22.25375 ], [ -97.87402, 22.24799 ], [ -97.872, 22.24444 ], [ -97.86999, 22.23947 ], [ -97.86833, 22.23612 ], [ -97.866, 22.23014 ], [ -97.8635, 22.22358 ], [ -97.86324, 22.2206 ], [ -97.86267, 22.21941 ], [ -97.85752, 22.21714 ], [ -97.85882, 22.21478 ], [ -97.85968, 22.21515 ], [ -97.85797, 22.21837 ], [ -97.86324, 22.2206 ], [ -97.86324, 22.2206 ], [ -97.85797, 22.21837 ], [ -97.85968, 22.21515 ], [ -97.85882, 22.21478 ], [ -97.85752, 22.21714 ], [ -97.86267, 22.21941 ], [ -97.86324, 22.2206 ], [ -97.8635, 22.22358 ], [ -97.866, 22.23014 ], [ -97.86833, 22.23612 ], [ -97.86999, 22.23947 ], [ -97.872, 22.24444 ], [ -97.87402, 22.24799 ], [ -97.8761, 22.25375 ], [ -97.87666, 22.25741 ], [ -97.8746, 22.26517 ], [ -97.87376, 22.2671 ], [ -97.8737, 22.27008 ], [ -97.87473, 22.2726 ], [ -97.87413, 22.275 ], [ -97.8731, 22.27873 ], [ -97.87297, 22.28252 ], [ -97.87383, 22.28403 ], [ -97.87387, 22.2854 ], [ -97.87303, 22.28771 ], [ -97.87299, 22.28916 ], [ -97.87336, 22.29124 ], [ -97.87589, 22.29505 ], [ -97.88164, 22.30474 ], [ -97.88179, 22.30605 ], [ -97.8811, 22.30873 ], [ -97.87941, 22.31409 ], [ -97.8737, 22.33215 ], [ -97.87316, 22.33549 ], [ -97.87387, 22.33749 ], [ -97.87587, 22.34478 ], [ -97.87687, 22.34638 ], [ -97.87988, 22.34928 ], [ -97.88269, 22.35083 ], [ -97.88421, 22.35176 ], [ -97.88707, 22.35405 ], [ -97.89042, 22.35772 ], [ -97.90007, 22.36829 ], [ -97.90522, 22.37321 ], [ -97.90964, 22.37762 ], [ -97.91887, 22.38673 ], [ -97.92013, 22.38722 ], [ -97.92185, 22.38855 ], [ -97.92213, 22.38906 ], [ -97.9225, 22.38972 ], [ -97.92285, 22.39015 ], [ -97.92365, 22.39046 ], [ -97.92402, 22.39048 ], [ -97.92957, 22.39169 ], [ -97.93153, 22.39349 ], [ -97.93357, 22.39542 ], [ -97.93728, 22.39603 ], [ -97.93788, 22.39639 ], [ -97.93805, 22.39718 ], [ -97.93723, 22.40567 ] ] } }
]
}
