{
"type": "FeatureCollection",
"name": "shape_20",
"crs": { "type": "name", "properties": { "name": "urn:ogc:def:crs:OGC:1.3:CRS84" } },
"features": [
{ "type": "Feature", "properties": { "data.route.shortName": "20", "data.route.longName": "Miramar - Borreguera - Madero", "shape_id": "shape_20" }, "geometry": { "type": "LineString", "coordinates": [ [ -97.87235, 22.34033 ], [ -97.86866, 22.34168 ], [ -97.86452, 22.33168 ], [ -97.86064, 22.32222 ], [ -97.86033, 22.32178 ], [ -97.86046, 22.32155 ], [ -97.86076, 22.32141 ], [ -97.85897, 22.31616 ], [ -97.85737, 22.31121 ], [ -97.85708, 22.31131 ], [ -97.8551, 22.30612 ], [ -97.85768, 22.30508 ], [ -97.85666, 22.30259 ], [ -97.85483, 22.29833 ], [ -97.85255, 22.29266 ], [ -97.85296, 22.29225 ], [ -97.85078, 22.28677 ], [ -97.84563, 22.27466 ], [ -97.84761, 22.26978 ], [ -97.84222, 22.26467 ], [ -97.84136, 22.26382 ], [ -97.84031, 22.26243 ], [ -97.83982, 22.26078 ], [ -97.83235, 22.25318 ], [ -97.83559, 22.25036 ], [ -97.83497, 22.24892 ], [ -97.8343, 22.24724 ], [ -97.83457, 22.24728 ], [ -97.83431, 22.24723 ], [ -97.8343, 22.24724 ], [ -97.83497, 22.24892 ], [ -97.83519, 22.24939 ], [ -97.83494, 22.24958 ], [ -97.83098, 22.25315 ], [ -97.83871, 22.261 ], [ -97.84035, 22.26256 ], [ -97.84136, 22.26382 ], [ -97.84222, 22.26467 ], [ -97.84761, 22.26978 ], [ -97.84563, 22.27466 ], [ -97.85078, 22.28677 ], [ -97.85296, 22.29225 ], [ -97.85255, 22.29266 ], [ -97.85483, 22.29833 ], [ -97.85666, 22.30259 ], [ -97.85768, 22.30508 ], [ -97.8551, 22.30612 ], [ -97.85708, 22.31131 ], [ -97.85737, 22.31121 ], [ -97.85897, 22.31616 ], [ -97.86076, 22.32141 ], [ -97.86046, 22.32155 ], [ -97.86033, 22.32178 ], [ -97.86064, 22.32222 ], [ -97.86452, 22.33168 ], [ -97.86866, 22.34168 ] ] } }
]
}
