{
"type": "FeatureCollection",
"name": "shape_14",
"crs": { "type": "name", "properties": { "name": "urn:ogc:def:crs:OGC:1.3:CRS84" } },
"features": [
{ "type": "Feature", "properties": { "data.route.shortName": "14", "data.route.longName": "Tampico Cañada", "shape_id": "shape_14" }, "geometry": { "type": "LineString", "coordinates": [ [ -97.85542, 22.21719 ], [ -97.86321, 22.22062 ], [ -97.86322, 22.22118 ], [ -97.8634, 22.22356 ], [ -97.86514, 22.22787 ], [ -97.86709, 22.23288 ], [ -97.86949, 22.23856 ], [ -97.87252, 22.24557 ], [ -97.87368, 22.2476 ], [ -97.87505, 22.25081 ], [ -97.8764, 22.25518 ], [ -97.8766, 22.25713 ], [ -97.87617, 22.25953 ], [ -97.87572, 22.26058 ], [ -97.87439, 22.26549 ], [ -97.87361, 22.26819 ], [ -97.87376, 22.27069 ], [ -97.87462, 22.2727 ], [ -97.87419, 22.27436 ], [ -97.87385, 22.27546 ], [ -97.87561, 22.27595 ], [ -97.87565, 22.27558 ], [ -97.87687, 22.27434 ], [ -97.87891, 22.275 ], [ -97.88035, 22.27617 ], [ -97.87939, 22.2778 ], [ -97.87891, 22.27955 ], [ -97.87868, 22.28078 ], [ -97.87921, 22.28221 ], [ -97.87968, 22.28301 ], [ -97.87993, 22.28328 ], [ -97.88054, 22.28359 ], [ -97.88109, 22.28398 ], [ -97.8812, 22.28453 ], [ -97.88116, 22.28503 ], [ -97.88096, 22.28529 ], [ -97.88072, 22.28723 ], [ -97.88207, 22.2873 ], [ -97.88353, 22.28707 ], [ -97.88359, 22.28617 ], [ -97.88337, 22.28556 ], [ -97.88281, 22.28507 ], [ -97.88343, 22.28427 ], [ -97.88427, 22.28574 ], [ -97.88465, 22.28674 ], [ -97.88456, 22.28689 ], [ -97.88482, 22.288 ], [ -97.88485, 22.28893 ], [ -97.88532, 22.2889 ], [ -97.88551, 22.28951 ], [ -97.88632, 22.29016 ], [ -97.8875, 22.28982 ], [ -97.88787, 22.28976 ], [ -97.8871, 22.289 ], [ -97.88646, 22.28701 ], [ -97.88802, 22.28741 ], [ -97.88863, 22.2878 ], [ -97.88848, 22.28889 ], [ -97.88921, 22.28983 ], [ -97.89134, 22.29004 ], [ -97.8909, 22.28801 ], [ -97.88863, 22.2878 ], [ -97.88863, 22.2878 ], [ -97.8909, 22.28801 ], [ -97.89134, 22.29004 ], [ -97.88921, 22.28983 ], [ -97.88848, 22.28889 ], [ -97.88863, 22.2878 ], [ -97.88802, 22.28741 ], [ -97.88646, 22.28701 ], [ -97.8871, 22.289 ], [ -97.88612, 22.28648 ], [ -97.88456, 22.28689 ], [ -97.88465, 22.28674 ], [ -97.88427, 22.28574 ], [ -97.88343, 22.28427 ], [ -97.88281, 22.28507 ], [ -97.88337, 22.28556 ], [ -97.88359, 22.28617 ], [ -97.88353, 22.28707 ], [ -97.88207, 22.2873 ], [ -97.88072, 22.28723 ], [ -97.88096, 22.28529 ], [ -97.88116, 22.28503 ], [ -97.8812, 22.28453 ], [ -97.88109, 22.28398 ], [ -97.88054, 22.28359 ], [ -97.87993, 22.28328 ], [ -97.87968, 22.28301 ], [ -97.87921, 22.28221 ], [ -97.87868, 22.28078 ], [ -97.87891, 22.27955 ], [ -97.87939, 22.2778 ], [ -97.88035, 22.27617 ], [ -97.87891, 22.275 ], [ -97.87687, 22.27434 ], [ -97.87565, 22.27558 ], [ -97.87561, 22.27595 ], [ -97.87385, 22.27546 ], [ -97.87419, 22.27436 ], [ -97.87462, 22.2727 ], [ -97.87376, 22.27069 ], [ -97.87361, 22.26819 ], [ -97.87439, 22.26549 ], [ -97.87572, 22.26058 ], [ -97.87617, 22.25953 ], [ -97.8766, 22.25713 ], [ -97.8764, 22.25518 ], [ -97.87505, 22.25081 ], [ -97.87368, 22.2476 ], [ -97.87252, 22.24557 ], [ -97.86949, 22.23856 ], [ -97.86709, 22.23288 ], [ -97.86514, 22.22787 ], [ -97.8634, 22.22356 ], [ -97.86324, 22.22161 ], [ -97.85668, 22.21877 ], [ -97.85763, 22.21711 ], [ -97.85673, 22.21681 ], [ -97.85617, 22.21764 ] ] } }
]
}
