{
"type": "FeatureCollection",
"name": "shape_48",
"crs": { "type": "name", "properties": { "name": "urn:ogc:def:crs:OGC:1.3:CRS84" } },
"features": [
{ "type": "Feature", "properties": { "data.route.shortName": "48", "data.route.longName": "Germinal por Boulevard", "shape_id": "shape_48" }, "geometry": { "type": "LineString", "coordinates": [ [ -97.84984, 22.329 ], [ -97.84999, 22.32883 ], [ -97.84989, 22.32817 ], [ -97.84908, 22.32543 ], [ -97.85087, 22.32432 ], [ -97.8538, 22.32287 ], [ -97.85003, 22.31485 ], [ -97.85127, 22.31391 ], [ -97.84936, 22.30819 ], [ -97.85768, 22.30508 ], [ -97.85642, 22.30198 ], [ -97.85498, 22.29863 ], [ -97.85251, 22.29258 ], [ -97.85096, 22.28889 ], [ -97.85041, 22.28716 ], [ -97.84544, 22.27499 ], [ -97.84526, 22.27461 ], [ -97.84555, 22.27446 ], [ -97.84982, 22.26345 ], [ -97.85292, 22.2554 ], [ -97.85422, 22.25181 ], [ -97.85457, 22.25102 ], [ -97.85488, 22.25055 ], [ -97.8546, 22.24816 ], [ -97.85516, 22.2472 ], [ -97.85537, 22.24291 ], [ -97.85501, 22.24217 ], [ -97.85397, 22.24061 ], [ -97.8534, 22.23893 ], [ -97.8529, 22.23832 ], [ -97.85201, 22.23773 ], [ -97.84977, 22.23703 ], [ -97.84873, 22.23487 ], [ -97.84827, 22.23336 ], [ -97.84667, 22.23062 ], [ -97.84658, 22.22975 ], [ -97.85603, 22.21207 ], [ -97.85777, 22.2127 ], [ -97.85777, 22.21269 ], [ -97.8571, 22.21407 ], [ -97.85464, 22.21289 ], [ -97.85242, 22.2168 ], [ -97.85329, 22.21727 ], [ -97.84658, 22.22975 ], [ -97.84667, 22.23062 ], [ -97.84827, 22.23336 ], [ -97.84873, 22.23487 ], [ -97.84977, 22.23703 ], [ -97.85201, 22.23773 ], [ -97.8529, 22.23832 ], [ -97.8534, 22.23893 ], [ -97.85397, 22.24061 ], [ -97.85501, 22.24217 ], [ -97.85537, 22.24291 ], [ -97.85516, 22.2472 ], [ -97.8546, 22.24816 ], [ -97.85488, 22.25055 ], [ -97.85457, 22.25102 ], [ -97.85422, 22.25181 ], [ -97.85292, 22.2554 ], [ -97.84982, 22.26345 ], [ -97.84555, 22.27446 ], [ -97.84526, 22.27461 ], [ -97.84544, 22.27499 ], [ -97.85041, 22.28716 ], [ -97.85096, 22.28889 ], [ -97.85251, 22.29258 ], [ -97.85498, 22.29863 ], [ -97.85642, 22.30198 ], [ -97.85768, 22.30508 ], [ -97.84936, 22.30819 ], [ -97.85127, 22.31391 ], [ -97.85003, 22.31485 ], [ -97.8538, 22.32287 ], [ -97.85087, 22.32432 ], [ -97.84908, 22.32543 ], [ -97.84989, 22.32817 ], [ -97.84999, 22.32883 ] ] } }
]
}
