{
"type": "FeatureCollection",
"name": "shape_65",
"crs": { "type": "name", "properties": { "name": "urn:ogc:def:crs:OGC:1.3:CRS84" } },
"features": [
{ "type": "Feature", "properties": { "data.route.shortName": "65", "data.route.longName": "Águila", "shape_id": "shape_65" }, "geometry": { "type": "LineString", "coordinates": [ [ -97.85795, 22.2134 ], [ -97.85669, 22.21284 ], [ -97.85458, 22.2168 ], [ -97.86322, 22.22062 ], [ -97.86329, 22.22101 ], [ -97.86342, 22.2235 ], [ -97.86475, 22.22666 ], [ -97.87216, 22.24477 ], [ -97.87344, 22.24708 ], [ -97.87473, 22.24946 ], [ -97.87645, 22.2552 ], [ -97.87359, 22.25524 ], [ -97.87358, 22.25619 ], [ -97.87358, 22.25619 ], [ -97.87399, 22.25723 ], [ -97.87666, 22.25725 ], [ -97.87645, 22.2552 ], [ -97.87473, 22.24946 ], [ -97.87344, 22.24708 ], [ -97.87216, 22.24477 ], [ -97.86475, 22.22666 ], [ -97.86342, 22.2235 ], [ -97.86329, 22.22101 ], [ -97.86278, 22.21949 ], [ -97.85754, 22.21717 ], [ -97.8593, 22.21399 ], [ -97.85669, 22.21284 ] ] } }
]
}
