{
"type": "FeatureCollection",
"name": "shape_54",
"crs": { "type": "name", "properties": { "name": "urn:ogc:def:crs:OGC:1.3:CRS84" } },
"features": [
{ "type": "Feature", "properties": { "data.route.shortName": "54", "data.route.longName": "Col Nuevo Tampico - Altamira por Carnitas Ortas", "shape_id": "shape_54" }, "geometry": { "type": "LineString", "coordinates": [ [ -97.94125, 22.41542 ], [ -97.93802, 22.40778 ], [ -97.93728, 22.40592 ], [ -97.93806, 22.39721 ], [ -97.93788, 22.39663 ], [ -97.93739, 22.39611 ], [ -97.93379, 22.39548 ], [ -97.93306, 22.39505 ], [ -97.92982, 22.39188 ], [ -97.92889, 22.39145 ], [ -97.92526, 22.39087 ], [ -97.92417, 22.39055 ], [ -97.92357, 22.39041 ], [ -97.92274, 22.38999 ], [ -97.92227, 22.38934 ], [ -97.92198, 22.38872 ], [ -97.92117, 22.38786 ], [ -97.92014, 22.38713 ], [ -97.91899, 22.38666 ], [ -97.90797, 22.37595 ], [ -97.90398, 22.37194 ], [ -97.89981, 22.36817 ], [ -97.89175, 22.35913 ], [ -97.88475, 22.35194 ], [ -97.88037, 22.34964 ], [ -97.87612, 22.34551 ], [ -97.87376, 22.33757 ], [ -97.87312, 22.33543 ], [ -97.88044, 22.31048 ], [ -97.88215, 22.3105 ], [ -97.88211, 22.30845 ], [ -97.88089, 22.30863 ], [ -97.87387, 22.30905 ], [ -97.86894, 22.30875 ], [ -97.86842, 22.31677 ], [ -97.87007, 22.32364 ], [ -97.87127, 22.32535 ], [ -97.87216, 22.32632 ], [ -97.87326, 22.32966 ], [ -97.86898, 22.33115 ], [ -97.86852, 22.3301 ], [ -97.86349, 22.33191 ], [ -97.85999, 22.3235 ], [ -97.86095, 22.32318 ], [ -97.86052, 22.32216 ], [ -97.86035, 22.32172 ], [ -97.86049, 22.32153 ], [ -97.86076, 22.3214 ], [ -97.85792, 22.313 ], [ -97.86057, 22.31226 ], [ -97.86133, 22.31386 ], [ -97.86182, 22.315 ], [ -97.86217, 22.31544 ], [ -97.86259, 22.31563 ], [ -97.86753, 22.31605 ], [ -97.86808, 22.31587 ], [ -97.8685, 22.31543 ], [ -97.8685, 22.31543 ], [ -97.86808, 22.31587 ], [ -97.86753, 22.31605 ], [ -97.86259, 22.31563 ], [ -97.86217, 22.31544 ], [ -97.86182, 22.315 ], [ -97.86133, 22.31386 ], [ -97.86057, 22.31226 ], [ -97.85792, 22.313 ], [ -97.86076, 22.3214 ], [ -97.86049, 22.32153 ], [ -97.86035, 22.32172 ], [ -97.86052, 22.32216 ], [ -97.86095, 22.32318 ], [ -97.85999, 22.3235 ], [ -97.86349, 22.33191 ], [ -97.86852, 22.3301 ], [ -97.86898, 22.33115 ], [ -97.87326, 22.32966 ], [ -97.87216, 22.32632 ], [ -97.87127, 22.32535 ], [ -97.87007, 22.32364 ], [ -97.86842, 22.31677 ], [ -97.86898, 22.31072 ], [ -97.87527, 22.31101 ], [ -97.8758, 22.31094 ], [ -97.87647, 22.31095 ], [ -97.88007, 22.31066 ], [ -97.88044, 22.31048 ], [ -97.87312, 22.33543 ], [ -97.87376, 22.33757 ], [ -97.87612, 22.34551 ], [ -97.88037, 22.34964 ], [ -97.88475, 22.35194 ], [ -97.89175, 22.35913 ], [ -97.89981, 22.36817 ], [ -97.90398, 22.37194 ], [ -97.90797, 22.37595 ], [ -97.91899, 22.38666 ], [ -97.92014, 22.38713 ], [ -97.92117, 22.38786 ], [ -97.92198, 22.38872 ], [ -97.92227, 22.38934 ], [ -97.92274, 22.38999 ], [ -97.92357, 22.39041 ], [ -97.92417, 22.39055 ], [ -97.92526, 22.39087 ], [ -97.92889, 22.39145 ], [ -97.92982, 22.39188 ], [ -97.93306, 22.39505 ], [ -97.93379, 22.39548 ], [ -97.93739, 22.39611 ], [ -97.93788, 22.39663 ], [ -97.93806, 22.39721 ], [ -97.93728, 22.40592 ], [ -97.93802, 22.40778 ] ] } }
]
}
