{
"type": "FeatureCollection",
"name": "shape_33",
"crs": { "type": "name", "properties": { "name": "urn:ogc:def:crs:OGC:1.3:CRS84" } },
"features": [
{ "type": "Feature", "properties": { "data.route.shortName": "33", "data.route.longName": "Madero - La Paz", "shape_id": "shape_33" }, "geometry": { "type": "LineString", "coordinates": [ [ -97.89903, 22.29805 ], [ -97.89673, 22.30066 ], [ -97.8926, 22.30526 ], [ -97.8919, 22.30472 ], [ -97.89126, 22.30533 ], [ -97.88997, 22.30433 ], [ -97.88931, 22.30396 ], [ -97.88899, 22.30349 ], [ -97.88927, 22.30203 ], [ -97.89025, 22.30254 ], [ -97.89047, 22.30227 ], [ -97.89184, 22.30041 ], [ -97.88909, 22.2997 ], [ -97.88841, 22.2997 ], [ -97.88765, 22.29939 ], [ -97.88551, 22.30306 ], [ -97.88529, 22.30323 ], [ -97.88415, 22.30287 ], [ -97.88505, 22.30133 ], [ -97.88402, 22.30127 ], [ -97.88396, 22.30011 ], [ -97.88492, 22.29872 ], [ -97.88469, 22.29846 ], [ -97.82415, 22.25422 ], [ -97.82355, 22.25365 ], [ -97.8229, 22.25416 ], [ -97.82351, 22.25478 ], [ -97.82785, 22.25117 ], [ -97.82722, 22.25055 ], [ -97.82654, 22.24997 ], [ -97.82592, 22.24933 ], [ -97.82568, 22.24911 ], [ -97.82552, 22.24872 ], [ -97.82605, 22.24826 ], [ -97.82939, 22.24548 ], [ -97.83064, 22.24443 ], [ -97.83075, 22.24449 ], [ -97.83136, 22.24395 ], [ -97.83244, 22.245 ], [ -97.83363, 22.244 ], [ -97.83751, 22.24608 ], [ -97.83932, 22.24328 ], [ -97.85445, 22.25136 ], [ -97.85473, 22.25096 ], [ -97.85492, 22.2504 ], [ -97.85459, 22.24822 ], [ -97.8551, 22.24745 ], [ -97.85523, 22.24535 ], [ -97.85756, 22.24658 ], [ -97.8582, 22.25219 ], [ -97.85361, 22.25349 ], [ -97.84973, 22.26379 ], [ -97.85593, 22.26576 ], [ -97.85535, 22.26718 ], [ -97.85392, 22.26863 ], [ -97.85211, 22.27295 ], [ -97.85426, 22.27387 ], [ -97.85547, 22.27565 ], [ -97.85635, 22.2768 ], [ -97.8589, 22.27802 ], [ -97.86149, 22.27994 ], [ -97.86433, 22.28296 ], [ -97.86541, 22.2842 ], [ -97.86638, 22.28517 ], [ -97.87108, 22.2889 ], [ -97.87195, 22.28981 ], [ -97.87262, 22.29049 ], [ -97.87336, 22.29118 ], [ -97.87655, 22.29627 ], [ -97.8798, 22.29447 ], [ -97.88027, 22.29447 ], [ -97.88181, 22.29509 ], [ -97.8839, 22.29525 ], [ -97.8868, 22.29561 ], [ -97.88984, 22.29716 ], [ -97.88808, 22.29817 ], [ -97.88691, 22.29691 ], [ -97.88469, 22.29846 ], [ -97.88492, 22.29872 ], [ -97.88396, 22.30011 ], [ -97.88402, 22.30127 ], [ -97.88505, 22.30133 ], [ -97.88415, 22.30287 ], [ -97.88529, 22.30323 ], [ -97.88551, 22.30306 ], [ -97.88765, 22.29939 ], [ -97.88841, 22.2997 ], [ -97.88909, 22.2997 ], [ -97.89184, 22.30041 ], [ -97.89047, 22.30227 ], [ -97.89025, 22.30254 ], [ -97.88927, 22.30203 ], [ -97.88899, 22.30349 ], [ -97.88931, 22.30396 ], [ -97.88997, 22.30433 ], [ -97.89126, 22.30533 ], [ -97.8919, 22.30472 ], [ -97.8926, 22.30526 ], [ -97.89673, 22.30066 ] ] } }
]
}
