{
"type": "FeatureCollection",
"name": "shape_19",
"crs": { "type": "name", "properties": { "name": "urn:ogc:def:crs:OGC:1.3:CRS84" } },
"features": [
{ "type": "Feature", "properties": { "data.route.shortName": "19", "data.route.longName": "Nuevo Madero - Serapio Venegas", "shape_id": "shape_19" }, "geometry": { "type": "LineString", "coordinates": [ [ -97.85031, 22.34806 ], [ -97.85049, 22.34865 ], [ -97.84929, 22.34887 ], [ -97.85031, 22.35397 ], [ -97.85137, 22.35379 ], [ -97.85159, 22.35473 ], [ -97.85489, 22.35415 ], [ -97.85369, 22.34808 ], [ -97.85475, 22.34795 ], [ -97.85467, 22.34749 ], [ -97.85477, 22.34743 ], [ -97.85783, 22.34694 ], [ -97.8618, 22.3463 ], [ -97.86358, 22.34598 ], [ -97.86376, 22.34574 ], [ -97.86449, 22.34277 ], [ -97.86532, 22.34293 ], [ -97.86767, 22.34206 ], [ -97.86346, 22.33192 ], [ -97.86447, 22.33155 ], [ -97.86276, 22.3273 ], [ -97.86464, 22.32666 ], [ -97.86638, 22.33089 ], [ -97.86814, 22.33027 ], [ -97.86861, 22.33126 ], [ -97.87336, 22.32965 ], [ -97.87265, 22.32759 ], [ -97.87247, 22.32722 ], [ -97.8721, 22.32629 ], [ -97.87015, 22.32379 ], [ -97.86846, 22.31681 ], [ -97.86894, 22.3106 ], [ -97.87512, 22.31099 ], [ -97.88061, 22.31056 ], [ -97.88194, 22.30599 ], [ -97.8817, 22.3044 ], [ -97.87576, 22.29485 ], [ -97.87329, 22.29092 ], [ -97.87293, 22.28848 ], [ -97.87394, 22.28525 ], [ -97.87366, 22.28352 ], [ -97.87293, 22.28199 ], [ -97.874, 22.27548 ], [ -97.87475, 22.27272 ], [ -97.87383, 22.26982 ], [ -97.87374, 22.26765 ], [ -97.87477, 22.26459 ], [ -97.87625, 22.25911 ], [ -97.8767, 22.25685 ], [ -97.87456, 22.24928 ], [ -97.87046, 22.24088 ], [ -97.8635, 22.22354 ], [ -97.8633, 22.22161 ], [ -97.85666, 22.21873 ], [ -97.85716, 22.21793 ], [ -97.86318, 22.22061 ], [ -97.8633, 22.22161 ], [ -97.85716, 22.21796 ], [ -97.86318, 22.22061 ], [ -97.86328, 22.22161 ], [ -97.8635, 22.22354 ], [ -97.87046, 22.24088 ], [ -97.87456, 22.24928 ], [ -97.8767, 22.25685 ], [ -97.87625, 22.25911 ], [ -97.87477, 22.26459 ], [ -97.87374, 22.26765 ], [ -97.87383, 22.26982 ], [ -97.87475, 22.27272 ], [ -97.874, 22.27548 ], [ -97.87293, 22.28199 ], [ -97.87366, 22.28352 ], [ -97.87394, 22.28525 ], [ -97.87293, 22.28848 ], [ -97.87329, 22.29092 ], [ -97.87576, 22.29485 ], [ -97.8817, 22.3044 ], [ -97.88194, 22.30599 ], [ -97.88127, 22.30859 ], [ -97.87494, 22.30897 ], [ -97.86913, 22.30875 ], [ -97.86846, 22.31681 ], [ -97.87015, 22.32379 ], [ -97.8721, 22.32629 ], [ -97.87247, 22.32722 ], [ -97.87265, 22.32759 ], [ -97.87336, 22.32965 ], [ -97.86861, 22.33126 ], [ -97.86814, 22.33027 ], [ -97.86638, 22.33089 ], [ -97.86464, 22.32666 ], [ -97.86276, 22.3273 ], [ -97.86447, 22.33155 ], [ -97.86346, 22.33192 ], [ -97.86767, 22.34206 ], [ -97.86532, 22.34293 ], [ -97.86449, 22.34277 ], [ -97.86376, 22.34574 ], [ -97.86358, 22.34598 ], [ -97.8618, 22.3463 ], [ -97.85783, 22.34694 ], [ -97.85477, 22.34743 ], [ -97.85467, 22.34749 ], [ -97.85475, 22.34795 ], [ -97.85369, 22.34808 ], [ -97.85489, 22.35415 ], [ -97.85159, 22.35473 ], [ -97.85137, 22.35379 ], [ -97.85031, 22.35397 ], [ -97.84929, 22.34887 ], [ -97.85049, 22.34865 ] ] } }
]
}
