{
"type": "FeatureCollection",
"name": "shape_76",
"crs": { "type": "name", "properties": { "name": "urn:ogc:def:crs:OGC:1.3:CRS84" } },
"features": [
{ "type": "Feature", "properties": { "data.route.shortName": "76", "data.route.longName": "Cascajal", "shape_id": "shape_76" }, "geometry": { "type": "LineString", "coordinates": [ [ -97.87153, 22.22684 ], [ -97.87129, 22.2268 ], [ -97.87118, 22.22665 ], [ -97.8706, 22.22615 ], [ -97.86899, 22.2213 ], [ -97.86874, 22.22053 ], [ -97.8685, 22.22004 ], [ -97.86839, 22.22008 ], [ -97.85839, 22.21561 ], [ -97.85923, 22.21402 ], [ -97.85752, 22.21322 ], [ -97.85719, 22.21299 ], [ -97.85726, 22.21283 ], [ -97.85753, 22.21287 ], [ -97.85753, 22.21287 ], [ -97.85726, 22.21283 ], [ -97.85795, 22.21304 ], [ -97.85871, 22.21329 ], [ -97.85975, 22.21393 ], [ -97.86025, 22.21448 ], [ -97.86048, 22.21504 ], [ -97.86413, 22.21659 ], [ -97.86344, 22.21789 ], [ -97.86839, 22.22008 ], [ -97.8685, 22.22004 ], [ -97.86874, 22.22053 ], [ -97.86899, 22.2213 ], [ -97.87005, 22.22454 ], [ -97.87063, 22.22436 ], [ -97.87167, 22.22623 ], [ -97.87157, 22.22686 ], [ -97.87129, 22.2268 ] ] } }
]
}
