{
"type": "FeatureCollection",
"name": "shape_62",
"crs": { "type": "name", "properties": { "name": "urn:ogc:def:crs:OGC:1.3:CRS84" } },
"features": [
{ "type": "Feature", "properties": { "data.route.shortName": "62", "data.route.longName": "Obrera - Madero", "shape_id": "shape_62" }, "geometry": { "type": "LineString", "coordinates": [ [ -97.83605, 22.24986 ], [ -97.83907, 22.25292 ], [ -97.84001, 22.2521 ], [ -97.84131, 22.24999 ], [ -97.84284, 22.25087 ], [ -97.84678, 22.24443 ], [ -97.84799, 22.24505 ], [ -97.84712, 22.2446 ], [ -97.84877, 22.24192 ], [ -97.85012, 22.2393 ], [ -97.85103, 22.23751 ], [ -97.84982, 22.23706 ], [ -97.84885, 22.23502 ], [ -97.84833, 22.23342 ], [ -97.84753, 22.23201 ], [ -97.84681, 22.23105 ], [ -97.84662, 22.22981 ], [ -97.85263, 22.21835 ], [ -97.85332, 22.21722 ], [ -97.85331, 22.21723 ], [ -97.85587, 22.21246 ], [ -97.85495, 22.21226 ], [ -97.85449, 22.21295 ], [ -97.8525, 22.21677 ], [ -97.85331, 22.21723 ], [ -97.84662, 22.22981 ], [ -97.84681, 22.23105 ], [ -97.84753, 22.23201 ], [ -97.84833, 22.23342 ], [ -97.84885, 22.23502 ], [ -97.84982, 22.23706 ], [ -97.85103, 22.23751 ], [ -97.85012, 22.2393 ], [ -97.84877, 22.24192 ], [ -97.84712, 22.2446 ], [ -97.84799, 22.24505 ], [ -97.84678, 22.24443 ], [ -97.84373, 22.24943 ], [ -97.84223, 22.24864 ], [ -97.84131, 22.24999 ], [ -97.84001, 22.2521 ], [ -97.83915, 22.25293 ], [ -97.83616, 22.24988 ] ] } }
]
}
