{
"type": "FeatureCollection",
"name": "shape_64",
"crs": { "type": "name", "properties": { "name": "urn:ogc:def:crs:OGC:1.3:CRS84" } },
"features": [
{ "type": "Feature", "properties": { "data.route.shortName": "64", "data.route.longName": "Madero - Barra", "shape_id": "shape_64" }, "geometry": { "type": "LineString", "coordinates": [ [ -97.78687, 22.26404 ], [ -97.79573, 22.26272 ], [ -97.79589, 22.26346 ], [ -97.79898, 22.26318 ], [ -97.80813, 22.25857 ], [ -97.81862, 22.25329 ], [ -97.81913, 22.25318 ], [ -97.81978, 22.2535 ], [ -97.82157, 22.25533 ], [ -97.83309, 22.24563 ], [ -97.83509, 22.24671 ], [ -97.83641, 22.24456 ], [ -97.83719, 22.24493 ], [ -97.83633, 22.24639 ], [ -97.83633, 22.24639 ], [ -97.83561, 22.246 ], [ -97.83308, 22.24445 ], [ -97.83246, 22.24497 ], [ -97.83129, 22.24598 ], [ -97.82194, 22.25391 ], [ -97.81983, 22.25337 ], [ -97.81913, 22.25318 ], [ -97.81862, 22.25329 ], [ -97.80813, 22.25857 ], [ -97.79898, 22.26318 ], [ -97.79589, 22.26346 ], [ -97.79579, 22.26273 ], [ -97.7869, 22.2641 ] ] } }
]
}
