{
"type": "FeatureCollection",
"name": "shape_17",
"crs": { "type": "name", "properties": { "name": "urn:ogc:def:crs:OGC:1.3:CRS84" } },
"features": [
{ "type": "Feature", "properties": { "data.route.shortName": "17", "data.route.longName": "Maun - Revolución Verde - Madero", "shape_id": "shape_17" }, "geometry": { "type": "LineString", "coordinates": [ [ -97.84907, 22.32544 ], [ -97.85089, 22.32435 ], [ -97.85395, 22.32278 ], [ -97.85372, 22.32285 ], [ -97.85001, 22.31485 ], [ -97.85019, 22.31474 ], [ -97.84988, 22.31441 ], [ -97.85087, 22.31366 ], [ -97.85113, 22.3135 ], [ -97.84869, 22.30623 ], [ -97.84901, 22.30573 ], [ -97.84883, 22.30511 ], [ -97.84853, 22.30442 ], [ -97.84818, 22.30356 ], [ -97.84651, 22.30417 ], [ -97.8462, 22.30348 ], [ -97.84599, 22.30349 ], [ -97.84593, 22.30079 ], [ -97.84443, 22.30083 ], [ -97.84425, 22.30077 ], [ -97.84442, 22.29806 ], [ -97.84471, 22.2964 ], [ -97.84481, 22.29624 ], [ -97.84604, 22.29615 ], [ -97.84543, 22.28927 ], [ -97.84603, 22.28923 ], [ -97.84592, 22.28827 ], [ -97.84696, 22.2885 ], [ -97.84711, 22.2885 ], [ -97.84794, 22.28637 ], [ -97.84436, 22.28519 ], [ -97.84584, 22.2813 ], [ -97.84226, 22.28012 ], [ -97.84013, 22.27944 ], [ -97.84112, 22.27695 ], [ -97.84154, 22.27688 ], [ -97.84294, 22.27684 ], [ -97.84374, 22.27669 ], [ -97.84437, 22.27634 ], [ -97.84548, 22.27513 ], [ -97.84572, 22.27499 ], [ -97.8456, 22.27455 ], [ -97.8475, 22.26987 ], [ -97.84755, 22.26961 ], [ -97.84597, 22.26831 ], [ -97.84378, 22.266 ], [ -97.84569, 22.26104 ], [ -97.84312, 22.25987 ], [ -97.84371, 22.25885 ], [ -97.83601, 22.251 ], [ -97.83576, 22.25081 ], [ -97.83556, 22.2503 ], [ -97.83611, 22.24986 ], [ -97.83911, 22.25292 ], [ -97.83843, 22.25346 ], [ -97.83843, 22.25346 ], [ -97.83911, 22.25292 ], [ -97.83611, 22.24986 ], [ -97.83556, 22.2503 ], [ -97.83576, 22.25081 ], [ -97.83601, 22.251 ], [ -97.84371, 22.25885 ], [ -97.84312, 22.25987 ], [ -97.84569, 22.26104 ], [ -97.84378, 22.266 ], [ -97.84597, 22.26831 ], [ -97.84755, 22.26961 ], [ -97.8475, 22.26987 ], [ -97.8456, 22.27455 ], [ -97.84572, 22.27499 ], [ -97.84548, 22.27513 ], [ -97.84437, 22.27634 ], [ -97.84374, 22.27669 ], [ -97.84294, 22.27684 ], [ -97.84154, 22.27688 ], [ -97.84112, 22.27695 ], [ -97.84013, 22.27944 ], [ -97.84226, 22.28012 ], [ -97.84584, 22.2813 ], [ -97.84436, 22.28519 ], [ -97.84794, 22.28637 ], [ -97.84711, 22.2885 ], [ -97.84696, 22.2885 ], [ -97.84592, 22.28827 ], [ -97.84603, 22.28923 ], [ -97.84543, 22.28927 ], [ -97.84604, 22.29615 ], [ -97.84481, 22.29624 ], [ -97.84471, 22.2964 ], [ -97.84442, 22.29806 ], [ -97.84425, 22.30077 ], [ -97.84443, 22.30083 ], [ -97.84593, 22.30079 ], [ -97.84599, 22.30349 ], [ -97.8462, 22.30348 ], [ -97.84651, 22.30417 ], [ -97.84818, 22.30356 ], [ -97.84853, 22.30442 ], [ -97.84883, 22.30511 ], [ -97.84901, 22.30573 ], [ -97.84869, 22.30623 ], [ -97.85113, 22.3135 ], [ -97.85087, 22.31366 ], [ -97.84988, 22.31441 ], [ -97.85019, 22.31474 ], [ -97.85001, 22.31485 ], [ -97.85372, 22.32285 ], [ -97.85395, 22.32278 ], [ -97.85089, 22.32435 ] ] } }
]
}
