{
"type": "FeatureCollection",
"name": "shape_8",
"crs": { "type": "name", "properties": { "name": "urn:ogc:def:crs:OGC:1.3:CRS84" } },
"features": [
{ "type": "Feature", "properties": { "data.route.shortName": "8", "data.route.longName": "Seguro Social - Lomas de Infonavit", "shape_id": "shape_8" }, "geometry": { "type": "LineString", "coordinates": [ [ -97.85824, 22.25217 ], [ -97.8576, 22.24658 ], [ -97.85521, 22.24532 ], [ -97.85512, 22.24673 ], [ -97.85503, 22.24718 ], [ -97.8548, 22.24769 ], [ -97.85459, 22.24807 ], [ -97.85476, 22.24958 ], [ -97.85487, 22.2504 ], [ -97.85431, 22.25139 ], [ -97.85353, 22.25355 ], [ -97.8601, 22.25168 ], [ -97.86356, 22.25061 ], [ -97.86602, 22.24992 ], [ -97.86724, 22.24937 ], [ -97.86962, 22.24822 ], [ -97.87306, 22.24653 ], [ -97.87406, 22.24829 ], [ -97.87492, 22.25045 ], [ -97.87569, 22.25271 ], [ -97.8761, 22.25404 ], [ -97.87641, 22.25542 ], [ -97.87653, 22.25697 ], [ -97.87628, 22.25863 ], [ -97.87566, 22.2607 ], [ -97.87497, 22.2635 ], [ -97.8741, 22.26618 ], [ -97.87361, 22.26762 ], [ -97.87359, 22.26943 ], [ -97.87392, 22.27092 ], [ -97.87456, 22.27251 ], [ -97.8743, 22.27429 ], [ -97.8738, 22.27549 ], [ -97.87563, 22.27598 ], [ -97.87764, 22.27657 ], [ -97.87823, 22.27692 ], [ -97.87914, 22.27784 ], [ -97.88074, 22.27893 ], [ -97.88233, 22.27903 ], [ -97.88368, 22.27909 ], [ -97.88451, 22.27875 ], [ -97.8866, 22.2775 ], [ -97.88763, 22.27735 ], [ -97.88912, 22.27743 ], [ -97.89066, 22.27667 ], [ -97.89066, 22.27667 ], [ -97.88912, 22.27743 ], [ -97.88763, 22.27735 ], [ -97.8866, 22.2775 ], [ -97.88451, 22.27875 ], [ -97.88368, 22.27909 ], [ -97.88233, 22.27903 ], [ -97.88074, 22.27893 ], [ -97.87914, 22.27784 ], [ -97.87823, 22.27692 ], [ -97.87764, 22.27657 ], [ -97.87563, 22.27598 ], [ -97.8738, 22.27549 ], [ -97.8743, 22.27429 ], [ -97.87456, 22.27251 ], [ -97.87392, 22.27092 ], [ -97.87359, 22.26943 ], [ -97.87361, 22.26762 ], [ -97.8741, 22.26618 ], [ -97.87497, 22.2635 ], [ -97.87566, 22.2607 ], [ -97.87628, 22.25863 ], [ -97.87653, 22.25697 ], [ -97.87641, 22.25542 ], [ -97.8761, 22.25404 ], [ -97.87569, 22.25271 ], [ -97.87492, 22.25045 ], [ -97.87406, 22.24829 ], [ -97.87306, 22.24653 ], [ -97.86962, 22.24822 ], [ -97.86724, 22.24937 ], [ -97.86602, 22.24992 ], [ -97.86356, 22.25061 ], [ -97.8601, 22.25168 ], [ -97.85353, 22.25355 ], [ -97.85431, 22.25139 ], [ -97.85487, 22.2504 ], [ -97.85476, 22.24958 ], [ -97.85459, 22.24807 ], [ -97.8548, 22.24769 ], [ -97.85503, 22.24718 ], [ -97.85512, 22.24673 ], [ -97.85521, 22.24532 ], [ -97.85752, 22.24644 ], [ -97.85836, 22.25216 ] ] } }
]
}
