{
"type": "FeatureCollection",
"name": "shape_41",
"crs": { "type": "name", "properties": { "name": "urn:ogc:def:crs:OGC:1.3:CRS84" } },
"features": [
{ "type": "Feature", "properties": { "data.route.shortName": "41", "data.route.longName": "Unidad Morelos UAT - Madero - Col Árbol Grande", "shape_id": "shape_41" }, "geometry": { "type": "LineString", "coordinates": [ [ -97.89228, 22.28783 ], [ -97.89092, 22.2873 ], [ -97.8901, 22.28361 ], [ -97.8903, 22.28221 ], [ -97.88758, 22.28195 ], [ -97.88708, 22.28202 ], [ -97.88786, 22.28357 ], [ -97.88669, 22.28386 ], [ -97.88708, 22.28498 ], [ -97.88578, 22.28538 ], [ -97.88614, 22.28648 ], [ -97.8817, 22.28737 ], [ -97.87363, 22.28562 ], [ -97.87298, 22.28812 ], [ -97.87234, 22.28847 ], [ -97.87117, 22.28857 ], [ -97.86847, 22.28672 ], [ -97.86636, 22.28525 ], [ -97.86055, 22.27909 ], [ -97.85872, 22.27758 ], [ -97.85623, 22.27538 ], [ -97.85396, 22.27351 ], [ -97.85106, 22.27282 ], [ -97.84047, 22.2627 ], [ -97.83967, 22.2607 ], [ -97.83878, 22.25985 ], [ -97.84273, 22.25658 ], [ -97.8434, 22.25602 ], [ -97.83968, 22.25232 ], [ -97.84223, 22.24859 ], [ -97.83443, 22.24444 ], [ -97.83605, 22.24181 ], [ -97.83836, 22.24304 ], [ -97.83534, 22.24124 ], [ -97.83836, 22.24304 ], [ -97.8397, 22.24083 ], [ -97.84047, 22.24124 ], [ -97.84226, 22.23841 ], [ -97.84056, 22.23751 ], [ -97.84072, 22.23716 ], [ -97.84164, 22.23747 ], [ -97.83959, 22.24075 ], [ -97.8397, 22.24083 ], [ -97.8397, 22.24083 ], [ -97.83959, 22.24075 ], [ -97.84164, 22.23747 ], [ -97.84072, 22.23716 ], [ -97.84056, 22.23751 ], [ -97.84226, 22.23841 ], [ -97.84047, 22.24124 ], [ -97.8397, 22.24083 ], [ -97.83836, 22.24304 ], [ -97.83836, 22.24304 ], [ -97.83605, 22.24181 ], [ -97.83484, 22.24382 ], [ -97.83561, 22.24412 ], [ -97.83439, 22.24624 ], [ -97.84126, 22.25 ], [ -97.83968, 22.25232 ], [ -97.8434, 22.25602 ], [ -97.84273, 22.25658 ], [ -97.83824, 22.26039 ], [ -97.84047, 22.2627 ], [ -97.84548, 22.26779 ], [ -97.85106, 22.27282 ], [ -97.85396, 22.27351 ], [ -97.85482, 22.27478 ], [ -97.85608, 22.27655 ], [ -97.85876, 22.27794 ], [ -97.86055, 22.27909 ], [ -97.86636, 22.28525 ], [ -97.86847, 22.28672 ], [ -97.87089, 22.28868 ], [ -97.87228, 22.28927 ], [ -97.87283, 22.2896 ], [ -97.87306, 22.29 ], [ -97.87302, 22.29022 ], [ -97.87267, 22.29031 ], [ -97.87225, 22.28989 ], [ -97.87217, 22.28942 ], [ -97.8732, 22.28766 ], [ -97.87363, 22.28562 ], [ -97.8817, 22.28737 ], [ -97.88614, 22.28648 ], [ -97.88578, 22.28538 ], [ -97.88708, 22.28498 ], [ -97.88656, 22.28339 ], [ -97.88767, 22.28304 ], [ -97.88708, 22.28202 ], [ -97.88758, 22.28195 ], [ -97.8903, 22.28221 ], [ -97.8901, 22.28361 ], [ -97.89092, 22.2873 ] ] } }
]
}
