{
"type": "FeatureCollection",
"name": "shape_28",
"crs": { "type": "name", "properties": { "name": "urn:ogc:def:crs:OGC:1.3:CRS84" } },
"features": [
{ "type": "Feature", "properties": { "data.route.shortName": "28", "data.route.longName": "Unidad Morelos", "shape_id": "shape_28" }, "geometry": { "type": "LineString", "coordinates": [ [ -97.89299, 22.28276 ], [ -97.89295, 22.28214 ], [ -97.89188, 22.28218 ], [ -97.89188, 22.2823 ], [ -97.89033, 22.28212 ], [ -97.89031, 22.28225 ], [ -97.88856, 22.28209 ], [ -97.88848, 22.28347 ], [ -97.89011, 22.28361 ], [ -97.89098, 22.2873 ], [ -97.8891, 22.28601 ], [ -97.88837, 22.28599 ], [ -97.88731, 22.28615 ], [ -97.88698, 22.28622 ], [ -97.88714, 22.28634 ], [ -97.88817, 22.28659 ], [ -97.88857, 22.28676 ], [ -97.88945, 22.2874 ], [ -97.88914, 22.28784 ], [ -97.8886, 22.28782 ], [ -97.88805, 22.28744 ], [ -97.88647, 22.28702 ], [ -97.88624, 22.28641 ], [ -97.885, 22.28677 ], [ -97.88446, 22.28685 ], [ -97.883, 22.28721 ], [ -97.88169, 22.28737 ], [ -97.88114, 22.28733 ], [ -97.88078, 22.28723 ], [ -97.87763, 22.2865 ], [ -97.87502, 22.28584 ], [ -97.8739, 22.28567 ], [ -97.87395, 22.28461 ], [ -97.87311, 22.28264 ], [ -97.87299, 22.28049 ], [ -97.87376, 22.27619 ], [ -97.87469, 22.27272 ], [ -97.87383, 22.27035 ], [ -97.87374, 22.26702 ], [ -97.87475, 22.26507 ], [ -97.87623, 22.25941 ], [ -97.87664, 22.25687 ], [ -97.87632, 22.25498 ], [ -97.8749, 22.25006 ], [ -97.8731, 22.24654 ], [ -97.86454, 22.22634 ], [ -97.8635, 22.22326 ], [ -97.86325, 22.22081 ], [ -97.86272, 22.21944 ], [ -97.8575, 22.21714 ], [ -97.8592, 22.214 ], [ -97.85967, 22.21422 ], [ -97.8599, 22.21475 ], [ -97.85963, 22.21518 ], [ -97.85963, 22.21518 ], [ -97.85799, 22.21836 ], [ -97.86233, 22.22024 ], [ -97.86325, 22.22081 ], [ -97.8635, 22.22326 ], [ -97.86454, 22.22634 ], [ -97.8731, 22.24654 ], [ -97.8749, 22.25006 ], [ -97.87632, 22.25498 ], [ -97.87664, 22.25687 ], [ -97.87623, 22.25941 ], [ -97.87475, 22.26507 ], [ -97.87374, 22.26702 ], [ -97.87383, 22.27035 ], [ -97.87469, 22.27272 ], [ -97.87376, 22.27619 ], [ -97.87299, 22.28049 ], [ -97.87311, 22.28264 ], [ -97.87395, 22.28461 ], [ -97.8739, 22.28567 ], [ -97.87502, 22.28584 ], [ -97.87763, 22.2865 ], [ -97.88078, 22.28723 ], [ -97.88114, 22.28733 ], [ -97.88169, 22.28737 ], [ -97.883, 22.28721 ], [ -97.88446, 22.28685 ], [ -97.885, 22.28677 ], [ -97.88624, 22.28641 ], [ -97.88647, 22.28702 ], [ -97.88805, 22.28744 ], [ -97.8886, 22.28782 ], [ -97.88914, 22.28784 ], [ -97.88945, 22.2874 ], [ -97.88857, 22.28676 ], [ -97.88817, 22.28659 ], [ -97.88714, 22.28634 ], [ -97.88698, 22.28622 ], [ -97.88731, 22.28615 ], [ -97.88837, 22.28599 ], [ -97.8891, 22.28601 ], [ -97.89098, 22.2873 ], [ -97.89011, 22.28361 ], [ -97.88848, 22.28347 ], [ -97.88856, 22.28209 ], [ -97.89031, 22.28225 ], [ -97.89033, 22.28212 ], [ -97.89188, 22.2823 ], [ -97.89188, 22.28218 ], [ -97.89289, 22.28217 ], [ -97.89299, 22.28272 ] ] } }
]
}
