{
"type": "FeatureCollection",
"name": "shape_46",
"crs": { "type": "name", "properties": { "name": "urn:ogc:def:crs:OGC:1.3:CRS84" } },
"features": [
{ "type": "Feature", "properties": { "data.route.shortName": "46", "data.route.longName": "El Blanco - Kínder - Las Flores", "shape_id": "shape_46" }, "geometry": { "type": "LineString", "coordinates": [ [ -97.83834, 22.29699 ], [ -97.83673, 22.292 ], [ -97.83641, 22.29067 ], [ -97.83632, 22.28871 ], [ -97.83529, 22.28879 ], [ -97.83488, 22.28835 ], [ -97.83488, 22.28681 ], [ -97.83359, 22.28691 ], [ -97.83298, 22.28616 ], [ -97.83173, 22.28687 ], [ -97.82914, 22.2813 ], [ -97.82792, 22.27832 ], [ -97.83076, 22.27738 ], [ -97.83452, 22.27702 ], [ -97.84308, 22.27689 ], [ -97.84428, 22.27643 ], [ -97.84557, 22.27518 ], [ -97.84563, 22.2747 ], [ -97.85428, 22.25173 ], [ -97.85497, 22.25047 ], [ -97.85454, 22.24817 ], [ -97.85516, 22.2471 ], [ -97.85537, 22.24293 ], [ -97.85454, 22.2416 ], [ -97.85295, 22.23832 ], [ -97.84975, 22.23703 ], [ -97.84832, 22.23339 ], [ -97.8466, 22.23061 ], [ -97.84668, 22.22958 ], [ -97.85602, 22.21204 ], [ -97.85606, 22.21214 ], [ -97.85782, 22.21262 ], [ -97.85761, 22.21329 ], [ -97.85582, 22.21244 ], [ -97.85488, 22.21233 ], [ -97.85248, 22.21681 ], [ -97.85334, 22.21729 ], [ -97.84668, 22.22958 ], [ -97.8466, 22.23061 ], [ -97.84832, 22.23339 ], [ -97.84975, 22.23703 ], [ -97.85295, 22.23832 ], [ -97.85454, 22.2416 ], [ -97.85537, 22.24293 ], [ -97.85516, 22.2471 ], [ -97.85454, 22.24817 ], [ -97.85497, 22.25047 ], [ -97.85428, 22.25173 ], [ -97.84563, 22.2747 ], [ -97.84557, 22.27518 ], [ -97.84428, 22.27643 ], [ -97.84308, 22.27689 ], [ -97.83452, 22.27702 ], [ -97.83076, 22.27738 ], [ -97.82792, 22.27832 ], [ -97.82914, 22.2813 ], [ -97.83173, 22.28687 ], [ -97.83298, 22.28616 ], [ -97.83359, 22.28691 ], [ -97.83488, 22.28681 ], [ -97.83488, 22.28835 ], [ -97.83529, 22.28879 ], [ -97.83632, 22.28871 ], [ -97.83641, 22.29067 ], [ -97.83671, 22.29204 ], [ -97.83835, 22.297 ] ] } }
]
}
