{
"type": "FeatureCollection",
"name": "shape_108A",
"crs": { "type": "name", "properties": { "name": "urn:ogc:def:crs:OGC:1.3:CRS84" } },
"features": [
{ "type": "Feature", "properties": { "data.route.shortName": "108A", "data.route.longName": "Cuauhtémoc - Tampico - Univ. Politécnica de Altamira por Ayuntamiento y Av. Hidalgo", "shape_id": "shape_108A" }, "geometry": { "type": "LineString", "coordinates": [ [ -98.15707, 22.54366 ], [ -98.14982, 22.54249 ], [ -98.14949, 22.5432 ], [ -98.14969, 22.54344 ], [ -98.14913, 22.54356 ], [ -98.14864, 22.54746 ], [ -98.1484, 22.54752 ], [ -98.14791, 22.55186 ], [ -98.14366, 22.5477 ], [ -98.12709, 22.52584 ], [ -98.11081, 22.50427 ], [ -98.1095, 22.50255 ], [ -98.10827, 22.50086 ], [ -98.10675, 22.49969 ], [ -98.10358, 22.49832 ], [ -98.10038, 22.49729 ], [ -98.08716, 22.49898 ], [ -98.07976, 22.5014 ], [ -98.0727, 22.50227 ], [ -98.03547, 22.49047 ], [ -98.03169, 22.48916 ], [ -98.01045, 22.47989 ], [ -97.99217, 22.47203 ], [ -97.99075, 22.47053 ], [ -97.97127, 22.44233 ], [ -97.95073, 22.42743 ], [ -97.947, 22.42458 ], [ -97.94442, 22.42184 ], [ -97.94284, 22.4191 ], [ -97.94204, 22.41698 ], [ -97.93831, 22.40859 ], [ -97.93726, 22.40585 ], [ -97.93805, 22.3971 ], [ -97.93777, 22.39641 ], [ -97.93724, 22.39605 ], [ -97.9335, 22.3954 ], [ -97.93204, 22.39413 ], [ -97.92966, 22.39181 ], [ -97.9237, 22.39048 ], [ -97.9229, 22.39016 ], [ -97.9223, 22.3895 ], [ -97.92155, 22.38841 ], [ -97.92052, 22.38738 ], [ -97.91852, 22.38645 ], [ -97.90827, 22.37619 ], [ -97.90466, 22.37262 ], [ -97.89786, 22.36599 ], [ -97.88722, 22.35424 ], [ -97.88389, 22.35158 ], [ -97.88024, 22.3495 ], [ -97.87823, 22.34781 ], [ -97.87621, 22.34555 ], [ -97.87316, 22.33567 ], [ -97.87394, 22.33138 ], [ -97.88162, 22.30669 ], [ -97.8817, 22.30492 ], [ -97.88112, 22.30369 ], [ -97.87329, 22.29118 ], [ -97.87312, 22.28979 ], [ -97.87224, 22.28912 ], [ -97.87037, 22.28802 ], [ -97.86546, 22.28463 ], [ -97.86353, 22.28215 ], [ -97.86149, 22.28004 ], [ -97.85623, 22.2755 ], [ -97.85915, 22.26771 ], [ -97.86033, 22.264 ], [ -97.86048, 22.2633 ], [ -97.86164, 22.2611 ], [ -97.86385, 22.25721 ], [ -97.86469, 22.25514 ], [ -97.86477, 22.25437 ], [ -97.86565, 22.25318 ], [ -97.867, 22.25047 ], [ -97.86718, 22.24936 ], [ -97.86765, 22.24698 ], [ -97.86694, 22.2445 ], [ -97.86707, 22.24255 ], [ -97.86615, 22.23719 ], [ -97.86505, 22.23351 ], [ -97.86411, 22.23004 ], [ -97.86428, 22.22926 ], [ -97.86495, 22.22732 ], [ -97.86361, 22.22386 ], [ -97.86329, 22.22215 ], [ -97.86321, 22.22068 ], [ -97.86273, 22.21945 ], [ -97.85924, 22.21796 ], [ -97.86097, 22.21456 ], [ -97.86346, 22.21567 ], [ -97.86261, 22.21748 ], [ -97.85837, 22.21561 ], [ -97.85881, 22.21478 ], [ -97.85964, 22.21516 ], [ -97.85964, 22.21516 ], [ -97.85801, 22.21834 ], [ -97.85892, 22.21879 ], [ -97.86327, 22.22062 ], [ -97.86329, 22.22215 ], [ -97.86361, 22.22386 ], [ -97.86495, 22.22732 ], [ -97.86911, 22.23774 ], [ -97.87226, 22.24479 ], [ -97.87402, 22.24809 ], [ -97.87569, 22.25244 ], [ -97.8764, 22.25476 ], [ -97.8766, 22.25709 ], [ -97.87529, 22.26301 ], [ -97.87359, 22.26884 ], [ -97.87471, 22.27329 ], [ -97.87308, 22.27869 ], [ -97.87291, 22.28243 ], [ -97.87419, 22.28521 ], [ -97.87293, 22.28808 ], [ -97.87312, 22.28979 ], [ -97.87329, 22.29118 ], [ -97.88112, 22.30369 ], [ -97.8817, 22.30492 ], [ -97.88162, 22.30669 ], [ -97.87394, 22.33138 ], [ -97.87316, 22.33567 ], [ -97.87621, 22.34555 ], [ -97.87823, 22.34781 ], [ -97.88024, 22.3495 ], [ -97.88389, 22.35158 ], [ -97.88722, 22.35424 ], [ -97.89786, 22.36599 ], [ -97.90466, 22.37262 ], [ -97.90827, 22.37619 ], [ -97.91852, 22.38645 ], [ -97.92052, 22.38738 ], [ -97.92155, 22.38841 ], [ -97.9223, 22.3895 ], [ -97.9229, 22.39016 ], [ -97.9237, 22.39048 ], [ -97.92966, 22.39181 ], [ -97.93204, 22.39413 ], [ -97.9335, 22.3954 ], [ -97.93724, 22.39605 ], [ -97.93777, 22.39641 ], [ -97.93805, 22.3971 ], [ -97.93726, 22.40585 ], [ -97.93831, 22.40859 ], [ -97.94204, 22.41698 ], [ -97.94284, 22.4191 ], [ -97.94442, 22.42184 ], [ -97.947, 22.42458 ], [ -97.95073, 22.42743 ], [ -97.97127, 22.44233 ], [ -97.99075, 22.47053 ], [ -97.99217, 22.47203 ], [ -98.01045, 22.47989 ], [ -98.03169, 22.48916 ], [ -98.03547, 22.49047 ], [ -98.0727, 22.50227 ], [ -98.07976, 22.5014 ], [ -98.08716, 22.49898 ], [ -98.10038, 22.49729 ], [ -98.10358, 22.49832 ], [ -98.10675, 22.49969 ], [ -98.10827, 22.50086 ], [ -98.1095, 22.50255 ], [ -98.11081, 22.50427 ], [ -98.12709, 22.52584 ], [ -98.14366, 22.5477 ], [ -98.14791, 22.55186 ], [ -98.1484, 22.54752 ], [ -98.14864, 22.54746 ], [ -98.14913, 22.54356 ], [ -98.14969, 22.54344 ], [ -98.14949, 22.5432 ], [ -98.14982, 22.54249 ] ] } }
]
}
