{
"type": "FeatureCollection",
"name": "shape_108",
"crs": { "type": "name", "properties": { "name": "urn:ogc:def:crs:OGC:1.3:CRS84" } },
"features": [
{ "type": "Feature", "properties": { "data.route.shortName": "108", "data.route.longName": "Cuauhtémoc - Tampico - Universidad Politécnica de Altamira por Av. Hidalgo y Ayuntamiento Zona Conurbada Tampico - Madero - Altamira", "shape_id": "shape_108" }, "geometry": { "type": "LineString", "coordinates": [ [ -98.15705, 22.54366 ], [ -98.14997, 22.54251 ], [ -98.14952, 22.54322 ], [ -98.14965, 22.54352 ], [ -98.14917, 22.54352 ], [ -98.14864, 22.54746 ], [ -98.14838, 22.54756 ], [ -98.14786, 22.55184 ], [ -98.1434, 22.54752 ], [ -98.13889, 22.54138 ], [ -98.12275, 22.5201 ], [ -98.11105, 22.50457 ], [ -98.1078, 22.50037 ], [ -98.10576, 22.49936 ], [ -98.10349, 22.4983 ], [ -98.10089, 22.49743 ], [ -98.09937, 22.49739 ], [ -98.091, 22.49848 ], [ -98.08639, 22.49922 ], [ -98.0795, 22.50148 ], [ -98.07414, 22.50213 ], [ -98.07255, 22.50221 ], [ -98.0456, 22.49369 ], [ -98.03427, 22.49016 ], [ -97.99204, 22.47188 ], [ -97.98088, 22.45617 ], [ -97.97105, 22.44209 ], [ -97.95078, 22.42745 ], [ -97.94663, 22.42436 ], [ -97.94294, 22.41936 ], [ -97.93788, 22.40714 ], [ -97.93724, 22.40484 ], [ -97.93801, 22.39663 ], [ -97.9335, 22.39528 ], [ -97.93213, 22.39429 ], [ -97.92973, 22.39183 ], [ -97.92488, 22.39083 ], [ -97.92333, 22.39036 ], [ -97.92256, 22.38976 ], [ -97.92146, 22.38808 ], [ -97.91906, 22.38683 ], [ -97.91325, 22.38121 ], [ -97.9069, 22.37498 ], [ -97.89823, 22.36631 ], [ -97.88979, 22.3569 ], [ -97.88722, 22.35424 ], [ -97.88359, 22.35133 ], [ -97.87977, 22.34918 ], [ -97.87634, 22.34571 ], [ -97.87333, 22.33626 ], [ -97.87351, 22.33309 ], [ -97.88175, 22.30645 ], [ -97.88162, 22.30419 ], [ -97.87329, 22.29116 ], [ -97.87299, 22.28802 ], [ -97.87385, 22.28558 ], [ -97.87385, 22.28401 ], [ -97.87284, 22.28205 ], [ -97.87314, 22.27804 ], [ -97.87475, 22.27284 ], [ -97.87372, 22.27 ], [ -97.87374, 22.26708 ], [ -97.87464, 22.26539 ], [ -97.87666, 22.25731 ], [ -97.87589, 22.25314 ], [ -97.87376, 22.2475 ], [ -97.87295, 22.24626 ], [ -97.86722, 22.23335 ], [ -97.86364, 22.22388 ], [ -97.86329, 22.22241 ], [ -97.86321, 22.22066 ], [ -97.86263, 22.21943 ], [ -97.85926, 22.21792 ], [ -97.86093, 22.21454 ], [ -97.86346, 22.21567 ], [ -97.86261, 22.21749 ], [ -97.85838, 22.21562 ], [ -97.85882, 22.21476 ], [ -97.85963, 22.21517 ], [ -97.85963, 22.21517 ], [ -97.85799, 22.21832 ], [ -97.86321, 22.22066 ], [ -97.86329, 22.22241 ], [ -97.86364, 22.22388 ], [ -97.86722, 22.23335 ], [ -97.86977, 22.23902 ], [ -97.86758, 22.23987 ], [ -97.86799, 22.24086 ], [ -97.8669, 22.24122 ], [ -97.86623, 22.24128 ], [ -97.86649, 22.24746 ], [ -97.86602, 22.24994 ], [ -97.86325, 22.25079 ], [ -97.86336, 22.25276 ], [ -97.86475, 22.25306 ], [ -97.86473, 22.25524 ], [ -97.86385, 22.25725 ], [ -97.86132, 22.26181 ], [ -97.86046, 22.26372 ], [ -97.85939, 22.26694 ], [ -97.85825, 22.27077 ], [ -97.85643, 22.2754 ], [ -97.85458, 22.27436 ], [ -97.8561, 22.27659 ], [ -97.85883, 22.27792 ], [ -97.86175, 22.28032 ], [ -97.8648, 22.28358 ], [ -97.86754, 22.28612 ], [ -97.87085, 22.28834 ], [ -97.87329, 22.29116 ], [ -97.88162, 22.30419 ], [ -97.88175, 22.30645 ], [ -97.87351, 22.33309 ], [ -97.87333, 22.33626 ], [ -97.87634, 22.34571 ], [ -97.87977, 22.34918 ], [ -97.88359, 22.35133 ], [ -97.88722, 22.35424 ], [ -97.88979, 22.3569 ], [ -97.89823, 22.36631 ], [ -97.9069, 22.37498 ], [ -97.91325, 22.38121 ], [ -97.91906, 22.38683 ], [ -97.92146, 22.38808 ], [ -97.922, 22.38992 ], [ -97.92151, 22.39165 ], [ -97.92123, 22.39349 ], [ -97.92421, 22.3977 ], [ -97.92792, 22.40321 ], [ -97.93251, 22.40805 ], [ -97.94209, 22.41896 ], [ -97.94663, 22.42436 ], [ -97.95078, 22.42745 ], [ -97.97105, 22.44209 ], [ -97.98088, 22.45617 ], [ -97.99204, 22.47188 ], [ -98.03427, 22.49016 ], [ -98.0456, 22.49369 ], [ -98.07255, 22.50221 ], [ -98.07414, 22.50213 ], [ -98.0795, 22.50148 ], [ -98.08639, 22.49922 ], [ -98.091, 22.49848 ], [ -98.09937, 22.49739 ], [ -98.10089, 22.49743 ], [ -98.10349, 22.4983 ], [ -98.10576, 22.49936 ], [ -98.1078, 22.50037 ], [ -98.11105, 22.50457 ], [ -98.12275, 22.5201 ], [ -98.13889, 22.54138 ], [ -98.1434, 22.54752 ], [ -98.14786, 22.55184 ], [ -98.14838, 22.54756 ], [ -98.14864, 22.54746 ], [ -98.14917, 22.54352 ], [ -98.14965, 22.54352 ], [ -98.14952, 22.54322 ], [ -98.14997, 22.54251 ] ] } }
]
}
