{
"type": "FeatureCollection",
"name": "shape_103",
"crs": { "type": "name", "properties": { "name": "urn:ogc:def:crs:OGC:1.3:CRS84" } },
"features": [
{ "type": "Feature", "properties": { "data.route.shortName": "103", "data.route.longName": "Pedrera - Arboledas - Tampico por Av. Hidalgo y Ayuntamiento", "shape_id": "shape_103" }, "geometry": { "type": "LineString", "coordinates": [ [ -97.87861, 22.38375 ], [ -97.87838, 22.38581 ], [ -97.88396, 22.38661 ], [ -97.88511, 22.38996 ], [ -97.88481, 22.39135 ], [ -97.88436, 22.3922 ], [ -97.88389, 22.39589 ], [ -97.88825, 22.39556 ], [ -97.89327, 22.3955 ], [ -97.89456, 22.39589 ], [ -97.90005, 22.39704 ], [ -97.90114, 22.39663 ], [ -97.91222, 22.38744 ], [ -97.91344, 22.38633 ], [ -97.91428, 22.38446 ], [ -97.91526, 22.38335 ], [ -97.90316, 22.37121 ], [ -97.89269, 22.36028 ], [ -97.88718, 22.35422 ], [ -97.88402, 22.35164 ], [ -97.88213, 22.35061 ], [ -97.88001, 22.34944 ], [ -97.87765, 22.34724 ], [ -97.87625, 22.34567 ], [ -97.87385, 22.33781 ], [ -97.87325, 22.33531 ], [ -97.87391, 22.3312 ], [ -97.87668, 22.32261 ], [ -97.87866, 22.31689 ], [ -97.88052, 22.31056 ], [ -97.88112, 22.30861 ], [ -97.88173, 22.30611 ], [ -97.88168, 22.30502 ], [ -97.87973, 22.30129 ], [ -97.87625, 22.29585 ], [ -97.87331, 22.29108 ], [ -97.87295, 22.28808 ], [ -97.87404, 22.28511 ], [ -97.87291, 22.28247 ], [ -97.87306, 22.27959 ], [ -97.87394, 22.2754 ], [ -97.87466, 22.27278 ], [ -97.8737, 22.26978 ], [ -97.87385, 22.26696 ], [ -97.87449, 22.26553 ], [ -97.87565, 22.26114 ], [ -97.8766, 22.25727 ], [ -97.87651, 22.25518 ], [ -97.87396, 22.24793 ], [ -97.87121, 22.24257 ], [ -97.86904, 22.23723 ], [ -97.86716, 22.23286 ], [ -97.86475, 22.22706 ], [ -97.86346, 22.2234 ], [ -97.86336, 22.22209 ], [ -97.86321, 22.22056 ], [ -97.86265, 22.21939 ], [ -97.85926, 22.2179 ], [ -97.86097, 22.21458 ], [ -97.86344, 22.21566 ], [ -97.86261, 22.2175 ], [ -97.85829, 22.21566 ], [ -97.85876, 22.21478 ], [ -97.85958, 22.21514 ], [ -97.85958, 22.21514 ], [ -97.85804, 22.21836 ], [ -97.86326, 22.22064 ], [ -97.86336, 22.22209 ], [ -97.86346, 22.2234 ], [ -97.86488, 22.22698 ], [ -97.86664, 22.23159 ], [ -97.86831, 22.23584 ], [ -97.87018, 22.24012 ], [ -97.86808, 22.24084 ], [ -97.86629, 22.24126 ], [ -97.86647, 22.24543 ], [ -97.86649, 22.2476 ], [ -97.86604, 22.24992 ], [ -97.86323, 22.25079 ], [ -97.86331, 22.25278 ], [ -97.86473, 22.25306 ], [ -97.86469, 22.25522 ], [ -97.86381, 22.25725 ], [ -97.86108, 22.26249 ], [ -97.86044, 22.2636 ], [ -97.8596, 22.26652 ], [ -97.8581, 22.27079 ], [ -97.85643, 22.27548 ], [ -97.85531, 22.27474 ], [ -97.85514, 22.27484 ], [ -97.85513, 22.27502 ], [ -97.856, 22.27643 ], [ -97.85656, 22.27688 ], [ -97.85883, 22.27802 ], [ -97.86295, 22.28119 ], [ -97.86578, 22.28481 ], [ -97.8705, 22.2881 ], [ -97.87331, 22.29108 ], [ -97.87973, 22.30129 ], [ -97.88168, 22.30502 ], [ -97.88173, 22.30611 ], [ -97.88112, 22.30861 ], [ -97.88052, 22.31056 ], [ -97.87849, 22.31705 ], [ -97.8766, 22.32324 ], [ -97.87391, 22.3312 ], [ -97.87325, 22.33531 ], [ -97.87385, 22.33781 ], [ -97.87625, 22.34567 ], [ -97.87765, 22.34724 ], [ -97.88001, 22.34944 ], [ -97.88213, 22.35061 ], [ -97.88402, 22.35164 ], [ -97.88718, 22.35422 ], [ -97.89269, 22.36028 ], [ -97.90127, 22.36954 ], [ -97.90219, 22.37147 ], [ -97.90368, 22.37357 ], [ -97.90769, 22.37571 ], [ -97.91526, 22.38335 ], [ -97.91428, 22.38446 ], [ -97.91344, 22.38633 ], [ -97.91222, 22.38744 ], [ -97.90698, 22.39187 ], [ -97.90114, 22.39663 ], [ -97.90005, 22.39704 ], [ -97.89456, 22.39589 ], [ -97.89327, 22.3955 ], [ -97.88825, 22.39556 ], [ -97.88389, 22.39589 ], [ -97.88436, 22.3922 ], [ -97.88481, 22.39135 ], [ -97.88511, 22.38996 ], [ -97.88396, 22.38661 ], [ -97.88364, 22.38536 ], [ -97.88368, 22.38433 ], [ -97.8787, 22.38377 ] ] } }
]
}
