{
"type": "FeatureCollection",
"name": "shape_66",
"crs": { "type": "name", "properties": { "name": "urn:ogc:def:crs:OGC:1.3:CRS84" } },
"features": [
{ "type": "Feature", "properties": { "data.route.shortName": "66", "data.route.longName": "Madero - El Blanco", "shape_id": "shape_66" }, "geometry": { "type": "LineString", "coordinates": [ [ -97.83785, 22.27616 ], [ -97.83514, 22.2679 ], [ -97.83334, 22.26221 ], [ -97.835, 22.26087 ], [ -97.8326, 22.25843 ], [ -97.8373, 22.25447 ], [ -97.8352, 22.24948 ], [ -97.83483, 22.24858 ], [ -97.83468, 22.24819 ], [ -97.83411, 22.24667 ], [ -97.83524, 22.24487 ], [ -97.83747, 22.24604 ], [ -97.8352, 22.24948 ], [ -97.8373, 22.25447 ], [ -97.8326, 22.25843 ], [ -97.835, 22.26087 ], [ -97.83394, 22.26181 ], [ -97.83855, 22.27605 ] ] } }
]
}
