{
"type": "FeatureCollection",
"name": "shape_56",
"crs": { "type": "name", "properties": { "name": "urn:ogc:def:crs:OGC:1.3:CRS84" } },
"features": [
{ "type": "Feature", "properties": { "data.route.shortName": "56", "data.route.longName": "Bellavista", "shape_id": "shape_56" }, "geometry": { "type": "LineString", "coordinates": [ [ -97.87378, 22.23843 ], [ -97.87344, 22.23787 ], [ -97.87314, 22.23557 ], [ -97.87264, 22.23489 ], [ -97.87232, 22.23429 ], [ -97.8722, 22.23367 ], [ -97.87232, 22.23287 ], [ -97.87273, 22.23242 ], [ -97.87258, 22.23184 ], [ -97.87219, 22.23143 ], [ -97.87157, 22.23113 ], [ -97.87075, 22.23053 ], [ -97.86984, 22.22815 ], [ -97.86818, 22.22768 ], [ -97.86652, 22.2236 ], [ -97.86593, 22.22388 ], [ -97.86447, 22.22338 ], [ -97.86345, 22.22353 ], [ -97.8632, 22.22093 ], [ -97.86318, 22.22047 ], [ -97.86269, 22.21941 ], [ -97.85758, 22.21714 ], [ -97.85884, 22.21477 ], [ -97.85964, 22.21517 ], [ -97.85797, 22.21837 ], [ -97.86318, 22.22063 ], [ -97.86318, 22.22063 ], [ -97.85797, 22.21837 ], [ -97.85964, 22.21517 ], [ -97.85884, 22.21477 ], [ -97.85758, 22.21714 ], [ -97.86269, 22.21941 ], [ -97.86318, 22.22047 ], [ -97.8632, 22.22093 ], [ -97.86345, 22.22353 ], [ -97.86447, 22.22338 ], [ -97.86593, 22.22388 ], [ -97.86652, 22.2236 ], [ -97.86818, 22.22768 ], [ -97.86984, 22.22815 ], [ -97.87075, 22.23053 ], [ -97.87157, 22.23113 ], [ -97.87219, 22.23143 ], [ -97.87258, 22.23184 ], [ -97.87273, 22.23242 ], [ -97.87232, 22.23287 ], [ -97.8722, 22.23367 ], [ -97.87232, 22.23429 ], [ -97.87264, 22.23489 ], [ -97.87314, 22.23557 ], [ -97.87344, 22.23787 ] ] } }
]
}
