{
"type": "FeatureCollection",
"name": "shape_119",
"crs": { "type": "name", "properties": { "name": "urn:ogc:def:crs:OGC:1.3:CRS84" } },
"features": [
{ "type": "Feature", "properties": { "data.route.shortName": "119", "data.route.longName": "Pedrera - Soriana - Aeropuerto", "shape_id": "shape_119" }, "geometry": { "type": "LineString", "coordinates": [ [ -97.87866, 22.38372 ], [ -97.87837, 22.38582 ], [ -97.88401, 22.38658 ], [ -97.88507, 22.38996 ], [ -97.88501, 22.39065 ], [ -97.88434, 22.39216 ], [ -97.88393, 22.39587 ], [ -97.89348, 22.39546 ], [ -97.89694, 22.38583 ], [ -97.90054, 22.38194 ], [ -97.90153, 22.3779 ], [ -97.90189, 22.37665 ], [ -97.90252, 22.3754 ], [ -97.904, 22.37353 ], [ -97.904, 22.37268 ], [ -97.90378, 22.37194 ], [ -97.9002, 22.36833 ], [ -97.89483, 22.36266 ], [ -97.89119, 22.35865 ], [ -97.88707, 22.35409 ], [ -97.88351, 22.35123 ], [ -97.8802, 22.34956 ], [ -97.87634, 22.34573 ], [ -97.87344, 22.33648 ], [ -97.87342, 22.33414 ], [ -97.87471, 22.32916 ], [ -97.8763, 22.32376 ], [ -97.87823, 22.31753 ], [ -97.87934, 22.31411 ], [ -97.88037, 22.31078 ], [ -97.88117, 22.30841 ], [ -97.88177, 22.30587 ], [ -97.88078, 22.30295 ], [ -97.8796, 22.30121 ], [ -97.87651, 22.29616 ], [ -97.87333, 22.29124 ], [ -97.87297, 22.28965 ], [ -97.87037, 22.28797 ], [ -97.86956, 22.28731 ], [ -97.86962, 22.28745 ], [ -97.8704, 22.28797 ], [ -97.87192, 22.28979 ], [ -97.87333, 22.29124 ], [ -97.87655, 22.2962 ], [ -97.87883, 22.30002 ], [ -97.88078, 22.30295 ], [ -97.88157, 22.3045 ], [ -97.88177, 22.30587 ], [ -97.88117, 22.30841 ], [ -97.8805, 22.31058 ], [ -97.87964, 22.31308 ], [ -97.87831, 22.31753 ], [ -97.87733, 22.3207 ], [ -97.8763, 22.32376 ], [ -97.87479, 22.32864 ], [ -97.87342, 22.33414 ], [ -97.87344, 22.33648 ], [ -97.87497, 22.3415 ], [ -97.87634, 22.34573 ], [ -97.8802, 22.34956 ], [ -97.88351, 22.35123 ], [ -97.88707, 22.35409 ], [ -97.89514, 22.36278 ], [ -97.90378, 22.37194 ], [ -97.904, 22.37353 ], [ -97.90252, 22.3754 ], [ -97.90153, 22.3779 ], [ -97.90054, 22.38194 ], [ -97.89694, 22.38583 ], [ -97.89348, 22.39546 ], [ -97.88393, 22.39587 ], [ -97.88434, 22.39216 ], [ -97.88501, 22.39065 ], [ -97.88507, 22.38996 ], [ -97.88401, 22.38658 ], [ -97.88432, 22.38437 ], [ -97.8787, 22.38373 ] ] } }
]
}
