{
"type": "FeatureCollection",
"name": "shape_30",
"crs": { "type": "name", "properties": { "name": "urn:ogc:def:crs:OGC:1.3:CRS84" } },
"features": [
{ "type": "Feature", "properties": { "data.route.shortName": "30", "data.route.longName": "Ganadera por Divisoria", "shape_id": "shape_30" }, "geometry": { "type": "LineString", "coordinates": [ [ -97.88224, 22.33406 ], [ -97.88378, 22.33071 ], [ -97.88368, 22.32959 ], [ -97.88319, 22.32965 ], [ -97.88312, 22.32632 ], [ -97.88112, 22.32637 ], [ -97.88095, 22.32307 ], [ -97.87652, 22.32339 ], [ -97.87828, 22.3178 ], [ -97.87914, 22.31492 ], [ -97.87988, 22.31252 ], [ -97.88074, 22.31003 ], [ -97.88122, 22.30842 ], [ -97.8818, 22.30664 ], [ -97.88186, 22.30497 ], [ -97.88008, 22.30176 ], [ -97.87677, 22.29654 ], [ -97.87342, 22.2913 ], [ -97.8731, 22.28978 ], [ -97.87292, 22.28875 ], [ -97.87316, 22.28764 ], [ -97.87406, 22.28477 ], [ -97.87307, 22.28261 ], [ -97.87311, 22.27897 ], [ -97.87391, 22.27551 ], [ -97.87468, 22.27336 ], [ -97.87458, 22.27232 ], [ -97.87372, 22.27019 ], [ -97.87381, 22.2669 ], [ -97.87458, 22.26533 ], [ -97.87612, 22.25963 ], [ -97.87662, 22.25733 ], [ -97.87621, 22.25397 ], [ -97.87336, 22.24698 ], [ -97.86979, 22.23923 ], [ -97.86662, 22.23165 ], [ -97.8637, 22.22416 ], [ -97.86316, 22.22116 ], [ -97.86325, 22.22054 ], [ -97.86258, 22.21939 ], [ -97.85926, 22.21791 ], [ -97.86007, 22.21633 ], [ -97.85837, 22.2156 ], [ -97.85881, 22.2148 ], [ -97.86046, 22.21553 ], [ -97.8607, 22.21505 ], [ -97.86146, 22.21348 ], [ -97.85978, 22.21285 ], [ -97.85937, 22.21367 ], [ -97.8605, 22.21501 ], [ -97.86152, 22.21545 ], [ -97.86091, 22.21673 ], [ -97.86007, 22.21633 ], [ -97.86079, 22.21327 ], [ -97.86044, 22.21391 ], [ -97.86014, 22.21437 ], [ -97.86068, 22.21514 ], [ -97.86152, 22.21545 ], [ -97.86133, 22.2159 ], [ -97.86093, 22.21673 ], [ -97.85919, 22.21594 ], [ -97.858, 22.21837 ], [ -97.86234, 22.22024 ], [ -97.86324, 22.22063 ], [ -97.86316, 22.22116 ], [ -97.8637, 22.22416 ], [ -97.86662, 22.23165 ], [ -97.86979, 22.23923 ], [ -97.87336, 22.24698 ], [ -97.87621, 22.25397 ], [ -97.87662, 22.25733 ], [ -97.87612, 22.25963 ], [ -97.87458, 22.26533 ], [ -97.87381, 22.2669 ], [ -97.87372, 22.27019 ], [ -97.87458, 22.27232 ], [ -97.87468, 22.27336 ], [ -97.87391, 22.27551 ], [ -97.87311, 22.27897 ], [ -97.87307, 22.28261 ], [ -97.87406, 22.28477 ], [ -97.87316, 22.28764 ], [ -97.87292, 22.28875 ], [ -97.8731, 22.28978 ], [ -97.87342, 22.2913 ], [ -97.87677, 22.29654 ], [ -97.88008, 22.30176 ], [ -97.88186, 22.30497 ], [ -97.8818, 22.30664 ], [ -97.88122, 22.30842 ], [ -97.88074, 22.31003 ], [ -97.87988, 22.31252 ], [ -97.87914, 22.31492 ], [ -97.87828, 22.3178 ], [ -97.87652, 22.32339 ], [ -97.88095, 22.32307 ], [ -97.88112, 22.32637 ], [ -97.88312, 22.32632 ], [ -97.88319, 22.32965 ], [ -97.88368, 22.32959 ], [ -97.88378, 22.33071 ] ] } }
]
}
