{
"type": "FeatureCollection",
"name": "shape_80",
"crs": { "type": "name", "properties": { "name": "urn:ogc:def:crs:OGC:1.3:CRS84" } },
"features": [
{ "type": "Feature", "properties": { "data.route.shortName": "80", "data.route.longName": "Universidad", "shape_id": "shape_80" }, "geometry": { "type": "LineString", "coordinates": [ [ -97.86687, 22.27867 ], [ -97.86302, 22.28151 ], [ -97.86057, 22.27923 ], [ -97.8563, 22.2755 ], [ -97.85861, 22.26954 ], [ -97.85943, 22.26686 ], [ -97.86042, 22.26338 ], [ -97.86162, 22.26124 ], [ -97.86312, 22.25882 ], [ -97.86379, 22.25731 ], [ -97.86469, 22.25522 ], [ -97.86477, 22.25435 ], [ -97.86559, 22.25314 ], [ -97.86677, 22.25113 ], [ -97.86724, 22.24942 ], [ -97.86767, 22.24702 ], [ -97.86696, 22.24438 ], [ -97.86707, 22.24272 ], [ -97.86636, 22.23778 ], [ -97.8657, 22.23548 ], [ -97.86503, 22.23351 ], [ -97.86467, 22.23181 ], [ -97.86411, 22.2303 ], [ -97.86495, 22.22734 ], [ -97.8635, 22.22356 ], [ -97.86325, 22.22159 ], [ -97.8558, 22.21837 ], [ -97.85541, 22.21914 ], [ -97.85626, 22.21954 ], [ -97.85626, 22.21954 ], [ -97.85718, 22.21993 ], [ -97.85827, 22.22041 ], [ -97.86334, 22.22263 ], [ -97.8635, 22.22356 ], [ -97.86495, 22.22734 ], [ -97.86574, 22.2295 ], [ -97.86417, 22.23024 ], [ -97.86419, 22.23036 ], [ -97.86279, 22.23066 ], [ -97.86354, 22.2335 ], [ -97.86341, 22.2338 ], [ -97.86356, 22.23832 ], [ -97.86361, 22.24117 ], [ -97.86422, 22.24118 ], [ -97.86432, 22.24144 ], [ -97.8663, 22.24126 ], [ -97.86638, 22.24273 ], [ -97.86641, 22.24441 ], [ -97.86651, 22.24687 ], [ -97.86644, 22.24793 ], [ -97.86599, 22.24991 ], [ -97.86327, 22.25079 ], [ -97.86334, 22.25276 ], [ -97.86473, 22.25302 ], [ -97.86477, 22.25435 ], [ -97.86469, 22.25522 ], [ -97.86379, 22.25731 ], [ -97.86312, 22.25882 ], [ -97.86162, 22.26124 ], [ -97.86042, 22.26338 ], [ -97.85943, 22.26686 ], [ -97.85861, 22.26954 ], [ -97.8563, 22.27546 ], [ -97.85456, 22.27421 ], [ -97.8561, 22.27667 ], [ -97.86057, 22.27923 ], [ -97.86306, 22.28153 ], [ -97.86735, 22.27836 ] ] } }
]
}
