{
"type": "FeatureCollection",
"name": "shape_29",
"crs": { "type": "name", "properties": { "name": "urn:ogc:def:crs:OGC:1.3:CRS84" } },
"features": [
{ "type": "Feature", "properties": { "data.route.shortName": "29", "data.route.longName": "Águila Echeverría - Panteón", "shape_id": "shape_29" }, "geometry": { "type": "LineString", "coordinates": [ [ -97.89121, 22.29794 ], [ -97.89252, 22.29555 ], [ -97.89116, 22.2941 ], [ -97.89074, 22.29345 ], [ -97.89049, 22.29263 ], [ -97.88863, 22.29058 ], [ -97.88701, 22.28888 ], [ -97.88589, 22.28528 ], [ -97.8871, 22.28496 ], [ -97.88671, 22.28387 ], [ -97.88787, 22.28356 ], [ -97.88648, 22.28085 ], [ -97.88646, 22.27973 ], [ -97.88936, 22.27963 ], [ -97.89163, 22.27966 ], [ -97.89142, 22.27818 ], [ -97.88946, 22.27854 ], [ -97.88907, 22.27742 ], [ -97.88972, 22.27727 ], [ -97.89065, 22.27666 ], [ -97.88988, 22.27604 ], [ -97.88904, 22.27578 ], [ -97.88786, 22.27554 ], [ -97.88733, 22.27727 ], [ -97.88605, 22.27767 ], [ -97.88499, 22.27816 ], [ -97.884, 22.27893 ], [ -97.88354, 22.279 ], [ -97.88225, 22.27891 ], [ -97.88106, 22.27891 ], [ -97.87925, 22.27782 ], [ -97.87768, 22.27639 ], [ -97.8741, 22.27545 ], [ -97.87473, 22.27302 ], [ -97.87381, 22.26988 ], [ -97.87383, 22.26692 ], [ -97.87497, 22.26422 ], [ -97.87621, 22.25933 ], [ -97.87657, 22.25709 ], [ -97.87632, 22.25441 ], [ -97.87417, 22.24839 ], [ -97.87183, 22.24424 ], [ -97.86868, 22.23675 ], [ -97.86359, 22.22398 ], [ -97.86331, 22.22227 ], [ -97.86316, 22.22054 ], [ -97.86265, 22.21937 ], [ -97.85755, 22.21715 ], [ -97.85922, 22.21401 ], [ -97.85832, 22.21359 ], [ -97.85768, 22.21483 ], [ -97.85768, 22.21483 ], [ -97.85731, 22.21554 ], [ -97.85671, 22.21671 ], [ -97.85755, 22.21715 ], [ -97.86265, 22.21937 ], [ -97.86316, 22.22054 ], [ -97.86331, 22.22227 ], [ -97.86359, 22.22398 ], [ -97.86868, 22.23675 ], [ -97.87183, 22.24424 ], [ -97.87417, 22.24839 ], [ -97.87632, 22.25441 ], [ -97.87657, 22.25709 ], [ -97.87621, 22.25933 ], [ -97.87497, 22.26422 ], [ -97.87383, 22.26692 ], [ -97.87381, 22.26988 ], [ -97.87473, 22.27302 ], [ -97.8741, 22.27545 ], [ -97.87768, 22.27639 ], [ -97.87925, 22.27782 ], [ -97.88106, 22.27891 ], [ -97.88225, 22.27891 ], [ -97.88354, 22.279 ], [ -97.884, 22.27893 ], [ -97.88499, 22.27816 ], [ -97.88605, 22.27767 ], [ -97.88733, 22.27727 ], [ -97.88907, 22.27742 ], [ -97.88946, 22.27854 ], [ -97.89142, 22.27818 ], [ -97.89163, 22.27966 ], [ -97.88936, 22.27963 ], [ -97.88646, 22.27973 ], [ -97.88648, 22.28085 ], [ -97.88763, 22.28304 ], [ -97.88534, 22.28371 ], [ -97.88589, 22.28528 ], [ -97.88701, 22.28888 ], [ -97.88863, 22.29058 ], [ -97.89049, 22.29263 ], [ -97.89074, 22.29345 ], [ -97.89116, 22.2941 ], [ -97.89252, 22.29554 ], [ -97.89126, 22.29792 ] ] } }
]
}
