{
"type": "FeatureCollection",
"name": "shape_12",
"crs": { "type": "name", "properties": { "name": "urn:ogc:def:crs:OGC:1.3:CRS84" } },
"features": [
{ "type": "Feature", "properties": { "data.route.shortName": "12", "data.route.longName": "Morelos - Moralillo", "shape_id": "shape_12" }, "geometry": { "type": "LineString", "coordinates": [ [ -97.89575, 22.23164 ], [ -97.89559, 22.23067 ], [ -97.89527, 22.22969 ], [ -97.89455, 22.22683 ], [ -97.89301, 22.22727 ], [ -97.89185, 22.22799 ], [ -97.89119, 22.22825 ], [ -97.89039, 22.22828 ], [ -97.88967, 22.22808 ], [ -97.88955, 22.22795 ], [ -97.88952, 22.2276 ], [ -97.88968, 22.22741 ], [ -97.89008, 22.22726 ], [ -97.89118, 22.22745 ], [ -97.89179, 22.22743 ], [ -97.8933, 22.22709 ], [ -97.89459, 22.22675 ], [ -97.89543, 22.22658 ], [ -97.89515, 22.2262 ], [ -97.89477, 22.22581 ], [ -97.8942, 22.22503 ], [ -97.89377, 22.22484 ], [ -97.89194, 22.22468 ], [ -97.8908, 22.22444 ], [ -97.88936, 22.22392 ], [ -97.88883, 22.22334 ], [ -97.88895, 22.22375 ], [ -97.88671, 22.22292 ], [ -97.88547, 22.22325 ], [ -97.8705, 22.21755 ], [ -97.87078, 22.21697 ], [ -97.86827, 22.21603 ], [ -97.86778, 22.2156 ], [ -97.86616, 22.21499 ], [ -97.86474, 22.21472 ], [ -97.86405, 22.21446 ], [ -97.86323, 22.21619 ], [ -97.86068, 22.21508 ], [ -97.86049, 22.21503 ], [ -97.86011, 22.21435 ], [ -97.85939, 22.2137 ], [ -97.85897, 22.21342 ], [ -97.85855, 22.21328 ], [ -97.85767, 22.21294 ], [ -97.85777, 22.2127 ], [ -97.85604, 22.21205 ], [ -97.85584, 22.21248 ], [ -97.85923, 22.21402 ], [ -97.85839, 22.21561 ], [ -97.86179, 22.21711 ], [ -97.86319, 22.21415 ], [ -97.86405, 22.21446 ], [ -97.86405, 22.21446 ], [ -97.86319, 22.21415 ], [ -97.86179, 22.21711 ], [ -97.85839, 22.21561 ], [ -97.85923, 22.21402 ], [ -97.85584, 22.21248 ], [ -97.85604, 22.21205 ], [ -97.85777, 22.2127 ], [ -97.85767, 22.21294 ], [ -97.85855, 22.21328 ], [ -97.85897, 22.21342 ], [ -97.85939, 22.2137 ], [ -97.86011, 22.21435 ], [ -97.86049, 22.21503 ], [ -97.86068, 22.21508 ], [ -97.86323, 22.21619 ], [ -97.86405, 22.21446 ], [ -97.86474, 22.21472 ], [ -97.86616, 22.21499 ], [ -97.86778, 22.2156 ], [ -97.86827, 22.21603 ], [ -97.87078, 22.21697 ], [ -97.8705, 22.21755 ], [ -97.88547, 22.22325 ], [ -97.88671, 22.22292 ], [ -97.88895, 22.22375 ], [ -97.88883, 22.22334 ], [ -97.88936, 22.22392 ], [ -97.8908, 22.22444 ], [ -97.89194, 22.22468 ], [ -97.89377, 22.22484 ], [ -97.8942, 22.22503 ], [ -97.89477, 22.22581 ], [ -97.89515, 22.2262 ], [ -97.89543, 22.22658 ], [ -97.89459, 22.22675 ], [ -97.8933, 22.22709 ], [ -97.89179, 22.22743 ], [ -97.89118, 22.22745 ], [ -97.89008, 22.22726 ], [ -97.88968, 22.22741 ], [ -97.88952, 22.2276 ], [ -97.88955, 22.22795 ], [ -97.88967, 22.22808 ], [ -97.89039, 22.22828 ], [ -97.89119, 22.22825 ], [ -97.89185, 22.22799 ], [ -97.89301, 22.22727 ], [ -97.89455, 22.22683 ], [ -97.89527, 22.22969 ], [ -97.89558, 22.23067 ] ] } }
]
}
