{
"type": "FeatureCollection",
"name": "shape_103A",
"crs": { "type": "name", "properties": { "name": "urn:ogc:def:crs:OGC:1.3:CRS84" } },
"features": [
{ "type": "Feature", "properties": { "data.route.shortName": "103A", "data.route.longName": "Pedrera - Arboledas - Tampico por Av. Hidalgo y Ayuntamiento", "shape_id": "shape_103A" }, "geometry": { "type": "LineString", "coordinates": [ [ -97.87861, 22.38375 ], [ -97.87838, 22.38581 ], [ -97.88396, 22.38661 ], [ -97.88511, 22.38996 ], [ -97.88481, 22.39135 ], [ -97.88436, 22.3922 ], [ -97.88389, 22.39589 ], [ -97.88825, 22.39556 ], [ -97.89327, 22.3955 ], [ -97.89456, 22.39589 ], [ -97.90005, 22.39704 ], [ -97.90114, 22.39663 ], [ -97.91222, 22.38744 ], [ -97.91344, 22.38633 ], [ -97.91428, 22.38446 ], [ -97.91526, 22.38335 ], [ -97.90316, 22.37121 ], [ -97.89269, 22.36028 ], [ -97.88718, 22.35422 ], [ -97.88402, 22.35164 ], [ -97.88213, 22.35061 ], [ -97.88001, 22.34944 ], [ -97.87765, 22.34724 ], [ -97.87625, 22.34567 ], [ -97.87385, 22.33781 ], [ -97.87325, 22.33531 ], [ -97.87391, 22.3312 ], [ -97.88052, 22.31056 ], [ -97.88112, 22.30861 ], [ -97.88173, 22.30611 ], [ -97.88168, 22.30502 ], [ -97.87973, 22.30129 ], [ -97.87331, 22.29108 ], [ -97.87295, 22.28808 ], [ -97.87404, 22.28511 ], [ -97.87291, 22.28247 ], [ -97.87306, 22.27959 ], [ -97.87394, 22.2754 ], [ -97.87466, 22.27278 ], [ -97.8737, 22.26978 ], [ -97.87385, 22.26696 ], [ -97.87449, 22.26553 ], [ -97.8766, 22.25727 ], [ -97.87651, 22.25518 ], [ -97.87396, 22.24793 ], [ -97.87121, 22.24257 ], [ -97.86346, 22.2234 ], [ -97.86336, 22.22209 ], [ -97.86321, 22.22056 ], [ -97.85799, 22.21834 ], [ -97.85958, 22.21514 ], [ -97.85958, 22.21514 ], [ -97.85885, 22.2148 ], [ -97.85838, 22.21568 ], [ -97.86261, 22.2175 ], [ -97.86355, 22.21568 ], [ -97.86097, 22.21458 ], [ -97.85928, 22.21794 ], [ -97.86265, 22.21941 ], [ -97.86321, 22.22056 ], [ -97.86336, 22.22209 ], [ -97.86346, 22.2234 ], [ -97.86509, 22.22734 ], [ -97.86441, 22.22891 ], [ -97.86415, 22.22974 ], [ -97.8643, 22.23061 ], [ -97.86625, 22.23733 ], [ -97.86698, 22.24424 ], [ -97.86769, 22.24708 ], [ -97.86728, 22.24944 ], [ -97.86681, 22.25087 ], [ -97.86531, 22.25367 ], [ -97.86381, 22.25737 ], [ -97.86059, 22.26336 ], [ -97.85939, 22.26706 ], [ -97.85797, 22.27123 ], [ -97.8563, 22.2754 ], [ -97.86158, 22.28 ], [ -97.86578, 22.28485 ], [ -97.87115, 22.28878 ], [ -97.87331, 22.29108 ], [ -97.87973, 22.30129 ], [ -97.88168, 22.30502 ], [ -97.88173, 22.30611 ], [ -97.88112, 22.30861 ], [ -97.88052, 22.31056 ], [ -97.87391, 22.3312 ], [ -97.87325, 22.33531 ], [ -97.87385, 22.33781 ], [ -97.87625, 22.34567 ], [ -97.87765, 22.34724 ], [ -97.88001, 22.34944 ], [ -97.88213, 22.35061 ], [ -97.88402, 22.35164 ], [ -97.88718, 22.35422 ], [ -97.89269, 22.36028 ], [ -97.90316, 22.37121 ], [ -97.91526, 22.38335 ], [ -97.91428, 22.38446 ], [ -97.91344, 22.38633 ], [ -97.91222, 22.38744 ], [ -97.90114, 22.39663 ], [ -97.90005, 22.39704 ], [ -97.89456, 22.39589 ], [ -97.89327, 22.3955 ], [ -97.88825, 22.39556 ], [ -97.88389, 22.39589 ], [ -97.88436, 22.3922 ], [ -97.88481, 22.39135 ], [ -97.88511, 22.38996 ], [ -97.88396, 22.38661 ], [ -97.87838, 22.38581 ] ] } }
]
}
