{
"type": "FeatureCollection",
"name": "shape_26",
"crs": { "type": "name", "properties": { "name": "urn:ogc:def:crs:OGC:1.3:CRS84" } },
"features": [
{ "type": "Feature", "properties": { "data.route.shortName": "26", "data.route.longName": "Tampico - Puertas Coloradas - Divisoria", "shape_id": "shape_26" }, "geometry": { "type": "LineString", "coordinates": [ [ -97.88267, 22.32306 ], [ -97.88444, 22.32326 ], [ -97.88436, 22.31969 ], [ -97.88434, 22.31908 ], [ -97.88425, 22.31781 ], [ -97.88557, 22.31786 ], [ -97.88572, 22.31779 ], [ -97.88584, 22.31678 ], [ -97.88607, 22.31622 ], [ -97.88671, 22.3147 ], [ -97.88694, 22.31362 ], [ -97.88716, 22.31197 ], [ -97.88735, 22.31118 ], [ -97.88822, 22.30696 ], [ -97.89112, 22.30671 ], [ -97.89138, 22.30523 ], [ -97.8919, 22.30471 ], [ -97.89261, 22.30525 ], [ -97.89551, 22.30196 ], [ -97.89332, 22.30028 ], [ -97.89287, 22.30002 ], [ -97.89209, 22.3004 ], [ -97.89183, 22.30038 ], [ -97.89082, 22.30187 ], [ -97.89053, 22.30227 ], [ -97.89041, 22.30224 ], [ -97.89029, 22.3025 ], [ -97.88921, 22.30204 ], [ -97.89032, 22.3 ], [ -97.88973, 22.29987 ], [ -97.89022, 22.29891 ], [ -97.88975, 22.29806 ], [ -97.88905, 22.29848 ], [ -97.8878, 22.29916 ], [ -97.88612, 22.30193 ], [ -97.88542, 22.30309 ], [ -97.88533, 22.30324 ], [ -97.88409, 22.30287 ], [ -97.88505, 22.30134 ], [ -97.88494, 22.30127 ], [ -97.88404, 22.30126 ], [ -97.88398, 22.30042 ], [ -97.88397, 22.30008 ], [ -97.88477, 22.29882 ], [ -97.88492, 22.29874 ], [ -97.88466, 22.29848 ], [ -97.88691, 22.29691 ], [ -97.88634, 22.29625 ], [ -97.88612, 22.29547 ], [ -97.88318, 22.29518 ], [ -97.88205, 22.29511 ], [ -97.88112, 22.29484 ], [ -97.88054, 22.29456 ], [ -97.88017, 22.29444 ], [ -97.87975, 22.29406 ], [ -97.87776, 22.29294 ], [ -97.87639, 22.29214 ], [ -97.88085, 22.28726 ], [ -97.88121, 22.28736 ], [ -97.88074, 22.28722 ], [ -97.88103, 22.2852 ], [ -97.88123, 22.28512 ], [ -97.88254, 22.28429 ], [ -97.88286, 22.28347 ], [ -97.88301, 22.28335 ], [ -97.88261, 22.28273 ], [ -97.88148, 22.28272 ], [ -97.88155, 22.28069 ], [ -97.88155, 22.28015 ], [ -97.88196, 22.27893 ], [ -97.8815, 22.27896 ], [ -97.8808, 22.27881 ], [ -97.87943, 22.27793 ], [ -97.87833, 22.27683 ], [ -97.87784, 22.27646 ], [ -97.87636, 22.27604 ], [ -97.87405, 22.27545 ], [ -97.87439, 22.27435 ], [ -97.87468, 22.27332 ], [ -97.87476, 22.27248 ], [ -97.87403, 22.27075 ], [ -97.87376, 22.26944 ], [ -97.87384, 22.26735 ], [ -97.87447, 22.26559 ], [ -97.87519, 22.26336 ], [ -97.87619, 22.25956 ], [ -97.87561, 22.25907 ], [ -97.87392, 22.25724 ], [ -97.87355, 22.25619 ], [ -97.87353, 22.25522 ], [ -97.87309, 22.25378 ], [ -97.87414, 22.25348 ], [ -97.87267, 22.24953 ], [ -97.87142, 22.24734 ], [ -97.86723, 22.24942 ], [ -97.86765, 22.24706 ], [ -97.8671, 22.24521 ], [ -97.86699, 22.2444 ], [ -97.86702, 22.24345 ], [ -97.86704, 22.24233 ], [ -97.8669, 22.24124 ], [ -97.86641, 22.23798 ], [ -97.86596, 22.23637 ], [ -97.86564, 22.23537 ], [ -97.86479, 22.23569 ], [ -97.86441, 22.23579 ], [ -97.8641, 22.23616 ], [ -97.8603, 22.23621 ], [ -97.85905, 22.23623 ], [ -97.85891, 22.23624 ], [ -97.85727, 22.23473 ], [ -97.85712, 22.23423 ], [ -97.85724, 22.23371 ], [ -97.85814, 22.23279 ], [ -97.85878, 22.23213 ], [ -97.85929, 22.23154 ], [ -97.85965, 22.23083 ], [ -97.8597, 22.23014 ], [ -97.85948, 22.22923 ], [ -97.85911, 22.22813 ], [ -97.85881, 22.22661 ], [ -97.85851, 22.22589 ], [ -97.85786, 22.22552 ], [ -97.85772, 22.2255 ], [ -97.85944, 22.2219 ], [ -97.85416, 22.21957 ], [ -97.85499, 22.218 ], [ -97.85499, 22.218 ], [ -97.85329, 22.21723 ], [ -97.85145, 22.22062 ], [ -97.85424, 22.2218 ], [ -97.85581, 22.22185 ], [ -97.85666, 22.22253 ], [ -97.85676, 22.22305 ], [ -97.85616, 22.22456 ], [ -97.85676, 22.22541 ], [ -97.85772, 22.2255 ], [ -97.85867, 22.22354 ], [ -97.863, 22.22532 ], [ -97.86141, 22.22874 ], [ -97.86134, 22.22969 ], [ -97.86104, 22.23049 ], [ -97.86108, 22.23254 ], [ -97.86325, 22.2322 ], [ -97.86352, 22.2335 ], [ -97.8634, 22.23415 ], [ -97.86364, 22.24117 ], [ -97.86462, 22.24152 ], [ -97.86621, 22.24124 ], [ -97.86648, 22.24687 ], [ -97.86632, 22.24838 ], [ -97.86601, 22.24994 ], [ -97.87051, 22.24783 ], [ -97.87174, 22.24992 ], [ -97.87309, 22.25378 ], [ -97.87353, 22.25522 ], [ -97.87355, 22.25619 ], [ -97.87392, 22.25724 ], [ -97.87561, 22.25907 ], [ -97.87619, 22.25956 ], [ -97.87519, 22.26336 ], [ -97.87447, 22.26559 ], [ -97.87384, 22.26735 ], [ -97.87376, 22.26944 ], [ -97.87403, 22.27075 ], [ -97.87476, 22.27248 ], [ -97.87468, 22.27332 ], [ -97.87439, 22.27435 ], [ -97.87405, 22.27545 ], [ -97.87636, 22.27604 ], [ -97.87784, 22.27646 ], [ -97.87833, 22.27683 ], [ -97.87943, 22.27793 ], [ -97.8808, 22.27881 ], [ -97.8815, 22.27896 ], [ -97.88196, 22.27893 ], [ -97.88155, 22.28015 ], [ -97.88155, 22.28069 ], [ -97.88148, 22.28272 ], [ -97.88261, 22.28273 ], [ -97.88301, 22.28335 ], [ -97.88286, 22.28347 ], [ -97.88254, 22.28429 ], [ -97.88123, 22.28512 ], [ -97.88103, 22.2852 ], [ -97.88074, 22.28722 ], [ -97.88121, 22.28736 ], [ -97.88085, 22.28726 ], [ -97.87639, 22.29214 ], [ -97.87776, 22.29294 ], [ -97.87975, 22.29406 ], [ -97.88017, 22.29444 ], [ -97.88054, 22.29456 ], [ -97.88112, 22.29484 ], [ -97.88205, 22.29511 ], [ -97.88318, 22.29518 ], [ -97.88612, 22.29547 ], [ -97.88634, 22.29625 ], [ -97.88691, 22.29691 ], [ -97.88466, 22.29848 ], [ -97.88492, 22.29874 ], [ -97.88477, 22.29882 ], [ -97.88397, 22.30008 ], [ -97.88398, 22.30042 ], [ -97.88404, 22.30126 ], [ -97.88494, 22.30127 ], [ -97.88505, 22.30134 ], [ -97.88409, 22.30287 ], [ -97.88533, 22.30324 ], [ -97.88542, 22.30309 ], [ -97.88612, 22.30193 ], [ -97.8878, 22.29916 ], [ -97.88905, 22.29848 ], [ -97.88975, 22.29806 ], [ -97.89022, 22.29891 ], [ -97.88973, 22.29987 ], [ -97.89032, 22.3 ], [ -97.88921, 22.30204 ], [ -97.89029, 22.3025 ], [ -97.89041, 22.30224 ], [ -97.89053, 22.30227 ], [ -97.89082, 22.30187 ], [ -97.89183, 22.30038 ], [ -97.89209, 22.3004 ], [ -97.89287, 22.30002 ], [ -97.89332, 22.30028 ], [ -97.89551, 22.30196 ], [ -97.89261, 22.30525 ], [ -97.8919, 22.30471 ], [ -97.89138, 22.30523 ], [ -97.89112, 22.30671 ], [ -97.88822, 22.30696 ], [ -97.88735, 22.31118 ], [ -97.88716, 22.31197 ], [ -97.88694, 22.31362 ], [ -97.88671, 22.3147 ], [ -97.88607, 22.31622 ], [ -97.88584, 22.31678 ], [ -97.8855, 22.31733 ], [ -97.88479, 22.31735 ], [ -97.88337, 22.31735 ], [ -97.88248, 22.31737 ], [ -97.88249, 22.31788 ], [ -97.88269, 22.32307 ] ] } }
]
}
