{
"type": "FeatureCollection",
"name": "shape_88",
"crs": { "type": "name", "properties": { "name": "urn:ogc:def:crs:OGC:1.3:CRS84" } },
"features": [
{ "type": "Feature", "properties": { "data.route.shortName": "88", "data.route.longName": "Altamira - Batería 7 Ampliación. Adolfo López Mateos", "shape_id": "shape_88" }, "geometry": { "type": "LineString", "coordinates": [ [ -97.91973, 22.42347 ], [ -97.92237, 22.42379 ], [ -97.92224, 22.42469 ], [ -97.92518, 22.42502 ], [ -97.92957, 22.42563 ], [ -97.93107, 22.42575 ], [ -97.93356, 22.4271 ], [ -97.93476, 22.41905 ], [ -97.93453, 22.41864 ], [ -97.93457, 22.41806 ], [ -97.93335, 22.41793 ], [ -97.93392, 22.41439 ], [ -97.93363, 22.41434 ], [ -97.93378, 22.41343 ], [ -97.93146, 22.41224 ], [ -97.93831, 22.40863 ], [ -97.93717, 22.40571 ], [ -97.93804, 22.39721 ], [ -97.93688, 22.39692 ], [ -97.9367, 22.39779 ], [ -97.9367, 22.39779 ], [ -97.93735, 22.39792 ], [ -97.93797, 22.39801 ], [ -97.93717, 22.40571 ], [ -97.93831, 22.40863 ], [ -97.93146, 22.41224 ], [ -97.93378, 22.41343 ], [ -97.93363, 22.41434 ], [ -97.93392, 22.41439 ], [ -97.93335, 22.41793 ], [ -97.93457, 22.41806 ], [ -97.93453, 22.41864 ], [ -97.93476, 22.41905 ], [ -97.93356, 22.4271 ], [ -97.93107, 22.42575 ], [ -97.92957, 22.42563 ], [ -97.92518, 22.42502 ], [ -97.92224, 22.42469 ], [ -97.92237, 22.42379 ] ] } }
]
}
