{
"type": "FeatureCollection",
"name": "shape_60",
"crs": { "type": "name", "properties": { "name": "urn:ogc:def:crs:OGC:1.3:CRS84" } },
"features": [
{ "type": "Feature", "properties": { "data.route.shortName": "60", "data.route.longName": "Madero - Blanco Palmas", "shape_id": "shape_60" }, "geometry": { "type": "LineString", "coordinates": [ [ -97.87522, 22.25862 ], [ -97.87606, 22.2595 ], [ -97.87565, 22.26075 ], [ -97.87432, 22.26043 ], [ -97.87461, 22.2591 ], [ -97.87516, 22.25854 ], [ -97.87396, 22.25725 ], [ -97.87357, 22.25618 ], [ -97.8736, 22.25522 ], [ -97.86465, 22.25523 ], [ -97.86387, 22.25728 ], [ -97.86207, 22.26026 ], [ -97.8612, 22.26219 ], [ -97.86049, 22.26337 ], [ -97.86012, 22.2632 ], [ -97.85934, 22.26274 ], [ -97.85873, 22.26248 ], [ -97.85767, 22.26215 ], [ -97.85677, 22.26217 ], [ -97.85563, 22.26173 ], [ -97.85415, 22.26129 ], [ -97.8557, 22.25721 ], [ -97.85488, 22.25723 ], [ -97.85002, 22.25463 ], [ -97.85165, 22.25406 ], [ -97.84526, 22.25027 ], [ -97.83521, 22.24485 ], [ -97.83435, 22.24628 ], [ -97.83435, 22.24628 ], [ -97.83656, 22.24746 ], [ -97.84432, 22.25171 ], [ -97.84703, 22.25316 ], [ -97.85002, 22.25463 ], [ -97.85263, 22.25603 ], [ -97.8541, 22.25684 ], [ -97.85262, 22.26078 ], [ -97.85563, 22.26173 ], [ -97.85677, 22.26217 ], [ -97.85767, 22.26215 ], [ -97.85873, 22.26248 ], [ -97.85934, 22.26274 ], [ -97.86012, 22.2632 ], [ -97.86049, 22.26337 ], [ -97.8612, 22.26219 ], [ -97.86207, 22.26026 ], [ -97.86387, 22.25728 ], [ -97.86465, 22.25523 ], [ -97.8736, 22.25522 ], [ -97.87357, 22.25618 ], [ -97.87396, 22.25725 ], [ -97.87523, 22.25864 ], [ -97.87461, 22.2591 ], [ -97.87432, 22.26043 ], [ -97.87565, 22.26075 ], [ -97.87609, 22.25951 ], [ -97.87523, 22.25865 ] ] } }
]
}
