{
"type": "FeatureCollection",
"name": "shape_6",
"crs": { "type": "name", "properties": { "name": "urn:ogc:def:crs:OGC:1.3:CRS84" } },
"features": [
{ "type": "Feature", "properties": { "data.route.shortName": "6", "data.route.longName": "Madero - Revolución Verde - Las Torres", "shape_id": "shape_6" }, "geometry": { "type": "LineString", "coordinates": [ [ -97.88064, 22.32208 ], [ -97.88065, 22.32326 ], [ -97.88268, 22.32308 ], [ -97.88206, 22.30845 ], [ -97.88095, 22.30861 ], [ -97.87976, 22.31235 ], [ -97.87725, 22.31252 ], [ -97.87709, 22.30882 ], [ -97.87385, 22.30902 ], [ -97.87287, 22.30892 ], [ -97.87199, 22.30894 ], [ -97.86896, 22.30873 ], [ -97.86914, 22.30523 ], [ -97.86904, 22.30333 ], [ -97.86428, 22.30256 ], [ -97.85765, 22.30494 ], [ -97.8525, 22.29257 ], [ -97.85295, 22.29211 ], [ -97.84192, 22.26547 ], [ -97.84237, 22.26459 ], [ -97.84158, 22.26372 ], [ -97.84297, 22.26027 ], [ -97.84465, 22.25731 ], [ -97.84703, 22.25401 ], [ -97.8416, 22.25112 ], [ -97.84074, 22.25256 ], [ -97.84035, 22.253 ], [ -97.83967, 22.25354 ], [ -97.8358, 22.24961 ], [ -97.83605, 22.24909 ], [ -97.84651, 22.25469 ], [ -97.84651, 22.25469 ], [ -97.83605, 22.24909 ], [ -97.8358, 22.24961 ], [ -97.83967, 22.25354 ], [ -97.84035, 22.253 ], [ -97.84074, 22.25256 ], [ -97.8416, 22.25112 ], [ -97.84703, 22.25401 ], [ -97.84465, 22.25731 ], [ -97.84297, 22.26027 ], [ -97.84158, 22.26372 ], [ -97.8416, 22.26404 ], [ -97.8415, 22.26437 ], [ -97.84192, 22.26547 ], [ -97.85295, 22.29211 ], [ -97.8525, 22.29257 ], [ -97.85765, 22.30494 ], [ -97.86428, 22.30256 ], [ -97.86904, 22.30333 ], [ -97.86914, 22.30523 ], [ -97.86896, 22.30873 ], [ -97.86892, 22.31072 ], [ -97.87363, 22.31092 ], [ -97.87715, 22.31082 ], [ -97.88037, 22.31062 ], [ -97.87976, 22.31235 ], [ -97.87885, 22.31604 ], [ -97.88032, 22.31596 ], [ -97.88243, 22.31572 ], [ -97.88268, 22.32308 ], [ -97.88065, 22.32316 ], [ -97.88067, 22.32213 ] ] } }
]
}
