{
"type": "FeatureCollection",
"name": "shape_38",
"crs": { "type": "name", "properties": { "name": "urn:ogc:def:crs:OGC:1.3:CRS84" } },
"features": [
{ "type": "Feature", "properties": { "data.route.shortName": "38", "data.route.longName": "Circuito Norte", "shape_id": "shape_38" }, "geometry": { "type": "LineString", "coordinates": [ [ -97.88154, 22.28067 ], [ -97.88068, 22.28097 ], [ -97.88, 22.28259 ], [ -97.87994, 22.28279 ], [ -97.87965, 22.28304 ], [ -97.87996, 22.28333 ], [ -97.88052, 22.28359 ], [ -97.88166, 22.28294 ], [ -97.8819, 22.28273 ], [ -97.88256, 22.28277 ], [ -97.88434, 22.28563 ], [ -97.88472, 22.28676 ], [ -97.88169, 22.28737 ], [ -97.88079, 22.28726 ], [ -97.87637, 22.29216 ], [ -97.87992, 22.29416 ], [ -97.87983, 22.29448 ], [ -97.87649, 22.29624 ], [ -97.88179, 22.3049 ], [ -97.88175, 22.30696 ], [ -97.88029, 22.31113 ], [ -97.87825, 22.31731 ], [ -97.87464, 22.31735 ], [ -97.87297, 22.31717 ], [ -97.87027, 22.31723 ], [ -97.86977, 22.31673 ], [ -97.86836, 22.31677 ], [ -97.86855, 22.31401 ], [ -97.86475, 22.31406 ], [ -97.86384, 22.30864 ], [ -97.86378, 22.30812 ], [ -97.86387, 22.30782 ], [ -97.86363, 22.30601 ], [ -97.86313, 22.30493 ], [ -97.8609, 22.30574 ], [ -97.86021, 22.30401 ], [ -97.85758, 22.30495 ], [ -97.85771, 22.30514 ], [ -97.85509, 22.30616 ], [ -97.85227, 22.29936 ], [ -97.85487, 22.29842 ], [ -97.85091, 22.28882 ], [ -97.8504, 22.28714 ], [ -97.84648, 22.2859 ], [ -97.84799, 22.28201 ], [ -97.84015, 22.27944 ], [ -97.84109, 22.27687 ], [ -97.8342, 22.27696 ], [ -97.83425, 22.27666 ], [ -97.83503, 22.27666 ], [ -97.8342, 22.27696 ], [ -97.83355, 22.27696 ], [ -97.83354, 22.27666 ], [ -97.83425, 22.27666 ], [ -97.83364, 22.27469 ], [ -97.82443, 22.26523 ], [ -97.82577, 22.26414 ], [ -97.82214, 22.26054 ], [ -97.82589, 22.25733 ], [ -97.8229, 22.25415 ], [ -97.82353, 22.25362 ], [ -97.82415, 22.25421 ], [ -97.8235, 22.25477 ], [ -97.8235, 22.25477 ], [ -97.82415, 22.25421 ], [ -97.82353, 22.25362 ], [ -97.8229, 22.25415 ], [ -97.82589, 22.25733 ], [ -97.82214, 22.26054 ], [ -97.82577, 22.26414 ], [ -97.82443, 22.26523 ], [ -97.83364, 22.27469 ], [ -97.83425, 22.27666 ], [ -97.83354, 22.27666 ], [ -97.83355, 22.27696 ], [ -97.8342, 22.27696 ], [ -97.83503, 22.27666 ], [ -97.83425, 22.27666 ], [ -97.8342, 22.27696 ], [ -97.84109, 22.27687 ], [ -97.84015, 22.27944 ], [ -97.84799, 22.28201 ], [ -97.84648, 22.2859 ], [ -97.8504, 22.28714 ], [ -97.85091, 22.28882 ], [ -97.85487, 22.29842 ], [ -97.85227, 22.29936 ], [ -97.85509, 22.30616 ], [ -97.85771, 22.30514 ], [ -97.85758, 22.30495 ], [ -97.86021, 22.30401 ], [ -97.8609, 22.30574 ], [ -97.86313, 22.30493 ], [ -97.86363, 22.30601 ], [ -97.86387, 22.30782 ], [ -97.86378, 22.30812 ], [ -97.86384, 22.30864 ], [ -97.86475, 22.31406 ], [ -97.86855, 22.31401 ], [ -97.86836, 22.31677 ], [ -97.86977, 22.31673 ], [ -97.87027, 22.31723 ], [ -97.87297, 22.31717 ], [ -97.87389, 22.31762 ], [ -97.87499, 22.31782 ], [ -97.87636, 22.31778 ], [ -97.87649, 22.31981 ], [ -97.87754, 22.31969 ], [ -97.88029, 22.31113 ], [ -97.88175, 22.30696 ], [ -97.88179, 22.3049 ], [ -97.87649, 22.29624 ], [ -97.87983, 22.29448 ], [ -97.87992, 22.29416 ], [ -97.87637, 22.29216 ], [ -97.88079, 22.28726 ], [ -97.88169, 22.28737 ], [ -97.88472, 22.28676 ], [ -97.88434, 22.28563 ], [ -97.88256, 22.28277 ], [ -97.8819, 22.28273 ], [ -97.88166, 22.28294 ], [ -97.88052, 22.28359 ], [ -97.87996, 22.28333 ], [ -97.87965, 22.28304 ], [ -97.87994, 22.28279 ], [ -97.88, 22.28259 ], [ -97.88068, 22.28097 ] ] } }
]
}
