{
"type": "FeatureCollection",
"name": "shape_106A",
"crs": { "type": "name", "properties": { "name": "urn:ogc:def:crs:OGC:1.3:CRS84" } },
"features": [
{ "type": "Feature", "properties": { "data.route.shortName": "106A", "data.route.longName": "Puerto Industrial - Tampico por Av. Hidalgo y Ayuntamiento", "shape_id": "shape_106A" }, "geometry": { "type": "LineString", "coordinates": [ [ -97.88471, 22.44614 ], [ -97.89647, 22.44372 ], [ -97.89479, 22.43789 ], [ -97.88514, 22.42238 ], [ -97.88484, 22.42089 ], [ -97.88488, 22.41922 ], [ -97.89689, 22.38587 ], [ -97.89977, 22.38258 ], [ -97.90089, 22.38075 ], [ -97.90187, 22.37675 ], [ -97.90348, 22.37439 ], [ -97.90391, 22.37371 ], [ -97.90262, 22.37233 ], [ -97.90172, 22.37085 ], [ -97.90099, 22.36937 ], [ -97.89404, 22.36167 ], [ -97.88722, 22.3543 ], [ -97.88353, 22.35123 ], [ -97.88076, 22.34986 ], [ -97.87821, 22.34773 ], [ -97.87638, 22.34587 ], [ -97.87413, 22.33833 ], [ -97.87331, 22.33634 ], [ -97.87321, 22.33527 ], [ -97.87391, 22.33126 ], [ -97.87589, 22.32554 ], [ -97.8784, 22.31653 ], [ -97.88031, 22.31109 ], [ -97.88166, 22.30665 ], [ -97.88168, 22.30482 ], [ -97.87632, 22.29605 ], [ -97.87327, 22.29108 ], [ -97.86939, 22.28739 ], [ -97.86548, 22.28457 ], [ -97.86312, 22.28147 ], [ -97.86089, 22.27957 ], [ -97.85591, 22.27639 ], [ -97.85467, 22.27436 ], [ -97.85638, 22.27528 ], [ -97.85952, 22.26682 ], [ -97.86029, 22.26384 ], [ -97.86145, 22.26156 ], [ -97.86389, 22.25721 ], [ -97.86469, 22.2552 ], [ -97.86477, 22.2531 ], [ -97.86334, 22.25274 ], [ -97.86331, 22.25075 ], [ -97.86604, 22.24988 ], [ -97.86645, 22.24758 ], [ -97.86649, 22.24535 ], [ -97.86627, 22.2413 ], [ -97.86441, 22.24146 ], [ -97.86417, 22.24118 ], [ -97.86368, 22.2412 ], [ -97.8628, 22.23063 ], [ -97.86409, 22.2304 ], [ -97.86578, 22.22948 ], [ -97.86346, 22.22368 ], [ -97.86327, 22.22062 ], [ -97.86278, 22.21947 ], [ -97.85926, 22.21798 ], [ -97.85842, 22.21754 ], [ -97.85973, 22.21522 ], [ -97.8596, 22.2152 ], [ -97.85881, 22.21482 ], [ -97.85847, 22.21564 ], [ -97.86265, 22.2175 ], [ -97.86346, 22.21568 ], [ -97.86097, 22.21462 ], [ -97.85932, 22.21798 ], [ -97.86278, 22.21947 ], [ -97.86327, 22.22062 ], [ -97.86346, 22.22368 ], [ -97.86501, 22.22738 ], [ -97.86439, 22.22889 ], [ -97.86409, 22.2304 ], [ -97.86574, 22.23558 ], [ -97.86638, 22.23759 ], [ -97.86688, 22.24096 ], [ -97.86707, 22.24227 ], [ -97.86696, 22.2436 ], [ -97.86705, 22.24517 ], [ -97.86773, 22.24706 ], [ -97.86728, 22.24942 ], [ -97.86662, 22.25135 ], [ -97.86563, 22.25324 ], [ -97.86484, 22.25423 ], [ -97.86469, 22.2552 ], [ -97.86389, 22.25721 ], [ -97.86145, 22.26156 ], [ -97.86029, 22.26384 ], [ -97.85952, 22.26682 ], [ -97.85638, 22.27528 ], [ -97.85733, 22.27635 ], [ -97.86089, 22.27957 ], [ -97.86312, 22.28147 ], [ -97.86548, 22.28457 ], [ -97.86939, 22.28739 ], [ -97.87327, 22.29108 ], [ -97.87632, 22.29605 ], [ -97.88168, 22.30482 ], [ -97.88166, 22.30665 ], [ -97.88031, 22.31109 ], [ -97.8784, 22.31653 ], [ -97.87589, 22.32554 ], [ -97.87391, 22.33126 ], [ -97.87321, 22.33527 ], [ -97.87331, 22.33634 ], [ -97.87413, 22.33833 ], [ -97.87638, 22.34587 ], [ -97.87821, 22.34773 ], [ -97.88076, 22.34986 ], [ -97.88353, 22.35123 ], [ -97.88722, 22.3543 ], [ -97.89404, 22.36167 ], [ -97.90099, 22.36937 ], [ -97.90224, 22.37036 ], [ -97.90376, 22.37185 ], [ -97.90621, 22.37425 ], [ -97.90865, 22.37649 ], [ -97.91063, 22.37869 ], [ -97.90747, 22.37581 ], [ -97.90445, 22.3742 ], [ -97.90363, 22.37453 ], [ -97.90261, 22.3755 ], [ -97.90187, 22.37675 ], [ -97.90089, 22.38075 ], [ -97.89977, 22.38258 ], [ -97.89689, 22.38587 ], [ -97.88488, 22.41922 ], [ -97.88484, 22.42089 ], [ -97.88514, 22.42238 ], [ -97.89479, 22.43789 ], [ -97.89629, 22.44372 ], [ -97.88501, 22.4461 ] ] } }
]
}
