{
"type": "FeatureCollection",
"name": "shape_Fracc.",
"crs": { "type": "name", "properties": { "name": "urn:ogc:def:crs:OGC:1.3:CRS84" } },
"features": [
{ "type": "Feature", "properties": { "data.route.shortName": "Fracc.", "data.route.longName": "Sotavento - Soriana Aeropuerto - AUT", "shape_id": "shape_Fracc." }, "geometry": { "type": "LineString", "coordinates": [ [ -97.88832, 22.34021 ], [ -97.88799, 22.34009 ], [ -97.88789, 22.33976 ], [ -97.88819, 22.33949 ], [ -97.88796, 22.33898 ], [ -97.88742, 22.33871 ], [ -97.88685, 22.33825 ], [ -97.88625, 22.33827 ], [ -97.8861, 22.33863 ], [ -97.8864, 22.33896 ], [ -97.8864, 22.33912 ], [ -97.88681, 22.33943 ], [ -97.8868, 22.33985 ], [ -97.88706, 22.34009 ], [ -97.88826, 22.34052 ], [ -97.88837, 22.34083 ], [ -97.8883, 22.34114 ], [ -97.8886, 22.34133 ], [ -97.88962, 22.34197 ], [ -97.88985, 22.34197 ], [ -97.88943, 22.34149 ], [ -97.88869, 22.34098 ], [ -97.88889, 22.34043 ], [ -97.88866, 22.34033 ], [ -97.88863, 22.34006 ], [ -97.88935, 22.33836 ], [ -97.88915, 22.33804 ], [ -97.88925, 22.33774 ], [ -97.88857, 22.33573 ], [ -97.88798, 22.33538 ], [ -97.88747, 22.3347 ], [ -97.88718, 22.33449 ], [ -97.88519, 22.33366 ], [ -97.88452, 22.33437 ], [ -97.88371, 22.33496 ], [ -97.88309, 22.33525 ], [ -97.88289, 22.33505 ], [ -97.8799, 22.33667 ], [ -97.87612, 22.33778 ], [ -97.87525, 22.33778 ], [ -97.87426, 22.33753 ], [ -97.8736, 22.33683 ], [ -97.8732, 22.33563 ], [ -97.87351, 22.33316 ], [ -97.87418, 22.33066 ], [ -97.8811, 22.30853 ], [ -97.88179, 22.30609 ], [ -97.8816, 22.30474 ], [ -97.87323, 22.29104 ], [ -97.87319, 22.28999 ], [ -97.87196, 22.289 ], [ -97.8704, 22.28799 ], [ -97.86585, 22.28479 ], [ -97.86282, 22.28119 ], [ -97.85816, 22.27708 ], [ -97.854, 22.27361 ], [ -97.85063, 22.27266 ], [ -97.85471, 22.27436 ], [ -97.85613, 22.27667 ], [ -97.85889, 22.27798 ], [ -97.85941, 22.27818 ], [ -97.85941, 22.27818 ], [ -97.85889, 22.27798 ], [ -97.85613, 22.27667 ], [ -97.85471, 22.27436 ], [ -97.85063, 22.27266 ], [ -97.854, 22.27361 ], [ -97.85816, 22.27708 ], [ -97.86282, 22.28119 ], [ -97.86585, 22.28479 ], [ -97.8704, 22.28799 ], [ -97.87196, 22.289 ], [ -97.87319, 22.28999 ], [ -97.87323, 22.29104 ], [ -97.8816, 22.30474 ], [ -97.88179, 22.30609 ], [ -97.8811, 22.30853 ], [ -97.87418, 22.33066 ], [ -97.87351, 22.33316 ], [ -97.8732, 22.33563 ], [ -97.8736, 22.33683 ], [ -97.87426, 22.33753 ], [ -97.87525, 22.33778 ], [ -97.87612, 22.33778 ], [ -97.8799, 22.33667 ], [ -97.88289, 22.33505 ], [ -97.88309, 22.33525 ], [ -97.88371, 22.33496 ], [ -97.88452, 22.33437 ], [ -97.88519, 22.33366 ], [ -97.88718, 22.33449 ], [ -97.88747, 22.3347 ], [ -97.88798, 22.33538 ], [ -97.88857, 22.33573 ], [ -97.88925, 22.33774 ], [ -97.88915, 22.33804 ], [ -97.88935, 22.33836 ], [ -97.88863, 22.34006 ], [ -97.88866, 22.34033 ], [ -97.88889, 22.34043 ], [ -97.88869, 22.34098 ], [ -97.88943, 22.34149 ], [ -97.88985, 22.34197 ], [ -97.88962, 22.34197 ], [ -97.8886, 22.34133 ], [ -97.8883, 22.34114 ], [ -97.88837, 22.34083 ], [ -97.88826, 22.34052 ], [ -97.88706, 22.34009 ], [ -97.8868, 22.33985 ], [ -97.88681, 22.33943 ], [ -97.8864, 22.33912 ], [ -97.8864, 22.33896 ], [ -97.8861, 22.33863 ], [ -97.88625, 22.33827 ], [ -97.88685, 22.33825 ], [ -97.88742, 22.33871 ], [ -97.88796, 22.33898 ], [ -97.88819, 22.33949 ], [ -97.88789, 22.33976 ], [ -97.88799, 22.34009 ] ] } }
]
}
