{
"type": "FeatureCollection",
"name": "shape_61",
"crs": { "type": "name", "properties": { "name": "urn:ogc:def:crs:OGC:1.3:CRS84" } },
"features": [
{ "type": "Feature", "properties": { "data.route.shortName": "61", "data.route.longName": "Obrera - Penal", "shape_id": "shape_61" }, "geometry": { "type": "LineString", "coordinates": [ [ -97.83735, 22.24977 ], [ -97.83808, 22.25019 ], [ -97.8448, 22.23971 ], [ -97.84555, 22.24025 ], [ -97.8464, 22.24061 ], [ -97.84722, 22.23915 ], [ -97.84822, 22.23609 ], [ -97.8465, 22.23554 ], [ -97.84699, 22.2343 ], [ -97.84425, 22.23349 ], [ -97.8464, 22.22762 ], [ -97.85043, 22.21695 ], [ -97.85122, 22.21522 ], [ -97.85211, 22.21563 ], [ -97.85375, 22.21251 ], [ -97.85377, 22.21252 ], [ -97.85459, 22.21293 ], [ -97.85423, 22.21368 ], [ -97.85251, 22.21292 ], [ -97.85043, 22.21695 ], [ -97.8464, 22.22762 ], [ -97.84425, 22.23349 ], [ -97.84699, 22.2343 ], [ -97.8465, 22.23554 ], [ -97.84822, 22.23609 ], [ -97.84722, 22.23915 ], [ -97.8464, 22.24061 ], [ -97.84555, 22.24025 ], [ -97.8448, 22.23971 ], [ -97.84266, 22.24321 ], [ -97.84328, 22.24356 ], [ -97.8402, 22.24849 ], [ -97.83868, 22.24763 ], [ -97.83732, 22.24981 ], [ -97.8381, 22.25021 ] ] } }
]
}
