{
"type": "FeatureCollection",
"name": "shape_52",
"crs": { "type": "name", "properties": { "name": "urn:ogc:def:crs:OGC:1.3:CRS84" } },
"features": [
{ "type": "Feature", "properties": { "data.route.shortName": "52", "data.route.longName": "Santa Elena - Ampliación. - U. Nacional por Boulevard", "shape_id": "shape_52" }, "geometry": { "type": "LineString", "coordinates": [ [ -97.85188, 22.32151 ], [ -97.8508, 22.32196 ], [ -97.85175, 22.32391 ], [ -97.85378, 22.32287 ], [ -97.85004, 22.31484 ], [ -97.85128, 22.31397 ], [ -97.8487, 22.30624 ], [ -97.84903, 22.30566 ], [ -97.8488, 22.30501 ], [ -97.84854, 22.30442 ], [ -97.84818, 22.30353 ], [ -97.8465, 22.30416 ], [ -97.8462, 22.30348 ], [ -97.846, 22.30348 ], [ -97.84593, 22.30075 ], [ -97.84442, 22.30084 ], [ -97.84423, 22.30076 ], [ -97.8445, 22.29761 ], [ -97.84476, 22.29624 ], [ -97.84541, 22.29618 ], [ -97.84487, 22.29066 ], [ -97.84262, 22.29085 ], [ -97.84234, 22.28826 ], [ -97.84368, 22.28498 ], [ -97.84221, 22.28451 ], [ -97.84506, 22.27725 ], [ -97.84431, 22.277 ], [ -97.84458, 22.27615 ], [ -97.84515, 22.27556 ], [ -97.84549, 22.2751 ], [ -97.84527, 22.27464 ], [ -97.84566, 22.27432 ], [ -97.84832, 22.26735 ], [ -97.85144, 22.25939 ], [ -97.85312, 22.25489 ], [ -97.85399, 22.25238 ], [ -97.8544, 22.25135 ], [ -97.8549, 22.25054 ], [ -97.85462, 22.24807 ], [ -97.85506, 22.24712 ], [ -97.85532, 22.24423 ], [ -97.85539, 22.24309 ], [ -97.855, 22.24213 ], [ -97.85397, 22.24067 ], [ -97.85335, 22.23886 ], [ -97.85284, 22.23819 ], [ -97.85194, 22.23773 ], [ -97.84984, 22.23713 ], [ -97.84949, 22.23662 ], [ -97.84872, 22.23474 ], [ -97.84842, 22.23365 ], [ -97.8473, 22.23157 ], [ -97.84676, 22.23099 ], [ -97.84659, 22.23012 ], [ -97.8468, 22.22919 ], [ -97.85585, 22.21248 ], [ -97.85486, 22.21228 ], [ -97.85239, 22.21683 ], [ -97.85323, 22.21719 ], [ -97.85323, 22.21719 ], [ -97.85239, 22.21683 ], [ -97.85486, 22.21228 ], [ -97.85585, 22.21248 ], [ -97.8468, 22.22919 ], [ -97.84659, 22.23012 ], [ -97.84676, 22.23099 ], [ -97.8473, 22.23157 ], [ -97.84842, 22.23365 ], [ -97.84872, 22.23474 ], [ -97.84949, 22.23662 ], [ -97.84984, 22.23713 ], [ -97.85194, 22.23773 ], [ -97.85284, 22.23819 ], [ -97.85335, 22.23886 ], [ -97.85397, 22.24067 ], [ -97.855, 22.24213 ], [ -97.85539, 22.24309 ], [ -97.85532, 22.24423 ], [ -97.85506, 22.24712 ], [ -97.85462, 22.24807 ], [ -97.8549, 22.25054 ], [ -97.8544, 22.25135 ], [ -97.85399, 22.25238 ], [ -97.85312, 22.25489 ], [ -97.85144, 22.25939 ], [ -97.84832, 22.26735 ], [ -97.84566, 22.27432 ], [ -97.84527, 22.27464 ], [ -97.84549, 22.2751 ], [ -97.84561, 22.2754 ], [ -97.84571, 22.27565 ], [ -97.84541, 22.27649 ], [ -97.84506, 22.27725 ], [ -97.84221, 22.28451 ], [ -97.84368, 22.28498 ], [ -97.84234, 22.28826 ], [ -97.84262, 22.29085 ], [ -97.84487, 22.29066 ], [ -97.84541, 22.29618 ], [ -97.84476, 22.29624 ], [ -97.8445, 22.29761 ], [ -97.84423, 22.30076 ], [ -97.84442, 22.30084 ], [ -97.84593, 22.30075 ], [ -97.846, 22.30348 ], [ -97.8462, 22.30348 ], [ -97.8465, 22.30416 ], [ -97.84818, 22.30353 ], [ -97.84854, 22.30442 ], [ -97.8488, 22.30501 ], [ -97.84903, 22.30566 ], [ -97.8487, 22.30624 ], [ -97.85128, 22.31397 ], [ -97.85004, 22.31484 ], [ -97.85378, 22.32287 ], [ -97.85175, 22.32391 ], [ -97.85084, 22.322 ], [ -97.8519, 22.32154 ] ] } }
]
}
