{
"type": "FeatureCollection",
"name": "shape_87",
"crs": { "type": "name", "properties": { "name": "urn:ogc:def:crs:OGC:1.3:CRS84" } },
"features": [
{ "type": "Feature", "properties": { "data.route.shortName": "87", "data.route.longName": "Madero - Heriberto Kehoe - Las Flores", "shape_id": "shape_87" }, "geometry": { "type": "LineString", "coordinates": [ [ -97.83835, 22.29698 ], [ -97.83673, 22.29202 ], [ -97.83641, 22.29064 ], [ -97.83635, 22.28871 ], [ -97.83524, 22.28876 ], [ -97.83487, 22.28836 ], [ -97.83456, 22.27706 ], [ -97.83361, 22.27708 ], [ -97.83362, 22.27697 ], [ -97.83359, 22.27669 ], [ -97.83427, 22.27666 ], [ -97.83386, 22.27537 ], [ -97.83363, 22.27468 ], [ -97.82447, 22.26526 ], [ -97.82747, 22.26264 ], [ -97.82972, 22.26074 ], [ -97.83139, 22.25948 ], [ -97.83714, 22.25457 ], [ -97.83706, 22.25439 ], [ -97.83349, 22.25087 ], [ -97.83565, 22.24889 ], [ -97.83753, 22.24613 ], [ -97.836, 22.24525 ], [ -97.836, 22.24525 ], [ -97.83644, 22.2446 ], [ -97.83794, 22.24535 ], [ -97.83565, 22.24889 ], [ -97.83349, 22.25087 ], [ -97.8316, 22.25248 ], [ -97.83094, 22.25311 ], [ -97.83457, 22.25682 ], [ -97.83139, 22.25948 ], [ -97.82972, 22.26074 ], [ -97.82747, 22.26264 ], [ -97.82447, 22.26526 ], [ -97.83363, 22.27468 ], [ -97.83386, 22.27537 ], [ -97.83427, 22.27666 ], [ -97.83359, 22.27669 ], [ -97.83362, 22.27697 ], [ -97.83361, 22.27708 ], [ -97.83456, 22.27706 ], [ -97.83487, 22.28836 ], [ -97.83524, 22.28876 ], [ -97.83635, 22.28871 ], [ -97.83641, 22.29064 ], [ -97.83673, 22.29202 ] ] } }
]
}
