{
"type": "FeatureCollection",
"name": "shape_40",
"crs": { "type": "name", "properties": { "name": "urn:ogc:def:crs:OGC:1.3:CRS84" } },
"features": [
{ "type": "Feature", "properties": { "data.route.shortName": "40", "data.route.longName": "Playa Norte - Refinería", "shape_id": "shape_40" }, "geometry": { "type": "LineString", "coordinates": [ [ -97.85396, 22.21202 ], [ -97.85291, 22.21184 ], [ -97.85282, 22.21212 ], [ -97.85031, 22.21097 ], [ -97.84906, 22.21336 ], [ -97.8482, 22.21296 ], [ -97.84736, 22.21458 ], [ -97.84821, 22.21498 ], [ -97.84358, 22.22385 ], [ -97.84114, 22.22858 ], [ -97.84038, 22.23017 ], [ -97.84021, 22.23025 ], [ -97.84196, 22.22697 ], [ -97.84602, 22.22865 ], [ -97.84512, 22.23123 ], [ -97.84427, 22.23329 ], [ -97.84282, 22.23736 ], [ -97.84222, 22.23846 ], [ -97.84071, 22.24076 ], [ -97.83861, 22.24433 ], [ -97.83629, 22.24798 ], [ -97.83553, 22.24908 ], [ -97.83509, 22.24954 ], [ -97.83716, 22.25458 ], [ -97.8314, 22.25951 ], [ -97.83034, 22.26032 ], [ -97.8274, 22.26267 ], [ -97.82451, 22.26529 ], [ -97.82855, 22.26951 ], [ -97.82581, 22.27175 ], [ -97.82573, 22.27194 ], [ -97.82474, 22.27284 ], [ -97.82967, 22.27779 ], [ -97.82793, 22.27838 ], [ -97.82902, 22.28074 ], [ -97.82915, 22.28137 ], [ -97.826, 22.28296 ], [ -97.82347, 22.2844 ], [ -97.82161, 22.28156 ], [ -97.81555, 22.28632 ], [ -97.81788, 22.29157 ], [ -97.8182, 22.29165 ], [ -97.81828, 22.29202 ], [ -97.81854, 22.29215 ], [ -97.8192, 22.29358 ], [ -97.82159, 22.29364 ], [ -97.82173, 22.29386 ], [ -97.82178, 22.2947 ], [ -97.82038, 22.2948 ], [ -97.82006, 22.29507 ], [ -97.81961, 22.29508 ], [ -97.81964, 22.29579 ], [ -97.81953, 22.29587 ], [ -97.81955, 22.29597 ], [ -97.81965, 22.29601 ], [ -97.81976, 22.29662 ], [ -97.82147, 22.29642 ], [ -97.81976, 22.29662 ], [ -97.81965, 22.29601 ], [ -97.81955, 22.29597 ], [ -97.81953, 22.29587 ], [ -97.81964, 22.29579 ], [ -97.81961, 22.29508 ], [ -97.82006, 22.29507 ], [ -97.82038, 22.2948 ], [ -97.82178, 22.2947 ], [ -97.82173, 22.29386 ], [ -97.82159, 22.29364 ], [ -97.8192, 22.29358 ], [ -97.81854, 22.29215 ], [ -97.81828, 22.29202 ], [ -97.8182, 22.29165 ], [ -97.81788, 22.29157 ], [ -97.81555, 22.28632 ], [ -97.80737, 22.29263 ], [ -97.80737, 22.29263 ], [ -97.81555, 22.28632 ], [ -97.81788, 22.29157 ], [ -97.8182, 22.29165 ], [ -97.81828, 22.29202 ], [ -97.81854, 22.29215 ], [ -97.8192, 22.29358 ], [ -97.82159, 22.29364 ], [ -97.82173, 22.29386 ], [ -97.82178, 22.2947 ], [ -97.82038, 22.2948 ], [ -97.82006, 22.29507 ], [ -97.81961, 22.29508 ], [ -97.81964, 22.29579 ], [ -97.81953, 22.29587 ], [ -97.81955, 22.29597 ], [ -97.81965, 22.29601 ], [ -97.81976, 22.29662 ], [ -97.82147, 22.29642 ], [ -97.81976, 22.29662 ], [ -97.81965, 22.29601 ], [ -97.81955, 22.29597 ], [ -97.81953, 22.29587 ], [ -97.81964, 22.29579 ], [ -97.81961, 22.29508 ], [ -97.82006, 22.29507 ], [ -97.82038, 22.2948 ], [ -97.82178, 22.2947 ], [ -97.82173, 22.29386 ], [ -97.82159, 22.29364 ], [ -97.8192, 22.29358 ], [ -97.81854, 22.29215 ], [ -97.81828, 22.29202 ], [ -97.8182, 22.29165 ], [ -97.81788, 22.29157 ], [ -97.81555, 22.28632 ], [ -97.82161, 22.28156 ], [ -97.82347, 22.2844 ], [ -97.826, 22.28296 ], [ -97.82915, 22.28137 ], [ -97.82902, 22.28074 ], [ -97.82793, 22.27838 ], [ -97.82967, 22.27779 ], [ -97.82474, 22.27284 ], [ -97.82573, 22.27194 ], [ -97.82581, 22.27175 ], [ -97.82855, 22.26951 ], [ -97.82451, 22.26529 ], [ -97.8274, 22.26267 ], [ -97.83034, 22.26032 ], [ -97.8314, 22.25951 ], [ -97.83716, 22.25458 ], [ -97.83509, 22.24954 ], [ -97.83553, 22.24908 ], [ -97.83629, 22.24798 ], [ -97.83861, 22.24433 ], [ -97.84071, 22.24076 ], [ -97.84222, 22.23846 ], [ -97.84282, 22.23736 ], [ -97.84385, 22.23473 ], [ -97.83988, 22.23341 ], [ -97.84908, 22.21538 ], [ -97.85035, 22.21291 ], [ -97.85202, 22.2137 ], [ -97.85125, 22.21525 ], [ -97.85541, 22.21722 ], [ -97.85761, 22.21319 ], [ -97.85304, 22.21188 ] ] } }
]
}
