{
"type": "FeatureCollection",
"name": "shape_117",
"crs": { "type": "name", "properties": { "name": "urn:ogc:def:crs:OGC:1.3:CRS84" } },
"features": [
{ "type": "Feature", "properties": { "data.route.shortName": "117", "data.route.longName": "Altamira - San Jacinto - Paseo del Real", "shape_id": "shape_117" }, "geometry": { "type": "LineString", "coordinates": [ [ -97.93582, 22.39762 ], [ -97.93616, 22.39587 ], [ -97.93417, 22.39558 ], [ -97.9333, 22.39525 ], [ -97.92985, 22.39194 ], [ -97.92939, 22.39164 ], [ -97.92469, 22.39071 ], [ -97.92378, 22.39047 ], [ -97.923, 22.39023 ], [ -97.92239, 22.38965 ], [ -97.92187, 22.3886 ], [ -97.92078, 22.38759 ], [ -97.91885, 22.38659 ], [ -97.9154, 22.38319 ], [ -97.91522, 22.38332 ], [ -97.91495, 22.38353 ], [ -97.9137, 22.38574 ], [ -97.91228, 22.3873 ], [ -97.91062, 22.38564 ], [ -97.90998, 22.38514 ], [ -97.90658, 22.388 ], [ -97.90692, 22.38946 ], [ -97.90704, 22.39061 ], [ -97.90725, 22.39061 ], [ -97.90746, 22.39139 ], [ -97.90162, 22.3964 ], [ -97.90068, 22.39685 ], [ -97.89979, 22.39701 ], [ -97.89875, 22.39688 ], [ -97.89344, 22.39548 ], [ -97.88814, 22.39561 ], [ -97.88387, 22.39591 ], [ -97.88436, 22.39214 ], [ -97.88481, 22.39137 ], [ -97.88505, 22.39002 ], [ -97.88421, 22.38724 ], [ -97.88385, 22.38607 ], [ -97.87836, 22.38546 ], [ -97.8784, 22.38585 ], [ -97.88398, 22.38657 ], [ -97.88398, 22.38657 ], [ -97.8784, 22.38585 ], [ -97.87836, 22.38546 ], [ -97.88385, 22.38607 ], [ -97.88421, 22.38724 ], [ -97.88505, 22.39002 ], [ -97.88481, 22.39137 ], [ -97.88436, 22.39214 ], [ -97.88387, 22.39591 ], [ -97.88814, 22.39561 ], [ -97.89344, 22.39548 ], [ -97.89875, 22.39688 ], [ -97.89979, 22.39701 ], [ -97.90068, 22.39685 ], [ -97.90162, 22.3964 ], [ -97.90746, 22.39139 ], [ -97.90828, 22.39075 ], [ -97.90848, 22.39056 ], [ -97.90874, 22.39034 ], [ -97.90919, 22.38996 ], [ -97.91003, 22.38934 ], [ -97.9107, 22.38871 ], [ -97.91233, 22.38736 ], [ -97.9137, 22.38574 ], [ -97.91495, 22.38353 ], [ -97.91522, 22.38332 ], [ -97.9154, 22.38319 ], [ -97.91885, 22.38659 ], [ -97.92078, 22.38759 ], [ -97.92187, 22.3886 ], [ -97.92239, 22.38965 ], [ -97.923, 22.39023 ], [ -97.92378, 22.39047 ], [ -97.92469, 22.39071 ], [ -97.92939, 22.39164 ], [ -97.92985, 22.39194 ], [ -97.9333, 22.39525 ], [ -97.93417, 22.39558 ], [ -97.93522, 22.39567 ], [ -97.93497, 22.39745 ], [ -97.93579, 22.39759 ] ] } }
]
}
