{
"type": "FeatureCollection",
"name": "shape_24",
"crs": { "type": "name", "properties": { "name": "urn:ogc:def:crs:OGC:1.3:CRS84" } },
"features": [
{ "type": "Feature", "properties": { "data.route.shortName": "24", "data.route.longName": "Tampico - Tancol - Col del Bosque", "shape_id": "shape_24" }, "geometry": { "type": "LineString", "coordinates": [ [ -97.86577, 22.32197 ], [ -97.86956, 22.32162 ], [ -97.86848, 22.3171 ], [ -97.8685, 22.31683 ], [ -97.86987, 22.31681 ], [ -97.8702, 22.31716 ], [ -97.87259, 22.31722 ], [ -97.8746, 22.31781 ], [ -97.87829, 22.31782 ], [ -97.88562, 22.31782 ], [ -97.88606, 22.31619 ], [ -97.8874, 22.31115 ], [ -97.8905, 22.31111 ], [ -97.89205, 22.30902 ], [ -97.89353, 22.30636 ], [ -97.89365, 22.30598 ], [ -97.89259, 22.30525 ], [ -97.89614, 22.30128 ], [ -97.89323, 22.29919 ], [ -97.8928, 22.29998 ], [ -97.89274, 22.30009 ], [ -97.89198, 22.30043 ], [ -97.8913, 22.30028 ], [ -97.89042, 22.30168 ], [ -97.88944, 22.30119 ], [ -97.88925, 22.30159 ], [ -97.88712, 22.30054 ], [ -97.88779, 22.29918 ], [ -97.88974, 22.29808 ], [ -97.88942, 22.29742 ], [ -97.88987, 22.29718 ], [ -97.88688, 22.29562 ], [ -97.88205, 22.29509 ], [ -97.88028, 22.2945 ], [ -97.87991, 22.29414 ], [ -97.87322, 22.29043 ], [ -97.873, 22.28894 ], [ -97.87308, 22.28804 ], [ -97.87392, 22.28566 ], [ -97.87397, 22.28438 ], [ -97.87306, 22.28233 ], [ -97.87315, 22.27857 ], [ -97.87402, 22.27537 ], [ -97.87472, 22.27259 ], [ -97.87372, 22.26981 ], [ -97.87383, 22.26719 ], [ -97.87483, 22.26476 ], [ -97.87641, 22.2587 ], [ -97.87663, 22.25709 ], [ -97.8759, 22.25312 ], [ -97.86986, 22.23929 ], [ -97.86501, 22.22744 ], [ -97.8634, 22.22348 ], [ -97.86321, 22.22156 ], [ -97.85582, 22.21839 ], [ -97.85582, 22.21839 ], [ -97.85548, 22.21917 ], [ -97.86334, 22.22271 ], [ -97.8634, 22.22348 ], [ -97.86501, 22.22744 ], [ -97.86986, 22.23929 ], [ -97.8759, 22.25312 ], [ -97.87663, 22.25709 ], [ -97.87641, 22.2587 ], [ -97.87483, 22.26476 ], [ -97.87383, 22.26719 ], [ -97.87372, 22.26981 ], [ -97.87472, 22.27259 ], [ -97.87402, 22.27537 ], [ -97.87315, 22.27857 ], [ -97.87306, 22.28233 ], [ -97.87397, 22.28438 ], [ -97.87392, 22.28566 ], [ -97.87308, 22.28804 ], [ -97.87206, 22.28945 ], [ -97.87255, 22.29039 ], [ -97.87335, 22.29129 ], [ -97.87656, 22.29628 ], [ -97.87999, 22.29441 ], [ -97.88028, 22.2945 ], [ -97.88205, 22.29509 ], [ -97.88688, 22.29562 ], [ -97.88987, 22.29718 ], [ -97.88942, 22.29742 ], [ -97.88974, 22.29808 ], [ -97.88779, 22.29918 ], [ -97.88712, 22.30054 ], [ -97.88925, 22.30159 ], [ -97.88944, 22.30119 ], [ -97.89042, 22.30168 ], [ -97.8913, 22.30028 ], [ -97.89198, 22.30043 ], [ -97.89274, 22.30009 ], [ -97.8928, 22.29998 ], [ -97.89323, 22.29919 ], [ -97.89614, 22.30128 ], [ -97.89259, 22.30525 ], [ -97.89365, 22.30598 ], [ -97.89353, 22.30636 ], [ -97.89205, 22.30902 ], [ -97.8905, 22.31111 ], [ -97.8874, 22.31115 ], [ -97.88606, 22.31619 ], [ -97.88548, 22.31733 ], [ -97.87837, 22.31731 ], [ -97.87456, 22.31737 ], [ -97.87259, 22.31722 ], [ -97.8702, 22.31716 ], [ -97.86987, 22.31681 ], [ -97.8685, 22.31683 ], [ -97.86848, 22.3171 ], [ -97.86956, 22.32164 ], [ -97.86578, 22.32196 ] ] } }
]
}
