{
"type": "FeatureCollection",
"name": "shape_113",
"crs": { "type": "name", "properties": { "name": "urn:ogc:def:crs:OGC:1.3:CRS84" } },
"features": [
{ "type": "Feature", "properties": { "data.route.shortName": "113", "data.route.longName": "Univ. Politécnica de Altamira - Santa Amalia - Santa Elena", "shape_id": "shape_113" }, "geometry": { "type": "LineString", "coordinates": [ [ -97.96659, 22.44727 ], [ -97.96768, 22.44072 ], [ -97.96764, 22.44009 ], [ -97.9674, 22.43923 ], [ -97.95078, 22.42745 ], [ -97.94726, 22.42487 ], [ -97.94414, 22.4214 ], [ -97.94299, 22.41922 ], [ -97.94215, 22.41726 ], [ -97.93721, 22.40591 ], [ -97.93741, 22.40337 ], [ -97.93801, 22.39716 ], [ -97.93779, 22.39637 ], [ -97.93693, 22.39601 ], [ -97.93324, 22.39526 ], [ -97.92968, 22.39171 ], [ -97.92443, 22.39065 ], [ -97.92337, 22.39032 ], [ -97.92262, 22.38992 ], [ -97.92192, 22.38879 ], [ -97.92071, 22.38748 ], [ -97.91874, 22.38667 ], [ -97.90183, 22.36996 ], [ -97.88715, 22.35416 ], [ -97.88329, 22.35115 ], [ -97.88261, 22.35083 ], [ -97.87913, 22.34865 ], [ -97.87651, 22.34599 ], [ -97.87447, 22.33964 ], [ -97.87457, 22.33902 ], [ -97.87501, 22.33831 ], [ -97.87593, 22.33782 ], [ -97.87624, 22.33765 ], [ -97.87506, 22.33796 ], [ -97.87417, 22.3382 ], [ -97.87412, 22.33908 ], [ -97.8743, 22.33965 ], [ -97.86769, 22.34204 ], [ -97.8656, 22.33698 ], [ -97.86417, 22.33359 ], [ -97.85997, 22.3235 ], [ -97.85912, 22.32384 ], [ -97.8584, 22.3221 ], [ -97.85794, 22.32231 ], [ -97.85663, 22.32276 ], [ -97.85561, 22.32248 ], [ -97.8542, 22.32322 ], [ -97.85394, 22.32278 ], [ -97.85175, 22.32394 ], [ -97.85079, 22.3244 ], [ -97.84908, 22.32546 ], [ -97.84709, 22.32618 ], [ -97.84787, 22.32839 ], [ -97.84787, 22.32839 ], [ -97.84709, 22.32618 ], [ -97.84908, 22.32546 ], [ -97.85079, 22.3244 ], [ -97.85175, 22.32394 ], [ -97.85394, 22.32278 ], [ -97.8542, 22.32322 ], [ -97.85561, 22.32248 ], [ -97.85663, 22.32276 ], [ -97.85794, 22.32231 ], [ -97.8584, 22.3221 ], [ -97.85912, 22.32384 ], [ -97.85997, 22.3235 ], [ -97.86417, 22.33359 ], [ -97.8656, 22.33698 ], [ -97.86769, 22.34204 ], [ -97.87435, 22.33968 ], [ -97.87651, 22.34599 ], [ -97.87913, 22.34865 ], [ -97.88261, 22.35083 ], [ -97.88329, 22.35115 ], [ -97.88715, 22.35416 ], [ -97.90183, 22.36996 ], [ -97.91874, 22.38667 ], [ -97.92071, 22.38748 ], [ -97.92192, 22.38879 ], [ -97.92262, 22.38992 ], [ -97.92337, 22.39032 ], [ -97.92443, 22.39065 ], [ -97.92968, 22.39171 ], [ -97.93324, 22.39526 ], [ -97.93693, 22.39601 ], [ -97.93779, 22.39637 ], [ -97.93801, 22.39716 ], [ -97.93741, 22.40337 ], [ -97.93721, 22.40591 ], [ -97.94215, 22.41726 ], [ -97.94299, 22.41922 ], [ -97.94414, 22.4214 ], [ -97.94726, 22.42487 ], [ -97.95078, 22.42745 ], [ -97.9674, 22.43923 ], [ -97.96764, 22.44009 ], [ -97.96668, 22.44737 ] ] } }
]
}
