{
"type": "FeatureCollection",
"name": "shape_84",
"crs": { "type": "name", "properties": { "name": "urn:ogc:def:crs:OGC:1.3:CRS84" } },
"features": [
{ "type": "Feature", "properties": { "data.route.shortName": "84", "data.route.longName": "Moralillo Veracruz.", "shape_id": "shape_84" }, "geometry": { "type": "LineString", "coordinates": [ [ -97.91772, 22.2217 ], [ -97.91407, 22.22258 ], [ -97.90915, 22.22374 ], [ -97.90376, 22.22436 ], [ -97.89539, 22.22661 ], [ -97.89512, 22.22617 ], [ -97.89416, 22.22501 ], [ -97.89362, 22.22481 ], [ -97.89188, 22.22471 ], [ -97.8891, 22.22381 ], [ -97.88901, 22.22351 ], [ -97.88679, 22.22295 ], [ -97.88549, 22.22324 ], [ -97.87148, 22.21793 ], [ -97.8718, 22.21731 ], [ -97.8683, 22.21603 ], [ -97.86785, 22.21563 ], [ -97.8662, 22.21498 ], [ -97.86471, 22.21471 ], [ -97.8573, 22.21191 ], [ -97.85664, 22.21287 ], [ -97.85696, 22.21239 ], [ -97.8574, 22.21256 ], [ -97.85731, 22.21279 ], [ -97.85731, 22.21279 ], [ -97.85721, 22.21297 ], [ -97.85718, 22.21305 ], [ -97.85754, 22.21325 ], [ -97.85808, 22.21347 ], [ -97.85967, 22.21423 ], [ -97.8599, 22.21467 ], [ -97.86009, 22.21437 ], [ -97.8604, 22.2141 ], [ -97.86089, 22.21453 ], [ -97.86346, 22.21568 ], [ -97.86405, 22.21447 ], [ -97.8648, 22.21476 ], [ -97.8662, 22.21498 ], [ -97.86785, 22.21563 ], [ -97.8683, 22.21603 ], [ -97.8718, 22.21731 ], [ -97.87148, 22.21793 ], [ -97.88549, 22.22324 ], [ -97.88679, 22.22295 ], [ -97.88901, 22.22351 ], [ -97.8891, 22.22381 ], [ -97.89188, 22.22471 ], [ -97.89362, 22.22481 ], [ -97.89416, 22.22501 ], [ -97.89512, 22.22617 ], [ -97.89539, 22.22661 ], [ -97.90376, 22.22436 ], [ -97.90915, 22.22374 ], [ -97.91769, 22.22179 ] ] } }
]
}
