{
"type": "FeatureCollection",
"name": "shape_63",
"crs": { "type": "name", "properties": { "name": "urn:ogc:def:crs:OGC:1.3:CRS84" } },
"features": [
{ "type": "Feature", "properties": { "data.route.shortName": "63", "data.route.longName": "Seguro Social - Lomas de Infonavit", "shape_id": "shape_63" }, "geometry": { "type": "LineString", "coordinates": [ [ -97.8891, 22.27737 ], [ -97.88733, 22.2773 ], [ -97.88505, 22.27823 ], [ -97.88409, 22.27892 ], [ -97.88361, 22.27903 ], [ -97.88218, 22.27894 ], [ -97.88113, 22.27898 ], [ -97.88006, 22.27846 ], [ -97.87787, 22.27657 ], [ -97.87396, 22.27548 ], [ -97.87466, 22.27296 ], [ -97.87413, 22.27106 ], [ -97.87375, 22.26957 ], [ -97.87382, 22.26702 ], [ -97.87456, 22.26534 ], [ -97.87616, 22.25951 ], [ -97.87661, 22.25728 ], [ -97.87642, 22.25516 ], [ -97.87592, 22.25325 ], [ -97.874, 22.24803 ], [ -97.87306, 22.24652 ], [ -97.86962, 22.24823 ], [ -97.8672, 22.24936 ], [ -97.86574, 22.25 ], [ -97.86338, 22.25063 ], [ -97.85814, 22.25212 ], [ -97.85758, 22.2466 ], [ -97.85739, 22.24642 ], [ -97.85525, 22.24533 ], [ -97.85525, 22.24533 ], [ -97.85505, 22.24743 ], [ -97.85459, 22.24816 ], [ -97.8549, 22.25054 ], [ -97.85418, 22.25181 ], [ -97.85366, 22.25353 ], [ -97.85819, 22.25228 ], [ -97.86338, 22.25063 ], [ -97.86574, 22.25 ], [ -97.8672, 22.24936 ], [ -97.86962, 22.24823 ], [ -97.87306, 22.24652 ], [ -97.874, 22.24803 ], [ -97.87592, 22.25325 ], [ -97.87642, 22.25516 ], [ -97.87661, 22.25728 ], [ -97.87616, 22.25951 ], [ -97.87456, 22.26534 ], [ -97.87382, 22.26702 ], [ -97.87375, 22.26957 ], [ -97.87413, 22.27106 ], [ -97.87466, 22.27296 ], [ -97.87396, 22.27548 ], [ -97.87787, 22.27657 ], [ -97.88006, 22.27846 ], [ -97.88113, 22.27898 ], [ -97.88218, 22.27894 ], [ -97.88361, 22.27903 ], [ -97.88409, 22.27892 ], [ -97.88505, 22.27823 ], [ -97.8868, 22.27742 ], [ -97.88913, 22.27737 ] ] } }
]
}
