{
"type": "FeatureCollection",
"name": "shape_36",
"crs": { "type": "name", "properties": { "name": "urn:ogc:def:crs:OGC:1.3:CRS84" } },
"features": [
{ "type": "Feature", "properties": { "data.route.shortName": "36", "data.route.longName": "Santa Amalia - Polvorín - Madero -", "shape_id": "shape_36" }, "geometry": { "type": "LineString", "coordinates": [ [ -97.85836, 22.21361 ], [ -97.85577, 22.21243 ], [ -97.853, 22.21185 ], [ -97.85285, 22.21212 ], [ -97.84946, 22.21054 ], [ -97.84739, 22.21458 ], [ -97.84822, 22.21499 ], [ -97.84563, 22.2199 ], [ -97.84197, 22.22694 ], [ -97.84295, 22.2274 ], [ -97.84133, 22.23053 ], [ -97.83988, 22.23337 ], [ -97.8395, 22.23324 ], [ -97.83921, 22.23377 ], [ -97.83879, 22.23448 ], [ -97.83814, 22.23624 ], [ -97.83775, 22.23679 ], [ -97.83721, 22.23723 ], [ -97.83642, 22.23842 ], [ -97.83527, 22.2403 ], [ -97.83711, 22.24124 ], [ -97.83947, 22.2407 ], [ -97.8404, 22.2412 ], [ -97.83695, 22.24673 ], [ -97.83627, 22.24636 ], [ -97.83488, 22.24855 ], [ -97.83506, 22.24942 ], [ -97.83086, 22.25311 ], [ -97.83997, 22.26225 ], [ -97.83586, 22.26519 ], [ -97.83747, 22.26687 ], [ -97.83812, 22.26812 ], [ -97.84064, 22.26687 ], [ -97.84136, 22.26824 ], [ -97.84251, 22.26781 ], [ -97.84277, 22.26818 ], [ -97.84263, 22.26838 ], [ -97.84051, 22.26902 ], [ -97.84194, 22.27236 ], [ -97.84406, 22.27163 ], [ -97.84907, 22.28382 ], [ -97.85424, 22.28359 ], [ -97.85403, 22.28252 ], [ -97.85381, 22.28165 ], [ -97.85402, 22.2803 ], [ -97.85482, 22.27818 ], [ -97.85253, 22.27521 ], [ -97.85272, 22.27461 ], [ -97.85202, 22.27385 ], [ -97.8521, 22.27301 ], [ -97.85355, 22.27344 ], [ -97.85451, 22.27425 ], [ -97.85623, 22.27673 ], [ -97.85917, 22.27814 ], [ -97.86254, 22.28106 ], [ -97.86559, 22.28475 ], [ -97.87065, 22.2883 ], [ -97.87303, 22.29112 ], [ -97.87628, 22.29595 ], [ -97.88153, 22.30434 ], [ -97.88179, 22.30597 ], [ -97.88097, 22.30927 ], [ -97.87394, 22.33134 ], [ -97.87308, 22.33587 ], [ -97.87574, 22.34428 ], [ -97.87694, 22.34646 ], [ -97.87986, 22.34908 ], [ -97.88192, 22.35047 ], [ -97.88393, 22.35143 ], [ -97.90123, 22.3696 ], [ -97.90247, 22.37212 ], [ -97.90441, 22.37415 ], [ -97.90698, 22.37542 ], [ -97.91013, 22.37814 ], [ -97.919, 22.38687 ], [ -97.92176, 22.39069 ], [ -97.92114, 22.39256 ], [ -97.92174, 22.39452 ], [ -97.92651, 22.40119 ], [ -97.92934, 22.40472 ], [ -97.94243, 22.4194 ], [ -97.94728, 22.42491 ], [ -97.95084, 22.42745 ], [ -97.95324, 22.42932 ], [ -97.95923, 22.43362 ], [ -97.96756, 22.43952 ], [ -97.96762, 22.43932 ], [ -97.95985, 22.43382 ], [ -97.97204, 22.43525 ], [ -97.97453, 22.42215 ], [ -97.97308, 22.42193 ], [ -97.97054, 22.43503 ], [ -97.97054, 22.43503 ], [ -97.97308, 22.42193 ], [ -97.97453, 22.42215 ], [ -97.97204, 22.43525 ], [ -97.95985, 22.43382 ], [ -97.96762, 22.43932 ], [ -97.96756, 22.43952 ], [ -97.95923, 22.43362 ], [ -97.95324, 22.42932 ], [ -97.95084, 22.42745 ], [ -97.94728, 22.42491 ], [ -97.9429, 22.4196 ], [ -97.93973, 22.41123 ], [ -97.93724, 22.40615 ], [ -97.93814, 22.39718 ], [ -97.93762, 22.39635 ], [ -97.93385, 22.39548 ], [ -97.93282, 22.39488 ], [ -97.93011, 22.39214 ], [ -97.92492, 22.39095 ], [ -97.9235, 22.39044 ], [ -97.92183, 22.38853 ], [ -97.92016, 22.38722 ], [ -97.919, 22.38687 ], [ -97.91013, 22.37814 ], [ -97.90698, 22.37542 ], [ -97.90441, 22.37415 ], [ -97.90247, 22.37212 ], [ -97.90123, 22.3696 ], [ -97.88393, 22.35143 ], [ -97.88192, 22.35047 ], [ -97.87986, 22.34908 ], [ -97.87694, 22.34646 ], [ -97.87574, 22.34428 ], [ -97.87308, 22.33587 ], [ -97.87394, 22.33134 ], [ -97.88097, 22.30927 ], [ -97.88179, 22.30597 ], [ -97.88153, 22.30434 ], [ -97.87628, 22.29595 ], [ -97.87303, 22.29112 ], [ -97.87065, 22.2883 ], [ -97.86559, 22.28475 ], [ -97.86254, 22.28106 ], [ -97.85917, 22.27814 ], [ -97.85623, 22.27673 ], [ -97.85451, 22.27425 ], [ -97.85355, 22.27344 ], [ -97.8521, 22.27301 ], [ -97.85202, 22.27385 ], [ -97.85268, 22.27453 ], [ -97.8525, 22.27529 ], [ -97.85212, 22.27587 ], [ -97.85171, 22.27644 ], [ -97.85119, 22.27713 ], [ -97.85228, 22.27728 ], [ -97.85219, 22.27775 ], [ -97.85195, 22.27915 ], [ -97.85167, 22.27993 ], [ -97.8541, 22.28031 ], [ -97.85381, 22.28165 ], [ -97.85403, 22.28252 ], [ -97.85424, 22.28359 ], [ -97.84907, 22.28382 ], [ -97.8452, 22.27448 ], [ -97.84401, 22.275 ], [ -97.84295, 22.27522 ], [ -97.84194, 22.27236 ], [ -97.84051, 22.26902 ], [ -97.84263, 22.26838 ], [ -97.84277, 22.26818 ], [ -97.84251, 22.26781 ], [ -97.84136, 22.26824 ], [ -97.84064, 22.26687 ], [ -97.83812, 22.26812 ], [ -97.83747, 22.26687 ], [ -97.83586, 22.26519 ], [ -97.83997, 22.26225 ], [ -97.83086, 22.25311 ], [ -97.83506, 22.24942 ], [ -97.83488, 22.24855 ], [ -97.83627, 22.24636 ], [ -97.83695, 22.24673 ], [ -97.8404, 22.2412 ], [ -97.83947, 22.2407 ], [ -97.83711, 22.24124 ], [ -97.83527, 22.2403 ], [ -97.83642, 22.23842 ], [ -97.83721, 22.23723 ], [ -97.83775, 22.23679 ], [ -97.83814, 22.23624 ], [ -97.83879, 22.23448 ], [ -97.83921, 22.23377 ], [ -97.8395, 22.23324 ], [ -97.83988, 22.23337 ], [ -97.84133, 22.23053 ], [ -97.84295, 22.2274 ], [ -97.84197, 22.22694 ], [ -97.84563, 22.2199 ], [ -97.84822, 22.21499 ], [ -97.85037, 22.21295 ], [ -97.85201, 22.21369 ], [ -97.85158, 22.21466 ], [ -97.85117, 22.2153 ], [ -97.8554, 22.21725 ], [ -97.85758, 22.21315 ], [ -97.85529, 22.21232 ], [ -97.85377, 22.21206 ], [ -97.85308, 22.2119 ] ] } }
]
}
