{
"type": "FeatureCollection",
"name": "shape_58",
"crs": { "type": "name", "properties": { "name": "urn:ogc:def:crs:OGC:1.3:CRS84" } },
"features": [
{ "type": "Feature", "properties": { "data.route.shortName": "58", "data.route.longName": "Madero - Rev. Verde", "shape_id": "shape_58" }, "geometry": { "type": "LineString", "coordinates": [ [ -97.86651, 22.30294 ], [ -97.86419, 22.30257 ], [ -97.86408, 22.30272 ], [ -97.85761, 22.30496 ], [ -97.8525, 22.2925 ], [ -97.85291, 22.29219 ], [ -97.84818, 22.2806 ], [ -97.84146, 22.26423 ], [ -97.84316, 22.25985 ], [ -97.8437, 22.2588 ], [ -97.83604, 22.25099 ], [ -97.83668, 22.25046 ], [ -97.83736, 22.24978 ], [ -97.83662, 22.2494 ], [ -97.83609, 22.24992 ], [ -97.83609, 22.24992 ], [ -97.8391, 22.25295 ], [ -97.83865, 22.2533 ], [ -97.83855, 22.25339 ], [ -97.83847, 22.25343 ], [ -97.8437, 22.2588 ], [ -97.84316, 22.25985 ], [ -97.84146, 22.26423 ], [ -97.84731, 22.27933 ], [ -97.85199, 22.29146 ], [ -97.8525, 22.2925 ], [ -97.85761, 22.30496 ], [ -97.86425, 22.30261 ], [ -97.86653, 22.30295 ] ] } }
]
}
