{
"type": "FeatureCollection",
"name": "shape_73",
"crs": { "type": "name", "properties": { "name": "urn:ogc:def:crs:OGC:1.3:CRS84" } },
"features": [
{ "type": "Feature", "properties": { "data.route.shortName": "73", "data.route.longName": "Central Camionera por Perimetral", "shape_id": "shape_73" }, "geometry": { "type": "LineString", "coordinates": [ [ -97.85797, 22.2494 ], [ -97.85755, 22.24653 ], [ -97.85527, 22.24536 ], [ -97.85529, 22.2427 ], [ -97.85518, 22.24214 ], [ -97.85815, 22.24029 ], [ -97.859, 22.23664 ], [ -97.85883, 22.23617 ], [ -97.85713, 22.23464 ], [ -97.85711, 22.23398 ], [ -97.85724, 22.23355 ], [ -97.85893, 22.23186 ], [ -97.85951, 22.23112 ], [ -97.85968, 22.23047 ], [ -97.85858, 22.22603 ], [ -97.85773, 22.22551 ], [ -97.85944, 22.22188 ], [ -97.85581, 22.22031 ], [ -97.85922, 22.21398 ], [ -97.85835, 22.21359 ], [ -97.85809, 22.21406 ], [ -97.85809, 22.21406 ], [ -97.85773, 22.21478 ], [ -97.85668, 22.21683 ], [ -97.854, 22.22166 ], [ -97.85595, 22.22189 ], [ -97.85668, 22.22255 ], [ -97.85671, 22.22348 ], [ -97.85621, 22.22436 ], [ -97.85617, 22.22493 ], [ -97.85692, 22.22545 ], [ -97.85773, 22.22551 ], [ -97.85858, 22.22603 ], [ -97.85968, 22.23047 ], [ -97.85951, 22.23112 ], [ -97.85893, 22.23186 ], [ -97.85724, 22.23355 ], [ -97.85711, 22.23398 ], [ -97.85713, 22.23464 ], [ -97.85883, 22.23617 ], [ -97.859, 22.23664 ], [ -97.85815, 22.24029 ], [ -97.85518, 22.24214 ], [ -97.85529, 22.2427 ], [ -97.85527, 22.24536 ], [ -97.85755, 22.24653 ] ] } }
]
}
