{
"type": "FeatureCollection",
"name": "shape_7",
"crs": { "type": "name", "properties": { "name": "urn:ogc:def:crs:OGC:1.3:CRS84" } },
"features": [
{ "type": "Feature", "properties": { "data.route.shortName": "7", "data.route.longName": "Tampico - Playa por Boulevard", "shape_id": "shape_7" }, "geometry": { "type": "LineString", "coordinates": [ [ -97.8532, 22.21717 ], [ -97.8524, 22.21679 ], [ -97.85492, 22.21224 ], [ -97.85587, 22.21246 ], [ -97.85326, 22.21725 ], [ -97.84918, 22.22478 ], [ -97.84757, 22.22785 ], [ -97.84668, 22.22976 ], [ -97.84679, 22.23101 ], [ -97.84805, 22.23292 ], [ -97.84858, 22.23401 ], [ -97.84926, 22.23616 ], [ -97.84985, 22.23708 ], [ -97.85205, 22.23775 ], [ -97.85338, 22.23904 ], [ -97.85419, 22.24112 ], [ -97.85511, 22.24226 ], [ -97.85543, 22.24351 ], [ -97.85521, 22.24522 ], [ -97.85511, 22.24723 ], [ -97.85458, 22.24826 ], [ -97.85489, 22.25044 ], [ -97.8544, 22.25126 ], [ -97.85354, 22.25368 ], [ -97.85264, 22.25607 ], [ -97.84565, 22.27448 ], [ -97.84523, 22.27465 ], [ -97.84549, 22.27512 ], [ -97.84467, 22.27612 ], [ -97.84362, 22.27671 ], [ -97.84074, 22.27689 ], [ -97.83801, 22.27689 ], [ -97.83502, 22.27697 ], [ -97.83199, 22.27704 ], [ -97.82791, 22.27832 ], [ -97.82892, 22.28052 ], [ -97.82533, 22.28226 ], [ -97.82499, 22.28238 ], [ -97.82285, 22.28354 ], [ -97.8215, 22.28149 ], [ -97.81323, 22.28802 ], [ -97.8075, 22.29246 ], [ -97.80729, 22.29254 ], [ -97.80699, 22.29254 ], [ -97.80682, 22.29277 ], [ -97.8069, 22.29301 ], [ -97.80715, 22.29311 ], [ -97.8074, 22.293 ], [ -97.80747, 22.29276 ], [ -97.80954, 22.29099 ], [ -97.81044, 22.29028 ], [ -97.8155, 22.2864 ], [ -97.81699, 22.28959 ], [ -97.81782, 22.29155 ], [ -97.81817, 22.2916 ], [ -97.81828, 22.29196 ], [ -97.81815, 22.2922 ], [ -97.8185, 22.292 ], [ -97.81914, 22.29352 ], [ -97.81985, 22.29362 ], [ -97.82151, 22.29365 ], [ -97.82171, 22.29383 ], [ -97.82179, 22.29467 ], [ -97.82033, 22.2948 ], [ -97.82004, 22.29509 ], [ -97.81958, 22.2951 ], [ -97.81965, 22.2958 ], [ -97.81923, 22.29593 ], [ -97.81939, 22.29693 ], [ -97.81939, 22.29693 ], [ -97.81923, 22.29593 ], [ -97.81965, 22.2958 ], [ -97.81958, 22.2951 ], [ -97.82004, 22.29509 ], [ -97.82033, 22.2948 ], [ -97.82179, 22.29467 ], [ -97.82171, 22.29383 ], [ -97.82151, 22.29365 ], [ -97.81985, 22.29362 ], [ -97.81914, 22.29352 ], [ -97.8185, 22.292 ], [ -97.81815, 22.2922 ], [ -97.81828, 22.29196 ], [ -97.81817, 22.2916 ], [ -97.81782, 22.29155 ], [ -97.81699, 22.28959 ], [ -97.8155, 22.2864 ], [ -97.81044, 22.29028 ], [ -97.80954, 22.29099 ], [ -97.80747, 22.29276 ], [ -97.8074, 22.293 ], [ -97.80715, 22.29311 ], [ -97.8069, 22.29301 ], [ -97.80682, 22.29277 ], [ -97.80699, 22.29254 ], [ -97.80729, 22.29254 ], [ -97.8075, 22.29246 ], [ -97.81323, 22.28802 ], [ -97.8215, 22.28149 ], [ -97.82285, 22.28354 ], [ -97.82499, 22.28238 ], [ -97.82533, 22.28226 ], [ -97.82892, 22.28052 ], [ -97.82791, 22.27832 ], [ -97.83199, 22.27704 ], [ -97.83502, 22.27697 ], [ -97.83801, 22.27689 ], [ -97.84074, 22.27689 ], [ -97.84362, 22.27671 ], [ -97.84467, 22.27612 ], [ -97.84549, 22.27512 ], [ -97.84523, 22.27465 ], [ -97.84565, 22.27448 ], [ -97.85264, 22.25607 ], [ -97.85354, 22.25368 ], [ -97.8544, 22.25126 ], [ -97.85489, 22.25044 ], [ -97.85458, 22.24826 ], [ -97.85511, 22.24723 ], [ -97.85521, 22.24522 ], [ -97.85543, 22.24351 ], [ -97.85511, 22.24226 ], [ -97.85419, 22.24112 ], [ -97.85338, 22.23904 ], [ -97.85205, 22.23775 ], [ -97.84985, 22.23708 ], [ -97.84926, 22.23616 ], [ -97.84858, 22.23401 ], [ -97.84805, 22.23292 ], [ -97.84679, 22.23101 ], [ -97.84668, 22.22976 ], [ -97.84757, 22.22785 ], [ -97.84918, 22.22478 ], [ -97.85326, 22.21725 ], [ -97.85587, 22.21246 ], [ -97.85492, 22.21224 ], [ -97.8524, 22.21679 ] ] } }
]
}
