{
"type": "FeatureCollection",
"name": "shape_104",
"crs": { "type": "name", "properties": { "name": "urn:ogc:def:crs:OGC:1.3:CRS84" } },
"features": [
{ "type": "Feature", "properties": { "data.route.shortName": "104", "data.route.longName": "Lomas de Altamira - Tampico por Av. Hidalgo y Ayuntamiento", "shape_id": "shape_104" }, "geometry": { "type": "LineString", "coordinates": [ [ -97.90976, 22.36042 ], [ -97.9103, 22.35906 ], [ -97.9134, 22.35997 ], [ -97.91482, 22.36227 ], [ -97.91696, 22.36095 ], [ -97.9175, 22.36171 ], [ -97.91378, 22.36418 ], [ -97.91292, 22.36478 ], [ -97.91364, 22.36562 ], [ -97.91093, 22.36745 ], [ -97.91202, 22.36846 ], [ -97.91096, 22.3693 ], [ -97.91058, 22.36966 ], [ -97.90865, 22.37134 ], [ -97.90931, 22.37201 ], [ -97.90615, 22.37412 ], [ -97.90044, 22.36859 ], [ -97.88855, 22.35567 ], [ -97.8861, 22.35329 ], [ -97.8834, 22.35109 ], [ -97.87954, 22.34902 ], [ -97.87638, 22.34585 ], [ -97.87316, 22.33591 ], [ -97.87381, 22.3317 ], [ -97.88054, 22.31024 ], [ -97.88179, 22.30625 ], [ -97.88175, 22.30512 ], [ -97.88123, 22.30371 ], [ -97.87329, 22.29112 ], [ -97.87295, 22.28828 ], [ -97.874, 22.28509 ], [ -97.87291, 22.28217 ], [ -97.87314, 22.2781 ], [ -97.87473, 22.27289 ], [ -97.87387, 22.27047 ], [ -97.87376, 22.26706 ], [ -97.87497, 22.26436 ], [ -97.87655, 22.25766 ], [ -97.87653, 22.25584 ], [ -97.8761, 22.25361 ], [ -97.87374, 22.24754 ], [ -97.8731, 22.24648 ], [ -97.86713, 22.233 ], [ -97.86342, 22.22342 ], [ -97.86327, 22.22066 ], [ -97.86269, 22.21943 ], [ -97.85926, 22.21788 ], [ -97.86095, 22.21456 ], [ -97.86349, 22.21568 ], [ -97.86261, 22.2175 ], [ -97.85838, 22.21566 ], [ -97.85883, 22.21476 ], [ -97.85958, 22.21514 ], [ -97.85958, 22.21514 ], [ -97.85799, 22.21838 ], [ -97.86327, 22.22066 ], [ -97.86342, 22.22342 ], [ -97.86574, 22.22952 ], [ -97.86417, 22.23038 ], [ -97.86282, 22.23063 ], [ -97.86359, 22.23345 ], [ -97.86342, 22.23379 ], [ -97.86349, 22.23784 ], [ -97.86385, 22.24867 ], [ -97.86368, 22.25053 ], [ -97.86256, 22.25097 ], [ -97.86265, 22.25268 ], [ -97.86216, 22.25395 ], [ -97.86153, 22.25518 ], [ -97.85992, 22.25876 ], [ -97.86035, 22.25961 ], [ -97.86203, 22.26036 ], [ -97.86102, 22.26285 ], [ -97.85947, 22.26698 ], [ -97.85673, 22.27448 ], [ -97.85626, 22.2754 ], [ -97.85471, 22.27432 ], [ -97.85591, 22.27639 ], [ -97.85827, 22.27766 ], [ -97.86132, 22.27977 ], [ -97.86497, 22.28401 ], [ -97.8711, 22.28854 ], [ -97.87329, 22.29112 ], [ -97.88123, 22.30371 ], [ -97.88175, 22.30512 ], [ -97.88179, 22.30625 ], [ -97.88054, 22.31024 ], [ -97.87381, 22.3317 ], [ -97.87316, 22.33591 ], [ -97.87638, 22.34585 ], [ -97.87954, 22.34902 ], [ -97.8834, 22.35109 ], [ -97.8861, 22.35329 ], [ -97.88855, 22.35567 ], [ -97.90044, 22.36859 ], [ -97.90615, 22.37412 ], [ -97.90931, 22.37201 ], [ -97.90865, 22.37134 ], [ -97.91058, 22.36966 ], [ -97.91096, 22.3693 ], [ -97.91202, 22.36846 ], [ -97.91093, 22.36745 ], [ -97.91364, 22.36562 ], [ -97.91292, 22.36478 ], [ -97.91378, 22.36418 ], [ -97.9175, 22.36171 ], [ -97.91696, 22.36095 ], [ -97.91482, 22.36227 ], [ -97.9134, 22.35997 ], [ -97.9103, 22.35906 ] ] } }
]
}
