{
"type": "FeatureCollection",
"name": "shape_43",
"crs": { "type": "name", "properties": { "name": "urn:ogc:def:crs:OGC:1.3:CRS84" } },
"features": [
{ "type": "Feature", "properties": { "data.route.shortName": "43", "data.route.longName": "Aviación por Boulevard", "shape_id": "shape_43" }, "geometry": { "type": "LineString", "coordinates": [ [ -97.88272, 22.28339 ], [ -97.88253, 22.28423 ], [ -97.88102, 22.28511 ], [ -97.88076, 22.28721 ], [ -97.88072, 22.2874 ], [ -97.87641, 22.29216 ], [ -97.87323, 22.29042 ], [ -97.8731, 22.28979 ], [ -97.87228, 22.28908 ], [ -97.87107, 22.28849 ], [ -97.86589, 22.28493 ], [ -97.86291, 22.2813 ], [ -97.85832, 22.27728 ], [ -97.8555, 22.27487 ], [ -97.8538, 22.27349 ], [ -97.85078, 22.27274 ], [ -97.84748, 22.26963 ], [ -97.85356, 22.25367 ], [ -97.85445, 22.25132 ], [ -97.85489, 22.25057 ], [ -97.85459, 22.24806 ], [ -97.85518, 22.24716 ], [ -97.85544, 22.24322 ], [ -97.85512, 22.24229 ], [ -97.85409, 22.24082 ], [ -97.85335, 22.239 ], [ -97.85248, 22.2379 ], [ -97.84971, 22.23711 ], [ -97.8475, 22.23175 ], [ -97.84666, 22.23051 ], [ -97.84671, 22.22932 ], [ -97.85415, 22.21566 ], [ -97.85415, 22.21566 ], [ -97.85606, 22.21204 ], [ -97.85688, 22.21236 ], [ -97.85673, 22.21286 ], [ -97.85673, 22.21286 ], [ -97.85587, 22.21247 ], [ -97.8549, 22.21231 ], [ -97.85458, 22.2129 ], [ -97.85244, 22.21676 ], [ -97.85342, 22.21727 ], [ -97.85297, 22.21782 ], [ -97.84671, 22.22932 ], [ -97.84666, 22.23051 ], [ -97.8475, 22.23175 ], [ -97.84971, 22.23711 ], [ -97.85248, 22.2379 ], [ -97.85335, 22.239 ], [ -97.85409, 22.24082 ], [ -97.85512, 22.24229 ], [ -97.85544, 22.24322 ], [ -97.85518, 22.24716 ], [ -97.85459, 22.24806 ], [ -97.85489, 22.25057 ], [ -97.85445, 22.25132 ], [ -97.85356, 22.25367 ], [ -97.84748, 22.26963 ], [ -97.85078, 22.27274 ], [ -97.8538, 22.27349 ], [ -97.8555, 22.27487 ], [ -97.85832, 22.27728 ], [ -97.86291, 22.2813 ], [ -97.86589, 22.28493 ], [ -97.87107, 22.28849 ], [ -97.87228, 22.28908 ], [ -97.87239, 22.28886 ], [ -97.87265, 22.28852 ], [ -97.87301, 22.28799 ], [ -97.87378, 22.28568 ], [ -97.88072, 22.2874 ], [ -97.8814, 22.28743 ], [ -97.88187, 22.28739 ], [ -97.88464, 22.28681 ], [ -97.88428, 22.28546 ], [ -97.88297, 22.28336 ] ] } }
]
}
