{
"type": "FeatureCollection",
"name": "shape_71",
"crs": { "type": "name", "properties": { "name": "urn:ogc:def:crs:OGC:1.3:CRS84" } },
"features": [
{ "type": "Feature", "properties": { "data.route.shortName": "71", "data.route.longName": "Galeana por Sección 21", "shape_id": "shape_71" }, "geometry": { "type": "LineString", "coordinates": [ [ -97.83374, 22.24048 ], [ -97.83427, 22.24095 ], [ -97.83481, 22.24037 ], [ -97.83536, 22.23973 ], [ -97.83552, 22.23965 ], [ -97.83563, 22.2397 ], [ -97.83715, 22.23733 ], [ -97.83782, 22.23675 ], [ -97.83834, 22.23575 ], [ -97.83858, 22.23506 ], [ -97.83885, 22.23443 ], [ -97.83948, 22.23326 ], [ -97.83992, 22.23338 ], [ -97.84297, 22.22734 ], [ -97.8478, 22.21793 ], [ -97.85032, 22.21291 ], [ -97.85205, 22.2137 ], [ -97.85123, 22.21525 ], [ -97.85542, 22.21718 ], [ -97.85755, 22.21322 ], [ -97.85755, 22.21322 ], [ -97.85589, 22.21248 ], [ -97.85304, 22.21184 ], [ -97.85291, 22.21216 ], [ -97.85031, 22.21095 ], [ -97.84909, 22.21335 ], [ -97.84825, 22.21295 ], [ -97.84741, 22.21458 ], [ -97.84827, 22.21498 ], [ -97.84205, 22.22702 ], [ -97.84295, 22.2274 ], [ -97.83992, 22.23338 ], [ -97.83948, 22.23326 ], [ -97.83885, 22.23443 ], [ -97.83858, 22.23506 ], [ -97.83834, 22.23575 ], [ -97.83782, 22.23675 ], [ -97.83715, 22.23733 ], [ -97.83563, 22.2397 ], [ -97.83552, 22.23965 ], [ -97.83536, 22.23973 ], [ -97.83481, 22.24037 ], [ -97.83428, 22.24092 ], [ -97.83372, 22.24052 ] ] } }
]
}
