{
"type": "FeatureCollection",
"name": "shape_114A",
"crs": { "type": "name", "properties": { "name": "urn:ogc:def:crs:OGC:1.3:CRS84" } },
"features": [
{ "type": "Feature", "properties": { "data.route.shortName": "114A", "data.route.longName": "López Mateos - Margaritas - Tampico por Ayuntamiento Av. Hidalgo", "shape_id": "shape_114A" }, "geometry": { "type": "LineString", "coordinates": [ [ -98.06821, 22.5432 ], [ -98.07441, 22.50213 ], [ -98.07231, 22.50221 ], [ -98.03395, 22.4901 ], [ -98.01045, 22.47993 ], [ -97.99197, 22.47188 ], [ -97.99092, 22.47065 ], [ -97.97122, 22.44239 ], [ -97.9706, 22.44167 ], [ -97.94696, 22.42466 ], [ -97.9456, 22.42329 ], [ -97.94301, 22.41964 ], [ -97.94249, 22.41809 ], [ -97.94112, 22.41502 ], [ -97.93719, 22.40561 ], [ -97.93801, 22.39702 ], [ -97.93769, 22.39629 ], [ -97.93342, 22.39534 ], [ -97.93213, 22.39431 ], [ -97.92981, 22.39188 ], [ -97.92451, 22.39064 ], [ -97.92342, 22.39036 ], [ -97.92273, 22.39002 ], [ -97.92198, 22.38879 ], [ -97.9208, 22.38752 ], [ -97.91874, 22.38661 ], [ -97.90683, 22.37482 ], [ -97.88724, 22.35422 ], [ -97.88351, 22.35117 ], [ -97.88005, 22.34952 ], [ -97.87664, 22.34617 ], [ -97.87591, 22.3446 ], [ -97.87319, 22.33523 ], [ -97.87398, 22.33118 ], [ -97.88185, 22.30569 ], [ -97.88155, 22.3044 ], [ -97.87331, 22.29118 ], [ -97.87306, 22.28918 ], [ -97.87306, 22.28761 ], [ -97.87409, 22.28479 ], [ -97.87293, 22.28213 ], [ -97.87306, 22.27959 ], [ -97.87321, 22.27786 ], [ -97.87466, 22.27286 ], [ -97.87389, 22.27049 ], [ -97.87378, 22.2672 ], [ -97.87451, 22.26531 ], [ -97.8766, 22.25739 ], [ -97.87647, 22.25512 ], [ -97.87612, 22.25369 ], [ -97.87391, 22.24779 ], [ -97.87303, 22.2464 ], [ -97.86344, 22.2235 ], [ -97.86327, 22.22223 ], [ -97.86327, 22.22062 ], [ -97.85799, 22.21838 ], [ -97.85958, 22.21518 ], [ -97.85958, 22.21518 ], [ -97.85879, 22.21484 ], [ -97.85842, 22.21566 ], [ -97.86263, 22.21748 ], [ -97.86344, 22.21572 ], [ -97.86097, 22.21486 ], [ -97.85892, 22.21874 ], [ -97.86327, 22.22062 ], [ -97.86327, 22.22223 ], [ -97.86344, 22.2235 ], [ -97.86501, 22.22738 ], [ -97.86409, 22.22978 ], [ -97.86537, 22.23461 ], [ -97.86647, 22.2381 ], [ -97.86705, 22.24275 ], [ -97.86694, 22.24446 ], [ -97.86765, 22.24706 ], [ -97.8673, 22.24944 ], [ -97.86673, 22.25123 ], [ -97.86477, 22.25453 ], [ -97.86456, 22.2559 ], [ -97.86389, 22.25741 ], [ -97.86055, 22.26328 ], [ -97.85941, 22.2669 ], [ -97.85842, 22.27017 ], [ -97.8563, 22.27552 ], [ -97.86273, 22.281 ], [ -97.86591, 22.28489 ], [ -97.87089, 22.28846 ], [ -97.87303, 22.28953 ], [ -97.87331, 22.29118 ], [ -97.88155, 22.3044 ], [ -97.88185, 22.30569 ], [ -97.87398, 22.33118 ], [ -97.87319, 22.33523 ], [ -97.87591, 22.3446 ], [ -97.87664, 22.34617 ], [ -97.88005, 22.34952 ], [ -97.88351, 22.35117 ], [ -97.88724, 22.35422 ], [ -97.90683, 22.37482 ], [ -97.91874, 22.38661 ], [ -97.9208, 22.38752 ], [ -97.92198, 22.38879 ], [ -97.92273, 22.39002 ], [ -97.92342, 22.39036 ], [ -97.92451, 22.39064 ], [ -97.92981, 22.39188 ], [ -97.93213, 22.39431 ], [ -97.93342, 22.39534 ], [ -97.93769, 22.39629 ], [ -97.93801, 22.39702 ], [ -97.93719, 22.40561 ], [ -97.94112, 22.41502 ], [ -97.94249, 22.41809 ], [ -97.94301, 22.41964 ], [ -97.9456, 22.42329 ], [ -97.94696, 22.42466 ], [ -97.9706, 22.44167 ], [ -97.97122, 22.44239 ], [ -97.99092, 22.47065 ], [ -97.99197, 22.47188 ], [ -98.01045, 22.47993 ], [ -98.03395, 22.4901 ], [ -98.0725, 22.50225 ], [ -98.07461, 22.50217 ], [ -98.07132, 22.52271 ], [ -98.06826, 22.54326 ] ] } }
]
}
