{
"type": "FeatureCollection",
"name": "shape_109",
"crs": { "type": "name", "properties": { "name": "urn:ogc:def:crs:OGC:1.3:CRS84" } },
"features": [
{ "type": "Feature", "properties": { "data.route.shortName": "109", "data.route.longName": "Aldama - Lomas del Real - Tampico por Ayuntamiento y Av. Hidalgo", "shape_id": "shape_109" }, "geometry": { "type": "LineString", "coordinates": [ [ -97.89333, 22.43547 ], [ -97.88619, 22.42414 ], [ -97.88503, 22.4221 ], [ -97.88473, 22.42005 ], [ -97.88677, 22.41406 ], [ -97.897, 22.38571 ], [ -97.90044, 22.38167 ], [ -97.90181, 22.37689 ], [ -97.90342, 22.37448 ], [ -97.90411, 22.37319 ], [ -97.90355, 22.37155 ], [ -97.89818, 22.36625 ], [ -97.89492, 22.36258 ], [ -97.89166, 22.35913 ], [ -97.88724, 22.35418 ], [ -97.88372, 22.35139 ], [ -97.88267, 22.35093 ], [ -97.88012, 22.3494 ], [ -97.8767, 22.34629 ], [ -97.87589, 22.34472 ], [ -97.87319, 22.33525 ], [ -97.87391, 22.33142 ], [ -97.87634, 22.32368 ], [ -97.87814, 22.31816 ], [ -97.88042, 22.31097 ], [ -97.88102, 22.30875 ], [ -97.88181, 22.30615 ], [ -97.8817, 22.3049 ], [ -97.88142, 22.30399 ], [ -97.87327, 22.2911 ], [ -97.87312, 22.28957 ], [ -97.87299, 22.2881 ], [ -97.87389, 22.28558 ], [ -97.87385, 22.28435 ], [ -97.87299, 22.28233 ], [ -97.87306, 22.27937 ], [ -97.874, 22.27546 ], [ -97.87479, 22.27258 ], [ -97.87381, 22.27031 ], [ -97.87374, 22.26702 ], [ -97.8746, 22.26537 ], [ -97.87657, 22.25745 ], [ -97.87642, 22.25514 ], [ -97.8743, 22.24883 ], [ -97.87155, 22.24331 ], [ -97.8673, 22.23353 ], [ -97.86509, 22.22793 ], [ -97.86338, 22.22344 ], [ -97.86321, 22.22064 ], [ -97.86267, 22.21943 ], [ -97.85926, 22.21792 ], [ -97.86095, 22.21454 ], [ -97.86346, 22.21568 ], [ -97.86262, 22.21749 ], [ -97.85836, 22.21562 ], [ -97.85879, 22.21476 ], [ -97.85967, 22.21519 ], [ -97.85967, 22.21519 ], [ -97.85804, 22.21836 ], [ -97.86321, 22.22064 ], [ -97.86338, 22.22344 ], [ -97.86464, 22.22656 ], [ -97.86636, 22.23107 ], [ -97.8673, 22.23353 ], [ -97.86979, 22.23902 ], [ -97.86767, 22.23983 ], [ -97.86801, 22.24082 ], [ -97.8669, 22.24124 ], [ -97.86627, 22.2413 ], [ -97.86634, 22.24374 ], [ -97.86649, 22.24686 ], [ -97.86606, 22.2499 ], [ -97.8633, 22.2507 ], [ -97.86334, 22.25276 ], [ -97.86477, 22.25305 ], [ -97.86475, 22.2552 ], [ -97.86355, 22.2579 ], [ -97.86222, 22.26023 ], [ -97.86044, 22.26336 ], [ -97.85909, 22.26817 ], [ -97.85771, 22.27186 ], [ -97.85632, 22.27542 ], [ -97.8554, 22.27478 ], [ -97.8552, 22.27486 ], [ -97.85512, 22.27504 ], [ -97.85613, 22.27665 ], [ -97.859, 22.27798 ], [ -97.86291, 22.28127 ], [ -97.86552, 22.28461 ], [ -97.87042, 22.28812 ], [ -97.87327, 22.2911 ], [ -97.87647, 22.29613 ], [ -97.87956, 22.30109 ], [ -97.88142, 22.30399 ], [ -97.8817, 22.3049 ], [ -97.88181, 22.30615 ], [ -97.88114, 22.30843 ], [ -97.88054, 22.31026 ], [ -97.87836, 22.31713 ], [ -97.87642, 22.3234 ], [ -97.87391, 22.33142 ], [ -97.87319, 22.33525 ], [ -97.87325, 22.33595 ], [ -97.87589, 22.34472 ], [ -97.8767, 22.34629 ], [ -97.88012, 22.3494 ], [ -97.88267, 22.35093 ], [ -97.88372, 22.35139 ], [ -97.88724, 22.35418 ], [ -97.89222, 22.35952 ], [ -97.89818, 22.36625 ], [ -97.90355, 22.37155 ], [ -97.90411, 22.37319 ], [ -97.90342, 22.37448 ], [ -97.90181, 22.37689 ], [ -97.90044, 22.38167 ], [ -97.897, 22.38571 ], [ -97.88677, 22.41406 ], [ -97.88473, 22.42005 ], [ -97.88503, 22.4221 ], [ -97.88619, 22.42414 ] ] } }
]
}
