{
"type": "FeatureCollection",
"name": "shape_9",
"crs": { "type": "name", "properties": { "name": "urn:ogc:def:crs:OGC:1.3:CRS84" } },
"features": [
{ "type": "Feature", "properties": { "data.route.shortName": "9", "data.route.longName": "Santa Elena - Colonias - Tampico", "shape_id": "shape_9" }, "geometry": { "type": "LineString", "coordinates": [ [ -97.84739, 22.32856 ], [ -97.84664, 22.3263 ], [ -97.84906, 22.32544 ], [ -97.85084, 22.32432 ], [ -97.85534, 22.32213 ], [ -97.85546, 22.32191 ], [ -97.85569, 22.32191 ], [ -97.85253, 22.31746 ], [ -97.8524, 22.31729 ], [ -97.84868, 22.30617 ], [ -97.84898, 22.3057 ], [ -97.84884, 22.30517 ], [ -97.84853, 22.30443 ], [ -97.84689, 22.30502 ], [ -97.84622, 22.30347 ], [ -97.84601, 22.30349 ], [ -97.84593, 22.30078 ], [ -97.84443, 22.30083 ], [ -97.84426, 22.30078 ], [ -97.84467, 22.29659 ], [ -97.84476, 22.29627 ], [ -97.84488, 22.29623 ], [ -97.84544, 22.29619 ], [ -97.84533, 22.29484 ], [ -97.84701, 22.29471 ], [ -97.84674, 22.29193 ], [ -97.84275, 22.29224 ], [ -97.84262, 22.2908 ], [ -97.84232, 22.28821 ], [ -97.84366, 22.28499 ], [ -97.85044, 22.28718 ], [ -97.85082, 22.28701 ], [ -97.84769, 22.27956 ], [ -97.8505, 22.27236 ], [ -97.85122, 22.27041 ], [ -97.85209, 22.26827 ], [ -97.85383, 22.26873 ], [ -97.85514, 22.26739 ], [ -97.85595, 22.26575 ], [ -97.85274, 22.26467 ], [ -97.85565, 22.25724 ], [ -97.85692, 22.25727 ], [ -97.85782, 22.25564 ], [ -97.85804, 22.2552 ], [ -97.85825, 22.25215 ], [ -97.86334, 22.25069 ], [ -97.86326, 22.25275 ], [ -97.86557, 22.2532 ], [ -97.86629, 22.25198 ], [ -97.86688, 22.2508 ], [ -97.86709, 22.25005 ], [ -97.8672, 22.24939 ], [ -97.86765, 22.24706 ], [ -97.8672, 22.24553 ], [ -97.867, 22.24441 ], [ -97.867, 22.24356 ], [ -97.86707, 22.24285 ], [ -97.8664, 22.23776 ], [ -97.86505, 22.23337 ], [ -97.86409, 22.22988 ], [ -97.8647, 22.22795 ], [ -97.8639, 22.22766 ], [ -97.86428, 22.22684 ], [ -97.8583, 22.22432 ], [ -97.85944, 22.22191 ], [ -97.85585, 22.22031 ], [ -97.85923, 22.21399 ], [ -97.8558, 22.21246 ], [ -97.85663, 22.21286 ], [ -97.85456, 22.21681 ], [ -97.86323, 22.22061 ], [ -97.86321, 22.22101 ], [ -97.86327, 22.22283 ], [ -97.86359, 22.22408 ], [ -97.86259, 22.22612 ], [ -97.86137, 22.22871 ], [ -97.8618, 22.22899 ], [ -97.86271, 22.22934 ], [ -97.86266, 22.22962 ], [ -97.8625, 22.22993 ], [ -97.86357, 22.23347 ], [ -97.86342, 22.23377 ], [ -97.86381, 22.24895 ], [ -97.86356, 22.25062 ], [ -97.86334, 22.25069 ], [ -97.86334, 22.25069 ], [ -97.86356, 22.25062 ], [ -97.86381, 22.24895 ], [ -97.86342, 22.23377 ], [ -97.86346, 22.23312 ], [ -97.8625, 22.22993 ], [ -97.86266, 22.22962 ], [ -97.86271, 22.22934 ], [ -97.8618, 22.22899 ], [ -97.86137, 22.22871 ], [ -97.86259, 22.22612 ], [ -97.86359, 22.22408 ], [ -97.86327, 22.22283 ], [ -97.86321, 22.22101 ], [ -97.86323, 22.22061 ], [ -97.85456, 22.21681 ], [ -97.85663, 22.21286 ], [ -97.85456, 22.21683 ], [ -97.86318, 22.22054 ], [ -97.86321, 22.22281 ], [ -97.86355, 22.22414 ], [ -97.86158, 22.22849 ], [ -97.86256, 22.22928 ], [ -97.86338, 22.23302 ], [ -97.86385, 22.24893 ], [ -97.86334, 22.25069 ], [ -97.85825, 22.25215 ], [ -97.85804, 22.2552 ], [ -97.85782, 22.25564 ], [ -97.85692, 22.25727 ], [ -97.85565, 22.25724 ], [ -97.85274, 22.26467 ], [ -97.85595, 22.26575 ], [ -97.85514, 22.26739 ], [ -97.85383, 22.26873 ], [ -97.85209, 22.26827 ], [ -97.85122, 22.27041 ], [ -97.8505, 22.27236 ], [ -97.84769, 22.27956 ], [ -97.85082, 22.28701 ], [ -97.85044, 22.28718 ], [ -97.84366, 22.28499 ], [ -97.84232, 22.28821 ], [ -97.84262, 22.2908 ], [ -97.84275, 22.29224 ], [ -97.84674, 22.29193 ], [ -97.84701, 22.29471 ], [ -97.84533, 22.29484 ], [ -97.84544, 22.29619 ], [ -97.84488, 22.29623 ], [ -97.84476, 22.29627 ], [ -97.84467, 22.29659 ], [ -97.84426, 22.30078 ], [ -97.84443, 22.30083 ], [ -97.84593, 22.30078 ], [ -97.84601, 22.30349 ], [ -97.84622, 22.30347 ], [ -97.84689, 22.30502 ], [ -97.84853, 22.30443 ], [ -97.84884, 22.30517 ], [ -97.84898, 22.3057 ], [ -97.84868, 22.30617 ], [ -97.8524, 22.31729 ], [ -97.85253, 22.31746 ], [ -97.85569, 22.32191 ], [ -97.85546, 22.32191 ], [ -97.85534, 22.32213 ], [ -97.85084, 22.32432 ], [ -97.84906, 22.32544 ], [ -97.84664, 22.3263 ] ] } }
]
}
