{
"type": "FeatureCollection",
"name": "shape_15",
"crs": { "type": "name", "properties": { "name": "urn:ogc:def:crs:OGC:1.3:CRS84" } },
"features": [
{ "type": "Feature", "properties": { "data.route.shortName": "15", "data.route.longName": "Madero - UAT - Niños Héroes", "shape_id": "shape_15" }, "geometry": { "type": "LineString", "coordinates": [ [ -97.83747, 22.24795 ], [ -97.8413, 22.25002 ], [ -97.83996, 22.25214 ], [ -97.84534, 22.25501 ], [ -97.8448, 22.2559 ], [ -97.84332, 22.25716 ], [ -97.84417, 22.25802 ], [ -97.84456, 22.25859 ], [ -97.85044, 22.26167 ], [ -97.85212, 22.26211 ], [ -97.85183, 22.26286 ], [ -97.85801, 22.26485 ], [ -97.85613, 22.26977 ], [ -97.85818, 22.27046 ], [ -97.85643, 22.27498 ], [ -97.85605, 22.27536 ], [ -97.85529, 22.2747 ], [ -97.85512, 22.27507 ], [ -97.85629, 22.27675 ], [ -97.85947, 22.27841 ], [ -97.86259, 22.28109 ], [ -97.86443, 22.28337 ], [ -97.86623, 22.28528 ], [ -97.86874, 22.28699 ], [ -97.86987, 22.28779 ], [ -97.87111, 22.28895 ], [ -97.87223, 22.2902 ], [ -97.87334, 22.29135 ], [ -97.87961, 22.3013 ], [ -97.885, 22.30129 ], [ -97.88873, 22.3033 ], [ -97.88823, 22.30639 ], [ -97.8875, 22.30987 ], [ -97.88672, 22.31346 ], [ -97.88628, 22.31542 ], [ -97.88547, 22.31734 ], [ -97.88247, 22.31727 ], [ -97.88267, 22.3231 ], [ -97.88685, 22.32358 ], [ -97.88887, 22.31866 ], [ -97.88252, 22.31926 ], [ -97.88252, 22.31926 ], [ -97.88887, 22.31866 ], [ -97.88685, 22.32358 ], [ -97.88267, 22.3231 ], [ -97.88252, 22.31788 ], [ -97.88565, 22.31782 ], [ -97.88574, 22.31727 ], [ -97.88628, 22.31542 ], [ -97.88672, 22.31346 ], [ -97.8875, 22.30987 ], [ -97.88823, 22.30639 ], [ -97.88873, 22.3033 ], [ -97.885, 22.30129 ], [ -97.87961, 22.3013 ], [ -97.87334, 22.29135 ], [ -97.87223, 22.2902 ], [ -97.87111, 22.28895 ], [ -97.86987, 22.28779 ], [ -97.86874, 22.28699 ], [ -97.86623, 22.28528 ], [ -97.86443, 22.28337 ], [ -97.86259, 22.28109 ], [ -97.85947, 22.27841 ], [ -97.85847, 22.27736 ], [ -97.85705, 22.27615 ], [ -97.85638, 22.27556 ], [ -97.85653, 22.275 ], [ -97.85818, 22.27046 ], [ -97.85613, 22.26977 ], [ -97.85801, 22.26485 ], [ -97.85183, 22.26286 ], [ -97.85212, 22.26211 ], [ -97.85044, 22.26167 ], [ -97.84456, 22.25859 ], [ -97.84417, 22.25802 ], [ -97.84332, 22.25716 ], [ -97.8448, 22.2559 ], [ -97.84534, 22.25501 ], [ -97.83918, 22.25176 ], [ -97.8401, 22.2503 ], [ -97.83707, 22.24868 ] ] } }
]
}
