{
"type": "FeatureCollection",
"name": "los_mochis",
"crs": { "type": "name", "properties": { "name": "urn:ogc:def:crs:OGC:1.3:CRS84" } },
"features": [
{ "type": "Feature", "properties": { "ciudad_nombre": "Los Mochis", "encodedLine": "mrk|C`jgxSyMlYxMlIbE~BdFbDdGtDdOdJbMbHwBtDyFhMgBhDrMxHqHbPiEjJNNyBbFvJnG|T|MjElCsJjSwClGiF_DkRkLzDmIdFkLmEeCyEqChF}KJ[eE}BcHqE{ArDs@pAyFkDoLmHaBaArC}F{H{EwKmGmUkNaM{H|GaNtO_]nN}YvBcFjJ`GnDlB", "data.route.shortName": "Country - 12 de Octubre", "data.route.longName": "Álamos_Country - 12 de Octubre", "slug": "ruta-alamos-country-12-de-octubre.56T", "type": "Bus", "color": null, "trips": [ ], "shape_id": "shape_3772" }, "geometry": { "type": "LineString", "coordinates": [ [ -108.99633, 25.78743 ], [ -109.00056, 25.7898 ], [ -109.00223, 25.78743 ], [ -109.00287, 25.78645 ], [ -109.00369, 25.7853 ], [ -109.0046, 25.78399 ], [ -109.00639, 25.7814 ], [ -109.00785, 25.77914 ], [ -109.00876, 25.77974 ], [ -109.01105, 25.78099 ], [ -109.0119, 25.78151 ], [ -109.01347, 25.77917 ], [ -109.01621, 25.7807 ], [ -109.01803, 25.78171 ], [ -109.01811, 25.78163 ], [ -109.01925, 25.78224 ], [ -109.02061, 25.78036 ], [ -109.023, 25.77685 ], [ -109.02371, 25.77583 ], [ -109.02697, 25.77769 ], [ -109.02832, 25.77845 ], [ -109.02752, 25.77962 ], [ -109.02538, 25.78272 ], [ -109.02371, 25.78178 ], [ -109.02157, 25.78063 ], [ -109.0209, 25.78166 ], [ -109.02017, 25.78275 ], [ -109.0181, 25.78158 ], [ -109.01796, 25.78152 ], [ -109.01733, 25.78251 ], [ -109.01628, 25.78397 ], [ -109.01718, 25.78443 ], [ -109.01759, 25.78469 ], [ -109.01673, 25.78594 ], [ -109.01522, 25.7881 ], [ -109.01489, 25.78859 ], [ -109.01362, 25.78785 ], [ -109.01252, 25.78943 ], [ -109.01117, 25.79147 ], [ -109.00871, 25.79506 ], [ -109.00713, 25.79731 ], [ -109.00472, 25.79588 ], [ -108.99992, 25.79321 ], [ -108.99561, 25.79073 ], [ -108.99447, 25.79013 ], [ -108.99576, 25.78831 ], [ -108.99631, 25.78743 ] ] } },
{ "type": "Feature", "properties": { "ciudad_nombre": "Los Mochis", "encodedLine": "sup|C|ijxSzN|I~BuEbFqKxGmNnEkJ\\\\i@cFyC}RuLxAiDxIhFpHlEnIjFtAx@pA~@lAp@zCqGhKbGxClBlAmCtJsSpGkNfKqThP|JbJ|FV_ApCsGnHwOjF{KdHpEjDlBnBwEqF}Co@c@oFfLeGwDuAaAmFjLkIiFgKiG_JdR{HdPoLdW}J~S}DgCqDwBqDsB_DlGkAk@{AeAcBcAyDcCyDcCiF{CaBrDiGuDiBgAKt@jEhCrIrF|HrEqH~O_LzUoAhC{@nBiC`GgHrO{CzF}NaJxCoG~DmItBwE|CgG", "data.route.shortName": "- Valle Bonito - 10 de Mayo", "data.route.longName": "Bachomo_- Valle Bonito - 10 de Mayo", "slug": "ruta-bachomo-valle-bonito-10-de-mayo.56U", "type": "Bus", "color": null, "trips": [ ], "shape_id": "shape_3773" }, "geometry": { "type": "LineString", "coordinates": [ [ -109.01167, 25.81354 ], [ -109.01342, 25.811 ], [ -109.01235, 25.81036 ], [ -109.01034, 25.80922 ], [ -109.00787, 25.80781 ], [ -109.00605, 25.80677 ], [ -109.00584, 25.80662 ], [ -109.00507, 25.80776 ], [ -109.00288, 25.81095 ], [ -109.00203, 25.8105 ], [ -109.0032, 25.80877 ], [ -109.00423, 25.80724 ], [ -109.00541, 25.80556 ], [ -109.0057, 25.80513 ], [ -109.00602, 25.80472 ], [ -109.00627, 25.80433 ], [ -109.0049, 25.80355 ], [ -109.0062, 25.80158 ], [ -109.00675, 25.80081 ], [ -109.00604, 25.80042 ], [ -109.00274, 25.79855 ], [ -109.00028, 25.79718 ], [ -108.99683, 25.79522 ], [ -108.99874, 25.79245 ], [ -109.00001, 25.79067 ], [ -108.99969, 25.79055 ], [ -108.99831, 25.78982 ], [ -108.99563, 25.7883 ], [ -108.99357, 25.78712 ], [ -108.99462, 25.78565 ], [ -108.99517, 25.78479 ], [ -108.99409, 25.78423 ], [ -108.9933, 25.78544 ], [ -108.99312, 25.78568 ], [ -108.99524, 25.78688 ], [ -108.99432, 25.78819 ], [ -108.99399, 25.78862 ], [ -108.99613, 25.78981 ], [ -108.99496, 25.79147 ], [ -108.99363, 25.79343 ], [ -108.9967, 25.79519 ], [ -108.99945, 25.79677 ], [ -109.00332, 25.79893 ], [ -109.00668, 25.80084 ], [ -109.006, 25.80179 ], [ -109.0054, 25.80268 ], [ -109.00482, 25.80357 ], [ -109.00617, 25.80437 ], [ -109.00595, 25.80475 ], [ -109.0056, 25.80521 ], [ -109.00526, 25.80571 ], [ -109.0046, 25.80664 ], [ -109.00394, 25.80757 ], [ -109.00316, 25.80874 ], [ -109.00406, 25.80923 ], [ -109.00315, 25.81056 ], [ -109.00279, 25.81109 ], [ -109.00306, 25.81115 ], [ -109.00375, 25.81013 ], [ -109.00497, 25.80843 ], [ -109.00603, 25.80684 ], [ -109.00875, 25.80837 ], [ -109.01241, 25.81045 ], [ -109.0131, 25.81085 ], [ -109.01366, 25.81115 ], [ -109.01495, 25.81184 ], [ -109.01761, 25.81332 ], [ -109.01887, 25.8141 ], [ -109.0171, 25.81665 ], [ -109.01574, 25.81588 ], [ -109.01407, 25.81492 ], [ -109.01299, 25.81433 ], [ -109.01167, 25.81354 ] ] } },
{ "type": "Feature", "properties": { "ciudad_nombre": "Los Mochis", "encodedLine": "_|k|CzlgxSeDgCoDsBpBwEtOlJcGxMyE~JvLtHfGlDvD|BhBhADdAwAhAqA`BsBtEkNfZmEjJnG`EzAbAsFfLbFxCnByDdJnFbEjC|BqFbLfH~@n@aFxK`FpCdEdC_FbLiHdObHjEbBoDnIdFdFzCjIgQ|AmDcF_D|AeDwEsCgKkGqLqH`DuHlGgMvEeKwE}C_GiDhEoJfDqHRo@~@_BoFcDuKmGuIcF}CuBqFsDeK_GyLeHcBkAh@uAjHqO", "data.route.shortName": "1 - Álamos Country", "data.route.longName": "Campos_1 - Álamos Country", "slug": "ruta-campos-1-alamos-country.56W", "type": "Bus", "color": null, "trips": [ ], "shape_id": "shape_3775" }, "geometry": { "type": "LineString", "coordinates": [ [ -108.99678, 25.78896 ], [ -108.9961, 25.78979 ], [ -108.99552, 25.79067 ], [ -108.99444, 25.7901 ], [ -108.99627, 25.78743 ], [ -108.99864, 25.78873 ], [ -109.00056, 25.78982 ], [ -109.00211, 25.78762 ], [ -109.00298, 25.7863 ], [ -109.00361, 25.78538 ], [ -109.00398, 25.78485 ], [ -109.00433, 25.78482 ], [ -109.0047, 25.78526 ], [ -109.00519, 25.78567 ], [ -109.00626, 25.78625 ], [ -109.01062, 25.78871 ], [ -109.01244, 25.78974 ], [ -109.01341, 25.78838 ], [ -109.01375, 25.78792 ], [ -109.01587, 25.78914 ], [ -109.01664, 25.788 ], [ -109.01571, 25.78744 ], [ -109.01691, 25.78565 ], [ -109.01761, 25.78467 ], [ -109.0164, 25.78404 ], [ -109.01788, 25.78194 ], [ -109.01812, 25.78162 ], [ -109.02017, 25.78275 ], [ -109.0209, 25.78162 ], [ -109.02157, 25.78063 ], [ -109.02367, 25.78175 ], [ -109.02626, 25.78324 ], [ -109.02728, 25.78178 ], [ -109.0264, 25.78128 ], [ -109.02755, 25.7796 ], [ -109.02833, 25.77845 ], [ -109.02541, 25.77679 ], [ -109.02454, 25.77632 ], [ -109.02374, 25.77746 ], [ -109.02291, 25.77699 ], [ -109.02217, 25.77807 ], [ -109.02083, 25.78003 ], [ -109.0193, 25.7822 ], [ -109.01775, 25.78139 ], [ -109.01547, 25.78004 ], [ -109.01352, 25.77896 ], [ -109.01273, 25.78004 ], [ -109.01188, 25.78132 ], [ -109.01004, 25.78031 ], [ -109.00851, 25.77947 ], [ -109.00827, 25.77937 ], [ -109.00779, 25.77905 ], [ -109.00697, 25.78025 ], [ -109.00562, 25.78228 ], [ -109.00448, 25.78399 ], [ -109.00389, 25.78478 ], [ -109.00299, 25.78599 ], [ -109.00171, 25.78794 ], [ -109.00024, 25.79015 ], [ -108.99986, 25.79065 ], [ -108.99943, 25.79044 ], [ -108.99678, 25.78894 ] ] } },
{ "type": "Feature", "properties": { "ciudad_nombre": "Los Mochis", "encodedLine": "wxa|C|vjxScJwFq^qT{WeP{WsPwX}PuRsLkKwGyR}LgOuJmLeI}FuDqCuB_DcCgF}CmEoCiF~KiCpFoG}DaMuHcJtRoJnSmJhRyHyE{CmBwBnEoDsB|FcMhB{DrM`IrB{ExBqE~OzJ`DjBhJiSpBeEtEvChFoK~CyGzA}ChJzF|FjErCxBbJvFjBjAsEtJVZJ@`AyAbOdJ|RzLbLdHvN~IhG`EtCiGtTjN|WfPjSjMrUnNrVfOlCbBRU", "data.route.shortName": "- Plaza Sendero", "data.route.longName": "Burócrata_- Plaza Sendero", "slug": "ruta-burocrata-plaza-sendero.56V", "type": "Bus", "color": null, "trips": [ ], "shape_id": "shape_3774" }, "geometry": { "type": "LineString", "coordinates": [ [ -109.01375, 25.73724 ], [ -109.01251, 25.73902 ], [ -109.00906, 25.74407 ], [ -109.00631, 25.74805 ], [ -109.00349, 25.75203 ], [ -109.00062, 25.75615 ], [ -108.99844, 25.7593 ], [ -108.99704, 25.76128 ], [ -108.99481, 25.76445 ], [ -108.99294, 25.76705 ], [ -108.99131, 25.7692 ], [ -108.9904, 25.77047 ], [ -108.98981, 25.7712 ], [ -108.98915, 25.772 ], [ -108.98836, 25.77316 ], [ -108.98764, 25.77419 ], [ -108.98972, 25.77536 ], [ -108.99093, 25.77605 ], [ -108.98998, 25.77741 ], [ -108.98843, 25.77966 ], [ -108.99158, 25.78144 ], [ -108.99486, 25.78328 ], [ -108.99795, 25.78511 ], [ -108.99686, 25.78668 ], [ -108.99631, 25.78746 ], [ -108.99735, 25.78806 ], [ -108.99677, 25.78894 ], [ -108.99451, 25.78767 ], [ -108.99357, 25.78714 ], [ -108.99518, 25.7848 ], [ -108.99408, 25.78422 ], [ -108.99303, 25.78361 ], [ -108.99493, 25.78089 ], [ -108.99547, 25.78008 ], [ -108.99222, 25.77827 ], [ -108.99123, 25.7777 ], [ -108.99199, 25.77663 ], [ -108.98999, 25.77546 ], [ -108.98858, 25.77466 ], [ -108.98779, 25.7742 ], [ -108.98905, 25.77239 ], [ -108.99007, 25.77112 ], [ -108.99068, 25.77038 ], [ -108.99192, 25.7686 ], [ -108.9923, 25.76806 ], [ -108.99417, 25.76912 ], [ -108.99431, 25.769 ], [ -108.99432, 25.76894 ], [ -108.99387, 25.76861 ], [ -108.99566, 25.76603 ], [ -108.99788, 25.76284 ], [ -108.99935, 25.76074 ], [ -109.00111, 25.75822 ], [ -109.00208, 25.75689 ], [ -109.00075, 25.75614 ], [ -109.00321, 25.75267 ], [ -109.00597, 25.74868 ], [ -109.00827, 25.74542 ], [ -109.01075, 25.7418 ], [ -109.01335, 25.73802 ], [ -109.01385, 25.73731 ], [ -109.01374, 25.73721 ] ] } },
{ "type": "Feature", "properties": { "ciudad_nombre": "Los Mochis", "encodedLine": "_qk|CxjgxSdE{JrBaEfBsDlCiGjEeJ|CsGzJaT|LnHbEbC`DyGzI_RpFsLfE}IjHmO~BcGnBkEl@w@|Aw@lMaEpRkGjCcAlA{@vA}Ax@{BfBiEqFqCcFcCiAKcCgAkCiAiAw@kC{@g@y@yCwAqDqAw@R{@r@[cAYQoEVuBFf@vNK~@_A|BoBbEiDdHoIzQxPjKnAp@eEzIsJjSsEzJ_I{EeIcFwH`PcAfBo@`A}IjRcJkFqFjLmJdSsMfYcJhRgBhEwDgC_DxGyA`DqDzHgDdHeKdTaLjUaKjTsHzNgGmDuF}CcCzEm@nAyD}BsGcE{JeGiM}HiHwE_F{CyFiDmJaGuEsCIFpHlEhQzKbTvMdLnHlP|JvBpAfDwGdOvIpFkLtHwOnGaNfIwPpHmO~L_X`EiI~A_EnDmH~D_JzGlElHhE", "data.route.shortName": "- Belisario - Chamizal", "data.route.longName": "Castro_- Belisario - Chamizal", "slug": "ruta-castro-belisario-chamizal.56Y", "type": "Bus", "color": null, "trips": [ ], "shape_id": "shape_3777" }, "geometry": { "type": "LineString", "coordinates": [ [ -108.99645, 25.7872 ], [ -108.99455, 25.78621 ], [ -108.99358, 25.78563 ], [ -108.99268, 25.78511 ], [ -108.99135, 25.7844 ], [ -108.98956, 25.78338 ], [ -108.98818, 25.78259 ], [ -108.98481, 25.78069 ], [ -108.98633, 25.77846 ], [ -108.98699, 25.77748 ], [ -108.98558, 25.77667 ], [ -108.98254, 25.77493 ], [ -108.98036, 25.77372 ], [ -108.97861, 25.77272 ], [ -108.97598, 25.77122 ], [ -108.97468, 25.77058 ], [ -108.97366, 25.77002 ], [ -108.97338, 25.76979 ], [ -108.9731, 25.76932 ], [ -108.97213, 25.76701 ], [ -108.97079, 25.76388 ], [ -108.97045, 25.76318 ], [ -108.97015, 25.76279 ], [ -108.96968, 25.76235 ], [ -108.96906, 25.76206 ], [ -108.96805, 25.76154 ], [ -108.96732, 25.76275 ], [ -108.96666, 25.76389 ], [ -108.9666, 25.76426 ], [ -108.96624, 25.76492 ], [ -108.96587, 25.76562 ], [ -108.96559, 25.76599 ], [ -108.96529, 25.76669 ], [ -108.965, 25.76689 ], [ -108.96456, 25.76766 ], [ -108.96415, 25.76855 ], [ -108.96425, 25.76883 ], [ -108.96451, 25.76913 ], [ -108.96417, 25.76927 ], [ -108.96408, 25.7694 ], [ -108.9642, 25.77044 ], [ -108.96424, 25.77103 ], [ -108.96676, 25.77083 ], [ -108.96708, 25.77089 ], [ -108.96771, 25.77121 ], [ -108.96869, 25.77177 ], [ -108.97016, 25.77262 ], [ -108.97318, 25.7743 ], [ -108.97516, 25.77145 ], [ -108.97541, 25.77105 ], [ -108.97715, 25.77204 ], [ -108.98041, 25.7739 ], [ -108.98231, 25.77496 ], [ -108.98121, 25.77656 ], [ -108.98007, 25.77819 ], [ -108.9828, 25.77975 ], [ -108.98332, 25.78009 ], [ -108.98365, 25.78033 ], [ -108.98675, 25.78208 ], [ -108.98557, 25.78386 ], [ -108.98771, 25.78507 ], [ -108.99094, 25.7869 ], [ -108.99514, 25.78924 ], [ -108.99823, 25.79102 ], [ -108.99924, 25.79154 ], [ -108.99856, 25.79246 ], [ -108.99997, 25.79326 ], [ -109.00078, 25.79371 ], [ -109.00236, 25.7946 ], [ -109.00383, 25.79544 ], [ -109.00722, 25.79739 ], [ -109.0108, 25.79948 ], [ -109.01422, 25.80141 ], [ -109.01676, 25.80295 ], [ -109.01589, 25.80427 ], [ -109.0151, 25.8055 ], [ -109.0162, 25.80616 ], [ -109.0166, 25.80639 ], [ -109.01597, 25.80732 ], [ -109.01499, 25.8087 ], [ -109.01368, 25.8106 ], [ -109.01209, 25.81289 ], [ -109.01101, 25.81438 ], [ -109.01023, 25.8155 ], [ -109.00938, 25.81675 ], [ -109.00809, 25.81858 ], [ -109.00735, 25.81965 ], [ -109.00739, 25.8197 ], [ -109.00842, 25.81817 ], [ -109.01048, 25.81524 ], [ -109.01284, 25.81186 ], [ -109.01436, 25.80975 ], [ -109.01627, 25.80696 ], [ -109.01668, 25.80636 ], [ -109.01528, 25.80552 ], [ -109.017, 25.80293 ], [ -109.01486, 25.80172 ], [ -109.01218, 25.80017 ], [ -109.00977, 25.79881 ], [ -109.00693, 25.79717 ], [ -109.0043, 25.79564 ], [ -109.0003, 25.7934 ], [ -108.99865, 25.79243 ], [ -108.99769, 25.79195 ], [ -108.99618, 25.79107 ], [ -108.99442, 25.79011 ], [ -108.99545, 25.78869 ], [ -108.99646, 25.78718 ] ] } },
{ "type": "Feature", "properties": { "ciudad_nombre": "Los Mochis", "encodedLine": "s}c|ChwexSsJcGqIwEgOaJyNqI}KkGqEmCiEzJmDbHkBs@a@Mu@tB_AlB_F|KyE~IsGdM}@lAaA~@wAfC_@Fe@?aD{ByF|L_BtDyGyDcEeCcJnRkNqIqNqIsH{EgJfS}EiDiGiDiFbLiFjLqDqBrF{LjF_LvMgYhJ_SpDvB{BpEp@b@fFeLzInFlOhJtOlJj@e@lA_@jAAv@LpAh@lD`CLKzLfI|DbCtDoHnEqHnF{KjFiL~AaDvA}DdCx@|BsEzFkMrDtBhL~G~A`K?TWh@zMjH|QvKvL~G~CaH", "data.route.shortName": "3 - Obregón - Morelos", "data.route.longName": "Campos_3 - Obregón - Morelos", "slug": "ruta-campos-3-obregon-morelos.56X", "type": "Bus", "color": null, "trips": [ ], "shape_id": "shape_3776" }, "geometry": { "type": "LineString", "coordinates": [ [ -108.98821, 25.74826 ], [ -108.98691, 25.75012 ], [ -108.98583, 25.75181 ], [ -108.98406, 25.75441 ], [ -108.98237, 25.75694 ], [ -108.98103, 25.75901 ], [ -108.98032, 25.76006 ], [ -108.98222, 25.76107 ], [ -108.98368, 25.76194 ], [ -108.98342, 25.76248 ], [ -108.98335, 25.76265 ], [ -108.98394, 25.76292 ], [ -108.98449, 25.76324 ], [ -108.98656, 25.76436 ], [ -108.98832, 25.76545 ], [ -108.99059, 25.76683 ], [ -108.99098, 25.76714 ], [ -108.9913, 25.76747 ], [ -108.99198, 25.76791 ], [ -108.99202, 25.76807 ], [ -108.99202, 25.76826 ], [ -108.9914, 25.76907 ], [ -108.99363, 25.77032 ], [ -108.99454, 25.7708 ], [ -108.99361, 25.77221 ], [ -108.99294, 25.77319 ], [ -108.99606, 25.77497 ], [ -108.99437, 25.77743 ], [ -108.99268, 25.77992 ], [ -108.99158, 25.78146 ], [ -108.99482, 25.78326 ], [ -108.99397, 25.78437 ], [ -108.99312, 25.7857 ], [ -108.99522, 25.78687 ], [ -108.99736, 25.78804 ], [ -108.99679, 25.78893 ], [ -108.99457, 25.78771 ], [ -108.99249, 25.78653 ], [ -108.98829, 25.78417 ], [ -108.98509, 25.78236 ], [ -108.98569, 25.78147 ], [ -108.98674, 25.78209 ], [ -108.98692, 25.78184 ], [ -108.98481, 25.78068 ], [ -108.98601, 25.77894 ], [ -108.98782, 25.77631 ], [ -108.98965, 25.77364 ], [ -108.98946, 25.77342 ], [ -108.9893, 25.77303 ], [ -108.98929, 25.77265 ], [ -108.98936, 25.77237 ], [ -108.98957, 25.77196 ], [ -108.99022, 25.77109 ], [ -108.99016, 25.77102 ], [ -108.9918, 25.7688 ], [ -108.99246, 25.76785 ], [ -108.99094, 25.76694 ], [ -108.98941, 25.7659 ], [ -108.98735, 25.7647 ], [ -108.98522, 25.76352 ], [ -108.98441, 25.76304 ], [ -108.98346, 25.7626 ], [ -108.98375, 25.76193 ], [ -108.98269, 25.7613 ], [ -108.98039, 25.76004 ], [ -108.98098, 25.75914 ], [ -108.98242, 25.75701 ], [ -108.98435, 25.75653 ], [ -108.98446, 25.75653 ], [ -108.98467, 25.75665 ], [ -108.98617, 25.75427 ], [ -108.98821, 25.75124 ], [ -108.98965, 25.74904 ], [ -108.9882, 25.74824 ] ] } },
{ "type": "Feature", "properties": { "ciudad_nombre": "Los Mochis", "encodedLine": "arl|C~xgxSlF}KpFwL|PpKfFmLvKwUjLoVnKgUfGsM`BeDvQvKd@l@tB{ElPm]jFoMfAuB~@u@~BaAxKmDjQyFfDiAbBwAtAuBtAcDr@wBkJsEwB}@eCw@mDyAg@_@eEcB]q@gD_B}B}@iAGo@Ze@b@]iAWKmDP{CPh@rNSpAaDnHy@tAiMlXfSzLeCjFwNxZiJnScD`HuBvFsF|K}D_CiJ|RmF|KwBxEeFcDqGwDkIgFcKtToEpJeFvKsDgC_JvRsG|MyI`RkEjIsFpL_E|IoGlM{@xAwCzFkHgEqEaCkDlHiHuEeFyCwOwJqMiIqLiHkKyGiHmEEJ|KxGjRlLhMfI|OzJzLtHvDbC`CwEd@aAlOrIhJ{RrKcUvQk_@xLmWpGkN", "data.route.shortName": "- Toledo - Chamizal", "data.route.longName": "Castro_- Toledo - Chamizal", "slug": "ruta-castro-toledo-chamizal.56Z", "type": "Bus", "color": null, "trips": [ ], "shape_id": "shape_3778" }, "geometry": { "type": "LineString", "coordinates": [ [ -108.99872, 25.79249 ], [ -108.99665, 25.7913 ], [ -108.99445, 25.79009 ], [ -108.99646, 25.78722 ], [ -108.99431, 25.78606 ], [ -108.99067, 25.78402 ], [ -108.98691, 25.78188 ], [ -108.98335, 25.77988 ], [ -108.98101, 25.77856 ], [ -108.98018, 25.77807 ], [ -108.98222, 25.77507 ], [ -108.98245, 25.77488 ], [ -108.98135, 25.77429 ], [ -108.97648, 25.7715 ], [ -108.97416, 25.77032 ], [ -108.97357, 25.76996 ], [ -108.9733, 25.76964 ], [ -108.97297, 25.769 ], [ -108.9721, 25.76695 ], [ -108.97085, 25.76401 ], [ -108.97048, 25.76317 ], [ -108.97004, 25.76267 ], [ -108.96945, 25.76224 ], [ -108.96863, 25.76181 ], [ -108.96803, 25.76155 ], [ -108.96697, 25.76337 ], [ -108.96666, 25.76397 ], [ -108.96638, 25.76464 ], [ -108.96593, 25.76551 ], [ -108.96577, 25.76571 ], [ -108.96527, 25.7667 ], [ -108.96502, 25.76685 ], [ -108.96454, 25.76769 ], [ -108.96423, 25.76832 ], [ -108.96419, 25.76869 ], [ -108.96433, 25.76893 ], [ -108.96451, 25.76912 ], [ -108.96414, 25.76927 ], [ -108.96408, 25.76939 ], [ -108.96417, 25.77026 ], [ -108.96426, 25.77104 ], [ -108.96676, 25.77083 ], [ -108.96717, 25.77093 ], [ -108.96869, 25.77174 ], [ -108.96912, 25.77203 ], [ -108.97319, 25.77432 ], [ -108.97541, 25.77108 ], [ -108.97659, 25.77175 ], [ -108.98104, 25.77427 ], [ -108.98432, 25.77608 ], [ -108.98577, 25.7769 ], [ -108.98701, 25.77749 ], [ -108.98908, 25.77871 ], [ -108.98844, 25.77966 ], [ -108.99163, 25.78147 ], [ -108.9937, 25.78266 ], [ -108.99479, 25.78326 ], [ -108.99397, 25.78441 ], [ -108.99305, 25.78578 ], [ -108.99189, 25.78744 ], [ -108.99536, 25.78938 ], [ -108.99721, 25.79042 ], [ -108.99925, 25.79157 ], [ -108.99857, 25.79247 ], [ -109.00173, 25.79423 ], [ -109.00412, 25.79561 ], [ -109.00717, 25.79734 ], [ -109.00883, 25.79836 ], [ -109.011, 25.79958 ], [ -109.01275, 25.80054 ], [ -109.01506, 25.8019 ], [ -109.01551, 25.8022 ], [ -109.01677, 25.80296 ], [ -109.01577, 25.80446 ], [ -109.01512, 25.80551 ], [ -109.01663, 25.80637 ], [ -109.01556, 25.80786 ], [ -109.01479, 25.80901 ], [ -109.01291, 25.81169 ], [ -109.01126, 25.81402 ], [ -109.00977, 25.81619 ], [ -109.00836, 25.81817 ], [ -109.00733, 25.81966 ], [ -109.00739, 25.81969 ], [ -109.0088, 25.81762 ], [ -109.01095, 25.81452 ], [ -109.01259, 25.81223 ], [ -109.01449, 25.80952 ], [ -109.01604, 25.8073 ], [ -109.0167, 25.80638 ], [ -109.01562, 25.80573 ], [ -109.01529, 25.80554 ], [ -109.01699, 25.80291 ], [ -109.01381, 25.8011 ], [ -109.01027, 25.79908 ], [ -109.00509, 25.79608 ], [ -109.00118, 25.79387 ], [ -108.99872, 25.7925 ] ] } },
{ "type": "Feature", "properties": { "ciudad_nombre": "Los Mochis", "encodedLine": "mtk|C~}nxS{@g@eBUiC_@sAy@{A`DyFuD_D}BsIkFs@a@nCwFoEuCsMaIvGcNmF_DiAw@vK{TsFwCsMiHcMiHeLiGnEoJbJ{Q`JcSjEoInHkOvGuNhJeShJzFrDqIx@iB`EjClB}BxDgIdE}JxFlDxBwEgHaEoMnY{DwBmD{B}InRuDeC{EdKqQv_@}K`UmNnZcKbShK|FfOnI|PlJ|A`AeFlKcDpG`I`FoHrOyBzExFlDzSnM|E|CxBzB|EzCjBaE~At@~AZpBRjAl@zChBxCnBxEvC@IwKaH}BsA", "data.route.shortName": "- Arboledas - 21 de Marzo Oriente", "data.route.longName": "Cedros_- Arboledas - 21 de Marzo Oriente", "slug": "ruta-cedros-arboledas-21-de-marzo-oriente.56a", "type": "Bus", "color": null, "trips": [ ], "shape_id": "shape_3779" }, "geometry": { "type": "LineString", "coordinates": [ [ -109.03536, 25.78775 ], [ -109.03516, 25.78805 ], [ -109.03505, 25.78856 ], [ -109.03489, 25.78925 ], [ -109.0346, 25.78967 ], [ -109.03541, 25.79013 ], [ -109.0345, 25.79138 ], [ -109.03387, 25.79218 ], [ -109.03269, 25.79388 ], [ -109.03252, 25.79414 ], [ -109.03128, 25.79342 ], [ -109.03053, 25.79446 ], [ -109.02892, 25.7968 ], [ -109.0265, 25.7954 ], [ -109.0257, 25.79659 ], [ -109.02542, 25.79696 ], [ -109.02192, 25.79492 ], [ -109.02116, 25.79614 ], [ -109.01967, 25.79848 ], [ -109.01818, 25.80074 ], [ -109.01685, 25.80285 ], [ -109.01501, 25.80181 ], [ -109.01199, 25.80003 ], [ -109.00877, 25.79826 ], [ -109.00709, 25.79724 ], [ -109.00447, 25.79572 ], [ -109.00196, 25.79432 ], [ -108.99873, 25.79251 ], [ -108.99999, 25.7907 ], [ -108.9983, 25.7898 ], [ -108.99777, 25.78951 ], [ -108.99847, 25.78854 ], [ -108.99784, 25.78799 ], [ -108.9962, 25.78706 ], [ -108.99429, 25.78607 ], [ -108.99516, 25.78482 ], [ -108.99408, 25.78421 ], [ -108.99311, 25.78569 ], [ -108.99735, 25.78801 ], [ -108.99675, 25.78895 ], [ -108.99613, 25.78982 ], [ -108.99925, 25.79157 ], [ -108.99858, 25.79248 ], [ -109.00053, 25.79358 ], [ -109.00577, 25.79655 ], [ -109.0093, 25.79862 ], [ -109.0137, 25.80109 ], [ -109.01692, 25.80303 ], [ -109.01819, 25.80106 ], [ -109.01987, 25.79846 ], [ -109.0217, 25.79559 ], [ -109.02203, 25.79512 ], [ -109.02402, 25.79627 ], [ -109.02539, 25.79709 ], [ -109.02652, 25.79548 ], [ -109.02918, 25.797 ], [ -109.03028, 25.79761 ], [ -109.03115, 25.79636 ], [ -109.03347, 25.79302 ], [ -109.03426, 25.79191 ], [ -109.03488, 25.7913 ], [ -109.03566, 25.79019 ], [ -109.03469, 25.78965 ], [ -109.03496, 25.78917 ], [ -109.0351, 25.78869 ], [ -109.0352, 25.78812 ], [ -109.03543, 25.78774 ], [ -109.03596, 25.78696 ], [ -109.03652, 25.78619 ], [ -109.03728, 25.7851 ], [ -109.03723, 25.78509 ], [ -109.03578, 25.78713 ], [ -109.03536, 25.78776 ] ] } },
{ "type": "Feature", "properties": { "ciudad_nombre": "Los Mochis", "encodedLine": "ksl|Cd{gxSh@eAdJxFnFsL`EdCbB{BrA_CpBiEfE_KpBxAdCvAxBuEgHeEkFjLeFdL}DqBeDcCyFbLkBhEqD_CoDlH}EnK_IvPkKpSyJpTaMvVeDxGdRrKb]jRoFtK}CtG`ItEqGfN}CjGp[tRzEtC|BxBr@x@fDrBuA`D}@xAiAz@m@n@zFjDbC~AhARlARpB`A~DlC`Ah@VVzA|AmA`CdCxAdFkK_F}Cf@iAWWaCrF[h@YTmCaB}DaCiAc@sBWkBkAqG}Dp@k@l@g@`AuAzBaFoFmDeDeCoK{GlCyF_TuMpGaNsHoErKiUmPwIeMgHaMaH{BmAtGkNfNoYxEeKtKgTfIeQtHoP", "data.route.shortName": "- Arboleda - 21 de Marzo Poniente", "data.route.longName": "Cedros_- Arboleda - 21 de Marzo Poniente", "slug": "ruta-cedros-arboleda-21-de-marzo-poniente.56b", "type": "Bus", "color": null, "trips": [ ], "shape_id": "shape_3780" }, "geometry": { "type": "LineString", "coordinates": [ [ -108.99907, 25.7927 ], [ -108.99872, 25.79249 ], [ -108.99997, 25.7907 ], [ -108.99779, 25.7895 ], [ -108.99846, 25.78853 ], [ -108.99784, 25.78803 ], [ -108.9972, 25.78761 ], [ -108.99619, 25.78704 ], [ -108.99427, 25.78604 ], [ -108.99472, 25.78547 ], [ -108.99516, 25.7848 ], [ -108.99409, 25.78419 ], [ -108.9931, 25.78567 ], [ -108.99524, 25.78685 ], [ -108.99735, 25.788 ], [ -108.99678, 25.78895 ], [ -108.99612, 25.78978 ], [ -108.99822, 25.79103 ], [ -108.99923, 25.79157 ], [ -108.99859, 25.79246 ], [ -109.0001, 25.79334 ], [ -109.0021, 25.79445 ], [ -109.00494, 25.79605 ], [ -109.00823, 25.79803 ], [ -109.01168, 25.79992 ], [ -109.01548, 25.80217 ], [ -109.01689, 25.803 ], [ -109.01891, 25.79993 ], [ -109.02201, 25.79511 ], [ -109.02404, 25.79631 ], [ -109.02543, 25.7971 ], [ -109.0265, 25.79549 ], [ -109.02894, 25.79686 ], [ -109.03028, 25.79765 ], [ -109.03343, 25.79308 ], [ -109.03418, 25.79198 ], [ -109.03479, 25.79135 ], [ -109.03508, 25.79109 ], [ -109.03566, 25.79025 ], [ -109.03647, 25.79068 ], [ -109.03692, 25.79099 ], [ -109.03722, 25.79136 ], [ -109.03746, 25.79159 ], [ -109.03832, 25.79033 ], [ -109.0388, 25.78967 ], [ -109.0389, 25.7893 ], [ -109.039, 25.78891 ], [ -109.03933, 25.78834 ], [ -109.04004, 25.78738 ], [ -109.04025, 25.78705 ], [ -109.04037, 25.78693 ], [ -109.04084, 25.78647 ], [ -109.04149, 25.78686 ], [ -109.04194, 25.78619 ], [ -109.03996, 25.78504 ], [ -109.03917, 25.78616 ], [ -109.0388, 25.78596 ], [ -109.03868, 25.78608 ], [ -109.0399, 25.78673 ], [ -109.04011, 25.78687 ], [ -109.04022, 25.787 ], [ -109.03973, 25.78771 ], [ -109.03908, 25.78866 ], [ -109.0389, 25.78903 ], [ -109.03878, 25.78961 ], [ -109.0384, 25.79015 ], [ -109.03745, 25.79152 ], [ -109.03723, 25.79127 ], [ -109.03703, 25.79104 ], [ -109.0366, 25.79071 ], [ -109.03547, 25.79009 ], [ -109.0346, 25.79129 ], [ -109.03393, 25.79212 ], [ -109.03251, 25.79412 ], [ -109.03126, 25.79341 ], [ -109.02891, 25.79677 ], [ -109.0265, 25.7954 ], [ -109.02546, 25.79694 ], [ -109.02189, 25.79492 ], [ -109.02017, 25.79771 ], [ -109.01869, 25.79998 ], [ -109.01724, 25.80223 ], [ -109.01685, 25.80285 ], [ -109.01439, 25.80146 ], [ -109.01015, 25.79902 ], [ -109.0082, 25.79793 ], [ -109.0048, 25.7959 ], [ -109.00189, 25.79426 ], [ -108.99909, 25.79271 ] ] } },
{ "type": "Feature", "properties": { "ciudad_nombre": "Los Mochis", "encodedLine": "sgl|CvqmxSzItFpDgFtCiElCgF`Aj@iBbF_A~AlChBpHnEpIhF~FrDHMoHmEuKwGiIgF`AeB`AsCf@kAuAs@sBjEqCdEiEdGqEqCyK_HvBsEoFaDiKqGgEiCdD}GvIeRkAW_GmDoIiFiEeCcDmBeHiE]?a@DyDeCpDoH`J}RdG{LdJoRtIaR~EkKbJvF|BkFrBkE`EnCzB{Cp@sAhIyQpAfAdDhBrBwEcHcEwDnIy@|A{IyFaJ|RiFzKwDeCwJ|SsS|b@eKdT|HzEvKtG}GnOxEfCrFnDrI|EiFtLkB|DtBjAy@lB`ElCwA|CbJlFjDtB}BnE~GlE", "data.route.shortName": "- Virreyes - Jaramillo", "data.route.longName": "Cedros_- Virreyes - Jaramillo", "slug": "ruta-cedros-virreyes-jaramillo.56c", "type": "Bus", "color": null, "trips": [ ], "shape_id": "shape_3781" }, "geometry": { "type": "LineString", "coordinates": [ [ -109.02828, 25.79082 ], [ -109.02951, 25.78908 ], [ -109.02835, 25.78819 ], [ -109.02734, 25.78744 ], [ -109.02618, 25.78673 ], [ -109.0264, 25.7864 ], [ -109.02754, 25.78693 ], [ -109.02802, 25.78725 ], [ -109.02855, 25.78654 ], [ -109.02959, 25.78501 ], [ -109.03076, 25.78332 ], [ -109.03166, 25.78204 ], [ -109.03159, 25.78199 ], [ -109.03056, 25.78351 ], [ -109.02916, 25.78554 ], [ -109.028, 25.78719 ], [ -109.02749, 25.78686 ], [ -109.02675, 25.78653 ], [ -109.02637, 25.78633 ], [ -109.02611, 25.78676 ], [ -109.02713, 25.78734 ], [ -109.02812, 25.78807 ], [ -109.02943, 25.78908 ], [ -109.0287, 25.79013 ], [ -109.02726, 25.79218 ], [ -109.0262, 25.79158 ], [ -109.02539, 25.79278 ], [ -109.02402, 25.79475 ], [ -109.02333, 25.79575 ], [ -109.0219, 25.79492 ], [ -109.01883, 25.7932 ], [ -109.01871, 25.79358 ], [ -109.01784, 25.79486 ], [ -109.01667, 25.79654 ], [ -109.016, 25.79755 ], [ -109.01545, 25.79837 ], [ -109.01444, 25.79984 ], [ -109.01444, 25.79999 ], [ -109.01447, 25.80016 ], [ -109.0138, 25.80109 ], [ -109.01228, 25.8002 ], [ -109.00909, 25.79843 ], [ -109.00687, 25.79712 ], [ -109.00375, 25.79533 ], [ -109.0007, 25.79362 ], [ -108.99872, 25.7925 ], [ -108.99996, 25.79072 ], [ -108.99878, 25.79009 ], [ -108.99776, 25.78951 ], [ -108.99848, 25.78854 ], [ -108.9977, 25.78792 ], [ -108.99728, 25.78767 ], [ -108.99427, 25.78602 ], [ -108.99463, 25.78561 ], [ -108.99516, 25.78478 ], [ -108.99408, 25.7842 ], [ -108.9931, 25.78566 ], [ -108.99478, 25.78658 ], [ -108.99525, 25.78687 ], [ -108.994, 25.78861 ], [ -108.99719, 25.79038 ], [ -108.99925, 25.79155 ], [ -108.99858, 25.79247 ], [ -109.00193, 25.79435 ], [ -109.00768, 25.79765 ], [ -109.01107, 25.7996 ], [ -109.01217, 25.79801 ], [ -109.01356, 25.79597 ], [ -109.0162, 25.7974 ], [ -109.01688, 25.79631 ], [ -109.01776, 25.79509 ], [ -109.01887, 25.79339 ], [ -109.02106, 25.79456 ], [ -109.02201, 25.7951 ], [ -109.02239, 25.79451 ], [ -109.02294, 25.7948 ], [ -109.02365, 25.79383 ], [ -109.02444, 25.79427 ], [ -109.02563, 25.79249 ], [ -109.02622, 25.79163 ], [ -109.02726, 25.79226 ], [ -109.02829, 25.79082 ] ] } },
{ "type": "Feature", "properties": { "ciudad_nombre": "Los Mochis", "encodedLine": "scr|C|qhxSrYfQzQdL~MjIxRnLjLrH`PzJvMlInTxMfPhJn@TbGwM|B_F`N}YvLgWbIwPxBsEzAwB~BkBxCy@pGmBzHsAxKyBlJ|FjKpGv@NhNfIlRpLdGuN~HuPfJsRrMqWwMeIqUoOuNmJyE_E_FwCqKyGqLmH}M{HeNgIcP{JyN{IcPoJiO_JuM}H}G|NuDhI}IeF}TmN}CqB{D`AiDFyCSaJa@u@vHYtAwArCoMnXyLjWkA`CyA`AeAdBaKdTmLzViDpHwBNuCvAuE`C{DrBOTe@\\\\k@hBg@rBeAhBY\\\\b@pAp@`@|@N|@OH~AWhBUnB^vC?n@bCdBrAf@rAx@", "data.route.shortName": "Circuito Norte", "data.route.longName": "Circuito Norte_Circuito Norte", "slug": "circuito-norte.56d", "type": "Bus", "color": null, "trips": [ ], "shape_id": "shape_3782" }, "geometry": { "type": "LineString", "coordinates": [ [ -109.00271, 25.8209 ], [ -109.00563, 25.81664 ], [ -109.00774, 25.81362 ], [ -109.0094, 25.81122 ], [ -109.01156, 25.80805 ], [ -109.0131, 25.80591 ], [ -109.015, 25.80318 ], [ -109.01667, 25.80082 ], [ -109.01904, 25.79738 ], [ -109.02085, 25.79462 ], [ -109.02096, 25.79438 ], [ -109.0186, 25.79308 ], [ -109.01748, 25.79245 ], [ -109.01317, 25.79004 ], [ -109.00929, 25.78784 ], [ -109.00645, 25.78622 ], [ -109.00539, 25.78561 ], [ -109.00479, 25.78515 ], [ -109.00425, 25.78451 ], [ -109.00396, 25.78374 ], [ -109.00341, 25.78237 ], [ -109.00299, 25.78079 ], [ -109.00238, 25.77874 ], [ -109.00365, 25.77691 ], [ -109.00502, 25.77493 ], [ -109.0051, 25.77465 ], [ -109.00674, 25.7722 ], [ -109.00891, 25.76909 ], [ -109.0064, 25.76778 ], [ -109.00357, 25.76618 ], [ -109.00043, 25.76438 ], [ -108.9965, 25.76204 ], [ -108.99487, 25.7644 ], [ -108.99223, 25.76801 ], [ -108.9904, 25.77052 ], [ -108.98944, 25.77161 ], [ -108.98868, 25.77273 ], [ -108.98727, 25.77474 ], [ -108.98576, 25.77691 ], [ -108.98418, 25.7793 ], [ -108.98254, 25.78173 ], [ -108.98064, 25.78447 ], [ -108.9789, 25.787 ], [ -108.97706, 25.78974 ], [ -108.9753, 25.79235 ], [ -108.97371, 25.7947 ], [ -108.97626, 25.79613 ], [ -108.97791, 25.79704 ], [ -108.97676, 25.79879 ], [ -108.97429, 25.8023 ], [ -108.97372, 25.80309 ], [ -108.97405, 25.80403 ], [ -108.97409, 25.80488 ], [ -108.97399, 25.80565 ], [ -108.97382, 25.80742 ], [ -108.97538, 25.80769 ], [ -108.97581, 25.80782 ], [ -108.97655, 25.80826 ], [ -108.98063, 25.81058 ], [ -108.98453, 25.81279 ], [ -108.98518, 25.81317 ], [ -108.98551, 25.81362 ], [ -108.98602, 25.81397 ], [ -108.98941, 25.8159 ], [ -108.99323, 25.81805 ], [ -108.99476, 25.8189 ], [ -108.99484, 25.8195 ], [ -108.99528, 25.82025 ], [ -108.99593, 25.82132 ], [ -108.99651, 25.82226 ], [ -108.99662, 25.82234 ], [ -108.99677, 25.82253 ], [ -108.9973, 25.82275 ], [ -108.99788, 25.82295 ], [ -108.99841, 25.8233 ], [ -108.99856, 25.82343 ], [ -108.99897, 25.82325 ], [ -108.99914, 25.823 ], [ -108.99922, 25.82269 ], [ -108.99914, 25.82238 ], [ -108.99962, 25.82233 ], [ -109.00015, 25.82245 ], [ -109.00071, 25.82256 ], [ -109.00147, 25.8224 ], [ -109.00171, 25.8224 ], [ -109.00222, 25.82174 ], [ -109.00242, 25.82132 ], [ -109.00271, 25.8209 ] ] } },
{ "type": "Feature", "properties": { "ciudad_nombre": "Los Mochis", "encodedLine": "gvq|C~`gxSjSic@`JeRl@eAhA{@hBuCjFsMlTed@|_@hUbTxMl\\\\ks@~ZzQr\\\\dSf_@fUfi@v[`a@dXwIpQbEzBtGhE~TpNcHvNqIdQ_MvWaNoIqRgLQc@cJoF}K_H{AZq@`@gAXcMrB_GvAgF~A}BzAaBvBuCdGiOz[iKzTiNlZoEpJqKiGmRwLuRmLsKaHwSkMqQ{KmSgMgOaJoViOmCaBeAeAiB_Aa@eBMgAP}AXcCCeAWCg@JuAMc@]a@_AAYXOp@STMp@{BfA_ETMhAa@vDiBhF_CtA{@jBW", "data.route.shortName": "Circuito Sur", "data.route.longName": "Circuito Sur_Circuito Sur", "slug": "circuito-sur.56e", "type": "Bus", "color": null, "trips": [ ], "shape_id": "shape_3783" }, "geometry": { "type": "LineString", "coordinates": [ [ -108.99488, 25.81876 ], [ -108.98907, 25.8155 ], [ -108.986, 25.81373 ], [ -108.98565, 25.8135 ], [ -108.98535, 25.81313 ], [ -108.9846, 25.8126 ], [ -108.98226, 25.81142 ], [ -108.97631, 25.80799 ], [ -108.97988, 25.80272 ], [ -108.98225, 25.79934 ], [ -108.97387, 25.79463 ], [ -108.97689, 25.79015 ], [ -108.98012, 25.78541 ], [ -108.98368, 25.78025 ], [ -108.98828, 25.77349 ], [ -108.99231, 25.76804 ], [ -108.99528, 25.76976 ], [ -108.9959, 25.76878 ], [ -108.99691, 25.76739 ], [ -108.9994, 25.76387 ], [ -109.00192, 25.76533 ], [ -109.00483, 25.76702 ], [ -109.00879, 25.76926 ], [ -109.00711, 25.77167 ], [ -109.00499, 25.7748 ], [ -109.00481, 25.77489 ], [ -109.00361, 25.77667 ], [ -109.00217, 25.77874 ], [ -109.00231, 25.7792 ], [ -109.00248, 25.77945 ], [ -109.00261, 25.77981 ], [ -109.00319, 25.78207 ], [ -109.00363, 25.78335 ], [ -109.00411, 25.78451 ], [ -109.00457, 25.78514 ], [ -109.00517, 25.78563 ], [ -109.00648, 25.78638 ], [ -109.0111, 25.78899 ], [ -109.0146, 25.79096 ], [ -109.01899, 25.79341 ], [ -109.02084, 25.79445 ], [ -109.01951, 25.79646 ], [ -109.01731, 25.79957 ], [ -109.01516, 25.80272 ], [ -109.01371, 25.80474 ], [ -109.01141, 25.80806 ], [ -109.00935, 25.81103 ], [ -109.00707, 25.8143 ], [ -109.0053, 25.8169 ], [ -109.00269, 25.82066 ], [ -109.0022, 25.82137 ], [ -109.00185, 25.82172 ], [ -109.00153, 25.82225 ], [ -109.00102, 25.82242 ], [ -109.00066, 25.82249 ], [ -109.00019, 25.8224 ], [ -108.99953, 25.82227 ], [ -108.99918, 25.82229 ], [ -108.99916, 25.82241 ], [ -108.99922, 25.82261 ], [ -108.99915, 25.82304 ], [ -108.999, 25.82322 ], [ -108.99868, 25.82339 ], [ -108.99855, 25.8234 ], [ -108.99847, 25.82327 ], [ -108.99837, 25.82302 ], [ -108.9983, 25.82291 ], [ -108.99768, 25.82266 ], [ -108.99672, 25.8223 ], [ -108.99665, 25.82219 ], [ -108.99648, 25.82182 ], [ -108.99595, 25.8209 ], [ -108.99531, 25.81973 ], [ -108.99501, 25.8193 ], [ -108.99489, 25.81876 ] ] } },
{ "type": "Feature", "properties": { "ciudad_nombre": "Los Mochis", "encodedLine": "ycn|C~qexSl[nRzc@tX|WzOtBcEmKoH}VcOoQyKyQ_LcMsHuD_CyA|DeGwDgM_IoPeK_RcLfDyGfHoOiJwFgM}HwDdIaGpM]NkGuDwKaHaAw@yBjAgObH}BcG{I`E`DrFc@ZuDdBy@Tk@BkBmDaGr@j@xE~F_A`C]fBy@dCmAt@OoJgPsLqS?o@RWXMtAp@jAZjFTxE\\\\xBr@tGhEzRxL~GhEjNhIjCuGlIiQjRtLnCfB_NzYpS`MrUtN~PhKt@J", "data.route.shortName": "- Zaragoza", "data.route.longName": "Cocos_- Zaragoza", "slug": "ruta-cocos-zaragoza.56f", "type": "Bus", "color": null, "trips": [ ], "shape_id": "shape_3784" }, "geometry": { "type": "LineString", "coordinates": [ [ -108.98736, 25.80045 ], [ -108.99048, 25.7959 ], [ -108.99459, 25.79 ], [ -108.99729, 25.78601 ], [ -108.99631, 25.78542 ], [ -108.99479, 25.78741 ], [ -108.99221, 25.79124 ], [ -108.99016, 25.7942 ], [ -108.98808, 25.79721 ], [ -108.98654, 25.79947 ], [ -108.9859, 25.80038 ], [ -108.98685, 25.80083 ], [ -108.98593, 25.80214 ], [ -108.98433, 25.80442 ], [ -108.98238, 25.80722 ], [ -108.98028, 25.81026 ], [ -108.97887, 25.80942 ], [ -108.97623, 25.80794 ], [ -108.97499, 25.80975 ], [ -108.9734, 25.81203 ], [ -108.97503, 25.81295 ], [ -108.97736, 25.81424 ], [ -108.97744, 25.81439 ], [ -108.97653, 25.81573 ], [ -108.97508, 25.81777 ], [ -108.9748, 25.8181 ], [ -108.97518, 25.81871 ], [ -108.97664, 25.82131 ], [ -108.97534, 25.82194 ], [ -108.97631, 25.82368 ], [ -108.97753, 25.82287 ], [ -108.97767, 25.82305 ], [ -108.97818, 25.82396 ], [ -108.97829, 25.82425 ], [ -108.97831, 25.82447 ], [ -108.97744, 25.82501 ], [ -108.9777, 25.8263 ], [ -108.97879, 25.82608 ], [ -108.97847, 25.8248 ], [ -108.97832, 25.82415 ], [ -108.97803, 25.82363 ], [ -108.97764, 25.82296 ], [ -108.97756, 25.82269 ], [ -108.9748, 25.82453 ], [ -108.97151, 25.82671 ], [ -108.97127, 25.82671 ], [ -108.97115, 25.82661 ], [ -108.97108, 25.82648 ], [ -108.97133, 25.82605 ], [ -108.97147, 25.82567 ], [ -108.97158, 25.82449 ], [ -108.97173, 25.8234 ], [ -108.97199, 25.82279 ], [ -108.973, 25.8214 ], [ -108.97521, 25.81822 ], [ -108.97622, 25.81678 ], [ -108.97787, 25.81432 ], [ -108.97648, 25.81362 ], [ -108.97355, 25.81195 ], [ -108.97574, 25.80885 ], [ -108.97626, 25.80813 ], [ -108.98056, 25.81053 ], [ -108.98281, 25.80724 ], [ -108.98532, 25.80362 ], [ -108.98729, 25.80074 ], [ -108.98735, 25.80047 ] ] } },
{ "type": "Feature", "properties": { "ciudad_nombre": "Los Mochis", "encodedLine": "s}k|ClfhxSwGeELk@tAgDrFcLpF}LlBwDrDvB_Tde@g@z@jMzHpOfJBnAiA|@gB~BuCjGkC`GtIpFxOxJ|G`EvM`IvHkPfFxCzNbJvG`EmE~IoBhEnF`DyHrOyH{EgF{CbIiPqLiHoKoG}JgGsOqJkQyKtBcEdDgHlAgBxAuAzAy@{GmEaLsGkGsD", "data.route.shortName": "- Alameda", "data.route.longName": "Delicias_- Alameda", "slug": "ruta-delicias-alameda.56g", "type": "Bus", "color": null, "trips": [ ], "shape_id": "shape_3785" }, "geometry": { "type": "LineString", "coordinates": [ [ -109.00087, 25.78922 ], [ -108.99988, 25.79062 ], [ -108.99966, 25.79055 ], [ -108.99882, 25.79012 ], [ -108.99672, 25.7889 ], [ -108.99449, 25.78769 ], [ -108.99357, 25.78714 ], [ -108.99417, 25.78624 ], [ -109.00028, 25.7896 ], [ -109.00058, 25.7898 ], [ -109.00216, 25.7875 ], [ -109.00396, 25.78485 ], [ -109.00436, 25.78483 ], [ -109.00467, 25.7852 ], [ -109.00531, 25.78572 ], [ -109.00665, 25.78647 ], [ -109.00794, 25.78717 ], [ -109.00915, 25.78546 ], [ -109.01104, 25.78277 ], [ -109.01201, 25.78134 ], [ -109.01362, 25.77898 ], [ -109.01084, 25.77742 ], [ -109.01161, 25.77626 ], [ -109.01339, 25.77372 ], [ -109.01436, 25.77232 ], [ -109.01612, 25.77335 ], [ -109.01713, 25.77391 ], [ -109.01794, 25.77271 ], [ -109.0206, 25.77428 ], [ -109.0195, 25.77585 ], [ -109.01872, 25.77701 ], [ -109.01595, 25.77539 ], [ -109.01446, 25.77756 ], [ -109.0131, 25.77956 ], [ -109.01178, 25.78147 ], [ -109.00993, 25.78413 ], [ -109.00788, 25.78707 ], [ -109.0069, 25.78648 ], [ -109.00542, 25.78565 ], [ -109.0049, 25.78526 ], [ -109.00447, 25.78481 ], [ -109.00418, 25.78435 ], [ -109.00315, 25.78577 ], [ -109.00177, 25.78786 ], [ -109.00087, 25.7892 ] ] } },
{ "type": "Feature", "properties": { "ciudad_nombre": "Los Mochis", "encodedLine": "qnm|Cx`fxSjZfQrClBnFkLrD`CvDbCnDvByBrEiD{B_MoHkMcIyQd`@dJzFeMtWkGwDc[mRcJ}FoFgDfGyM`E{IwHyEqQyKmHvOuCxGkLmHqMwHcGhMcRgLiQ{K}CgBbCyFxBgErEpChRhLjPjKnLhHpBuE`JcRkKmGfEaJxFcMrPnKjWxOpQvKz@F`TxM", "data.route.shortName": "- Serdán", "data.route.longName": "Infonavit_- Serdán", "slug": "ruta-infonavit-serdan.56h", "type": "Bus", "color": null, "trips": [ ], "shape_id": "shape_3786" }, "geometry": { "type": "LineString", "coordinates": [ [ -108.98973, 25.79705 ], [ -108.99265, 25.79267 ], [ -108.9932, 25.79193 ], [ -108.99106, 25.79073 ], [ -108.99171, 25.78983 ], [ -108.99237, 25.78891 ], [ -108.99297, 25.78803 ], [ -108.99403, 25.78864 ], [ -108.99341, 25.78949 ], [ -108.99189, 25.79173 ], [ -108.99027, 25.79403 ], [ -108.99558, 25.79704 ], [ -108.99684, 25.79525 ], [ -109.00079, 25.79752 ], [ -108.99987, 25.79886 ], [ -108.99676, 25.80336 ], [ -108.99549, 25.80514 ], [ -108.99465, 25.80634 ], [ -108.99228, 25.80502 ], [ -108.99054, 25.80405 ], [ -108.98945, 25.80561 ], [ -108.9874, 25.80858 ], [ -108.99008, 25.81009 ], [ -108.99149, 25.81084 ], [ -108.98998, 25.81298 ], [ -108.98842, 25.81531 ], [ -108.99071, 25.81661 ], [ -108.98859, 25.81967 ], [ -108.98653, 25.8226 ], [ -108.98601, 25.82339 ], [ -108.98476, 25.82273 ], [ -108.98376, 25.82212 ], [ -108.98449, 25.82106 ], [ -108.98662, 25.81797 ], [ -108.9886, 25.81519 ], [ -108.99009, 25.81303 ], [ -108.98902, 25.81246 ], [ -108.98596, 25.81069 ], [ -108.98461, 25.81267 ], [ -108.98284, 25.81167 ], [ -108.98058, 25.81042 ], [ -108.98258, 25.8076 ], [ -108.98527, 25.8037 ], [ -108.98731, 25.80073 ], [ -108.98735, 25.80043 ], [ -108.98972, 25.79706 ] ] } },
{ "type": "Feature", "properties": { "ciudad_nombre": "Los Mochis", "encodedLine": "uvo|CvsexS~XnPB`BgLrVnQrKfZtQhIjFjMoXbPxJ~MsYfQrK|W~Oj^`UvGfEsM|X|FtDrBv@jC~@rB_Er@aBzKrG`HgObPxJtVhOsGvNkGgDlCwF_EcCzKaVkLcHiY{P`DeH?m@h@iAcBWK_B^_@`AmApBiE|AeDKS_@?gAzBiHuEyW}OyZaR{Q``@mQaLoRcLcRqLoV}NyQaLaB|DaFeDmSaMuNcJwFgDrCcGiGwDsFhLuKdUlKxG}GvNsImFaRwKwBwAaL~UhSdMxFwLfMfHnLpHjFuLjEiJ", "data.route.shortName": "- Zaragoza - San Fernando", "data.route.longName": "Infonavit_- Zaragoza - San Fernando", "slug": "ruta-infonavit-zaragoza-san-fernando.56i", "type": "Bus", "color": null, "trips": [ ], "shape_id": "shape_3787" }, "geometry": { "type": "LineString", "coordinates": [ [ -108.98764, 25.80859 ], [ -108.99044, 25.80443 ], [ -108.99093, 25.80441 ], [ -108.99471, 25.80653 ], [ -108.99673, 25.80357 ], [ -108.99972, 25.79921 ], [ -109.0009, 25.79756 ], [ -108.99682, 25.79526 ], [ -108.99871, 25.79252 ], [ -108.99445, 25.79012 ], [ -108.99647, 25.7872 ], [ -108.99919, 25.78321 ], [ -109.00272, 25.77819 ], [ -109.00372, 25.77679 ], [ -109.00787, 25.77913 ], [ -109.00878, 25.77786 ], [ -109.00906, 25.77728 ], [ -109.00938, 25.77658 ], [ -109.00842, 25.776 ], [ -109.00793, 25.77574 ], [ -109.00931, 25.77368 ], [ -109.00671, 25.77223 ], [ -109.0086, 25.76949 ], [ -109.01121, 25.7657 ], [ -109.01373, 25.76708 ], [ -109.01289, 25.76842 ], [ -109.01165, 25.76771 ], [ -109.01099, 25.76867 ], [ -109.0073, 25.76661 ], [ -109.00584, 25.76875 ], [ -109.00298, 25.77296 ], [ -109.00151, 25.77215 ], [ -109.00128, 25.77215 ], [ -109.00091, 25.77194 ], [ -109.00079, 25.77244 ], [ -109.00031, 25.7725 ], [ -109.00015, 25.77234 ], [ -108.99976, 25.77201 ], [ -108.99875, 25.77144 ], [ -108.99792, 25.77097 ], [ -108.99782, 25.77103 ], [ -108.99782, 25.77119 ], [ -108.99844, 25.77155 ], [ -108.99737, 25.77304 ], [ -108.99466, 25.77701 ], [ -108.99161, 25.78146 ], [ -108.9969, 25.78448 ], [ -108.99481, 25.78743 ], [ -108.99271, 25.79055 ], [ -108.99054, 25.79361 ], [ -108.98799, 25.79737 ], [ -108.9859, 25.80038 ], [ -108.98685, 25.80087 ], [ -108.98602, 25.802 ], [ -108.98377, 25.80527 ], [ -108.98199, 25.80778 ], [ -108.98115, 25.80902 ], [ -108.97985, 25.80828 ], [ -108.97893, 25.80961 ], [ -108.98106, 25.81083 ], [ -108.98461, 25.81286 ], [ -108.98602, 25.81087 ], [ -108.98854, 25.8123 ], [ -108.98735, 25.814 ], [ -108.98531, 25.81705 ], [ -108.98487, 25.81765 ], [ -108.98855, 25.81974 ], [ -108.99082, 25.81649 ], [ -108.98862, 25.81524 ], [ -108.9901, 25.81296 ], [ -108.99163, 25.8108 ], [ -108.98944, 25.80962 ], [ -108.98763, 25.8086 ] ] } },
{ "type": "Feature", "properties": { "ciudad_nombre": "Los Mochis", "encodedLine": "iqj|C~rdxSgQh`@mUff@kD}BrEyJpCyFrKiUrI{QjEoJ|PbKlF_LfJyRvOc]fHkOwPiKzBeFoJsFtCoGeKgGxAyCzPzJoJzSxD|BfDpBuFrLcDbHcDtHcH`OoEqCyCaB_DxGsIxQ}@fBdJnF", "data.route.shortName": "2 - Yarda", "data.route.longName": "Jiquilpan_2 - Yarda", "slug": "ruta-jiquilpan-2-yarda.56j", "type": "Bus", "color": null, "trips": [ ], "shape_id": "shape_3788" }, "geometry": { "type": "LineString", "coordinates": [ [ -108.9824, 25.78213 ], [ -108.98773, 25.78505 ], [ -108.99401, 25.78864 ], [ -108.99338, 25.7895 ], [ -108.99149, 25.78844 ], [ -108.99024, 25.78771 ], [ -108.98667, 25.78569 ], [ -108.98365, 25.78399 ], [ -108.98181, 25.78297 ], [ -108.98375, 25.7801 ], [ -108.98167, 25.77891 ], [ -108.9785, 25.77711 ], [ -108.97368, 25.77443 ], [ -108.97106, 25.77295 ], [ -108.96909, 25.77579 ], [ -108.96794, 25.77517 ], [ -108.96672, 25.77701 ], [ -108.96536, 25.77626 ], [ -108.96404, 25.77821 ], [ -108.96327, 25.77776 ], [ -108.96517, 25.7749 ], [ -108.96851, 25.77674 ], [ -108.96914, 25.77581 ], [ -108.96971, 25.77497 ], [ -108.97189, 25.7762 ], [ -108.97335, 25.77702 ], [ -108.9749, 25.77784 ], [ -108.97747, 25.7793 ], [ -108.97674, 25.78034 ], [ -108.97625, 25.78111 ], [ -108.97766, 25.78191 ], [ -108.98067, 25.78361 ], [ -108.98119, 25.78392 ], [ -108.98239, 25.78213 ] ] } },
{ "type": "Feature", "properties": { "ciudad_nombre": "Los Mochis", "encodedLine": "}xd|Cr_hxSy@_@yAu@_DqBoN_JwLoHeJ}FcGyDvJwSqCgBaEzI_GdMkFaEeDcCoDeCqA}@{AeAoAhBgAhAeAnBy@NsH}E{K}H_LiH{QcLYbAmIrQ_E_CmGzMeMzWiJpRsMeIyBrEqDqB|EqKhCmFrMxHvJ_TxOy\\\\zCsGfKlGrBoE|LrHhOfJjIpGzNdJpE_JpCbBz@VtGzEhG~EpCsFtHgPzDzBfMrH|NtJjBsD`DjBbUlNwHfPeDdHSY", "data.route.shortName": "- Prado Bonito - America - Olivos", "data.route.longName": "Laureles_- Prado Bonito - America - Olivos", "slug": "ruta-laureles-prado-bonito-america-olivos.56k", "type": "Bus", "color": null, "trips": [ ], "shape_id": "shape_3789" }, "geometry": { "type": "LineString", "coordinates": [ [ -108.99978, 25.75263 ], [ -108.99962, 25.75292 ], [ -108.99935, 25.75337 ], [ -108.99878, 25.75417 ], [ -108.99702, 25.75665 ], [ -108.9955, 25.75885 ], [ -108.99423, 25.76064 ], [ -108.9933, 25.76194 ], [ -108.98998, 25.76006 ], [ -108.98946, 25.76079 ], [ -108.9912, 25.76176 ], [ -108.99347, 25.76304 ], [ -108.9925, 25.76422 ], [ -108.99184, 25.76505 ], [ -108.99117, 25.76593 ], [ -108.99086, 25.76634 ], [ -108.99051, 25.7668 ], [ -108.99104, 25.7672 ], [ -108.99141, 25.76756 ], [ -108.99197, 25.76791 ], [ -108.99205, 25.7682 ], [ -108.99094, 25.76974 ], [ -108.98935, 25.7718 ], [ -108.98786, 25.77388 ], [ -108.98576, 25.7769 ], [ -108.9861, 25.77703 ], [ -108.98908, 25.7787 ], [ -108.98844, 25.77966 ], [ -108.99082, 25.78101 ], [ -108.9948, 25.78328 ], [ -108.99793, 25.78509 ], [ -108.9963, 25.78743 ], [ -108.99736, 25.78804 ], [ -108.99679, 25.78893 ], [ -108.99478, 25.78782 ], [ -108.99359, 25.78713 ], [ -108.99516, 25.78479 ], [ -108.9918, 25.78291 ], [ -108.98703, 25.78022 ], [ -108.98565, 25.77944 ], [ -108.987, 25.77748 ], [ -108.98596, 25.7769 ], [ -108.9875, 25.77467 ], [ -108.9893, 25.77206 ], [ -108.99067, 25.7704 ], [ -108.99246, 25.76786 ], [ -108.9907, 25.76681 ], [ -108.9912, 25.76608 ], [ -108.99132, 25.76578 ], [ -108.99242, 25.76439 ], [ -108.99354, 25.76306 ], [ -108.99232, 25.76233 ], [ -108.98956, 25.76078 ], [ -108.99018, 25.75984 ], [ -108.99172, 25.75756 ], [ -108.99359, 25.75501 ], [ -108.99269, 25.75447 ], [ -108.99323, 25.75366 ], [ -108.9957, 25.75012 ], [ -108.99846, 25.75168 ], [ -108.99993, 25.75251 ], [ -108.9998, 25.75261 ] ] } },
{ "type": "Feature", "properties": { "ciudad_nombre": "Los Mochis", "encodedLine": "{hl|CbvgxSoB`EqDcCiDnHkMnXcOjZuGnNeC~FoJ}FaUgNoM}HeLiH{RsLaTsMeDqBwJzS|WdPzR|LhTxM|RzL|SpMpMyWjJoSnMyWnIqQxHiPjJ}R~DgJpMiXbY}m@v@wAcL{G_C}AqJhS_JyFsF~KmG_EsV_O{K{GaJbSpWrOdSzL`S~LdMlHgLfVaLfV", "data.route.shortName": "- Independencia", "data.route.longName": "Libertad_- Independencia", "slug": "ruta-libertad-independencia.56m", "type": "Bus", "color": null, "trips": [ ], "shape_id": "shape_3790" }, "geometry": { "type": "LineString", "coordinates": [ [ -108.99826, 25.79102 ], [ -108.99923, 25.79158 ], [ -108.99857, 25.79247 ], [ -109.00009, 25.79332 ], [ -109.00417, 25.79562 ], [ -109.00855, 25.7982 ], [ -109.01103, 25.79959 ], [ -109.01231, 25.80026 ], [ -109.01104, 25.8021 ], [ -109.0086, 25.80563 ], [ -109.00701, 25.80795 ], [ -109.00552, 25.81006 ], [ -109.00334, 25.81324 ], [ -109.001, 25.81661 ], [ -109.00043, 25.81744 ], [ -109.00377, 25.81932 ], [ -109.00652, 25.81533 ], [ -109.00875, 25.81215 ], [ -109.01112, 25.80874 ], [ -109.01334, 25.80555 ], [ -109.01567, 25.8022 ], [ -109.0117, 25.79987 ], [ -109.00842, 25.79805 ], [ -109.00445, 25.79573 ], [ -109.00148, 25.79405 ], [ -108.99871, 25.79248 ], [ -108.99552, 25.79066 ], [ -108.99372, 25.7897 ], [ -108.98967, 25.78737 ], [ -108.98216, 25.78319 ], [ -108.98172, 25.78291 ], [ -108.9803, 25.78501 ], [ -108.97983, 25.78565 ], [ -108.98308, 25.7875 ], [ -108.98183, 25.78926 ], [ -108.98391, 25.79048 ], [ -108.98295, 25.79183 ], [ -108.98039, 25.79561 ], [ -108.97897, 25.79767 ], [ -108.98219, 25.79944 ], [ -108.98485, 25.79551 ], [ -108.98707, 25.79228 ], [ -108.98931, 25.78907 ], [ -108.99082, 25.7868 ], [ -108.99454, 25.78892 ], [ -108.99826, 25.79101 ] ] } },
{ "type": "Feature", "properties": { "ciudad_nombre": "Los Mochis", "encodedLine": "icl|Ch~fxSrFkLhJoRyJcGrFiLvQg`@qD{Bb@q@vAoD`JiR|KsUx@aBvDzBpCgGaHkEmBkAWDiBmAvA{CqAaAq@]f@kAf@uAmFcDaFxKwR~a@iS|b@yMjYeNbZkFvKvQnKtSpM", "data.route.shortName": "- Cárdenas", "data.route.longName": "Morelos_- Cárdenas", "slug": "ruta-morelos-cardenas.56u", "type": "Bus", "color": null, "trips": [ ], "shape_id": "shape_3798" }, "geometry": { "type": "LineString", "coordinates": [ [ -108.99445, 25.79013 ], [ -108.99231, 25.78891 ], [ -108.98919, 25.7871 ], [ -108.98789, 25.78899 ], [ -108.98576, 25.78777 ], [ -108.98044, 25.78477 ], [ -108.97982, 25.78566 ], [ -108.97957, 25.78548 ], [ -108.97869, 25.78504 ], [ -108.9756, 25.78327 ], [ -108.97198, 25.7812 ], [ -108.97149, 25.78091 ], [ -108.97211, 25.77999 ], [ -108.97079, 25.77926 ], [ -108.96977, 25.78071 ], [ -108.96939, 25.78126 ], [ -108.96942, 25.78138 ], [ -108.96903, 25.78191 ], [ -108.96825, 25.78147 ], [ -108.96792, 25.78188 ], [ -108.96777, 25.78213 ], [ -108.96739, 25.78193 ], [ -108.96696, 25.78173 ], [ -108.96614, 25.78292 ], [ -108.96819, 25.78405 ], [ -108.97379, 25.78721 ], [ -108.97954, 25.79046 ], [ -108.98376, 25.79283 ], [ -108.9881, 25.79526 ], [ -108.99014, 25.79644 ], [ -108.99214, 25.79344 ], [ -108.99447, 25.79013 ] ] } },
{ "type": "Feature", "properties": { "ciudad_nombre": "Los Mochis", "encodedLine": "k{l|ClihxSfHkOdJvFlFuLbEfCrAcBdA{AfFmLlBqEtFfDzBoEeHeEsBpEiFnLyBrE{DaCaDyBaJrRwDcCwE|JaQ`_@yI~P}DtI{HrPqGjMkBzCoGnN_CtEuDzEwL`PgEzEeCfBiDdB}IlEv@t@`KlGnAp@sFtLhHnE_CxEnHnErFsLvFsLfOhJ`FtCnB_EaR_LsLkHaFzJgHkEkM_IHs@jEwBnFqCdBiAbAaAzBcChCgDbJaMlDoEtAcCvA}C~GsNl@cBpB{DxEqJnHcPxEuJnDiHtH_PhGuM", "data.route.shortName": "Horizonte", "data.route.longName": "Nuevo_Horizonte", "slug": "ruta-nuevo-horizonte.56t", "type": "Bus", "color": null, "trips": [ ], "shape_id": "shape_3797" }, "geometry": { "type": "LineString", "coordinates": [ [ -109.00135, 25.79398 ], [ -108.99873, 25.7925 ], [ -108.99997, 25.79071 ], [ -108.99778, 25.78952 ], [ -108.99846, 25.78854 ], [ -108.99796, 25.78812 ], [ -108.9975, 25.78777 ], [ -108.99535, 25.78661 ], [ -108.9943, 25.78606 ], [ -108.99514, 25.78483 ], [ -108.9941, 25.78421 ], [ -108.99311, 25.78568 ], [ -108.99416, 25.78626 ], [ -108.99632, 25.78743 ], [ -108.99738, 25.78804 ], [ -108.99673, 25.78898 ], [ -108.99612, 25.78979 ], [ -108.99926, 25.79156 ], [ -108.9986, 25.79248 ], [ -109.00051, 25.79356 ], [ -109.00564, 25.79645 ], [ -109.00852, 25.79818 ], [ -109.01023, 25.79913 ], [ -109.01305, 25.80071 ], [ -109.01535, 25.80208 ], [ -109.01613, 25.80262 ], [ -109.01861, 25.80398 ], [ -109.01968, 25.80462 ], [ -109.02078, 25.80553 ], [ -109.02351, 25.80773 ], [ -109.02461, 25.80873 ], [ -109.02513, 25.8094 ], [ -109.02564, 25.81025 ], [ -109.02667, 25.812 ], [ -109.02694, 25.81172 ], [ -109.02829, 25.80979 ], [ -109.02854, 25.80939 ], [ -109.03073, 25.81061 ], [ -109.03177, 25.80912 ], [ -109.03286, 25.80976 ], [ -109.0339, 25.80824 ], [ -109.03172, 25.80702 ], [ -109.02954, 25.80578 ], [ -109.03135, 25.80318 ], [ -109.0321, 25.80205 ], [ -109.03114, 25.80149 ], [ -109.02906, 25.80454 ], [ -109.02756, 25.80672 ], [ -109.02946, 25.80785 ], [ -109.02844, 25.80933 ], [ -109.02684, 25.81163 ], [ -109.02658, 25.81158 ], [ -109.02598, 25.81056 ], [ -109.02525, 25.80936 ], [ -109.02488, 25.80885 ], [ -109.02455, 25.80851 ], [ -109.02389, 25.80789 ], [ -109.02305, 25.8072 ], [ -109.0208, 25.80542 ], [ -109.01976, 25.80455 ], [ -109.0191, 25.80412 ], [ -109.01831, 25.80368 ], [ -109.01581, 25.80224 ], [ -109.01531, 25.80201 ], [ -109.01437, 25.80144 ], [ -109.01252, 25.80035 ], [ -109.00978, 25.79883 ], [ -109.00791, 25.79774 ], [ -109.00642, 25.79686 ], [ -109.0037, 25.79531 ], [ -109.00135, 25.79398 ] ] } },
{ "type": "Feature", "properties": { "ciudad_nombre": "Los Mochis", "encodedLine": "aef|CnkixSlSxLnBuDKWoG_EoBdEoBiA}SqMgOmJ{FgDpBuEzIeQxFqLiOgJeG_EgL{HkMmIyEwDeIkF{IsFkFcD{BdEeDpHsAxC_JmFcJpReNtYuBrE_EgCsFgDrByE~FlDpDeIpFiLrOc\\\\rBuE|OpJ`CmEhGxD~OzJfF`EfFhDtItFpI|FtPpK|FjDqIjQoChFcBlD}HwEyBnEtNfJ|NzI`OjJ", "data.route.shortName": "de Villa", "data.route.longName": "Praderas_de Villa", "slug": "ruta-praderas-de-villa.56s", "type": "Bus", "color": null, "trips": [ ], "shape_id": "shape_3796" }, "geometry": { "type": "LineString", "coordinates": [ [ -109.0068, 25.75969 ], [ -109.00901, 25.75642 ], [ -109.0081, 25.75586 ], [ -109.00798, 25.75592 ], [ -109.00702, 25.75728 ], [ -109.00801, 25.75784 ], [ -109.00764, 25.7584 ], [ -109.00531, 25.76175 ], [ -109.00348, 25.76435 ], [ -109.00264, 25.76561 ], [ -109.00157, 25.76504 ], [ -108.99866, 25.7633 ], [ -108.99649, 25.76205 ], [ -108.99469, 25.76466 ], [ -108.99373, 25.76597 ], [ -108.99215, 25.76809 ], [ -108.99048, 25.77039 ], [ -108.98956, 25.77148 ], [ -108.98838, 25.77311 ], [ -108.98716, 25.77485 ], [ -108.98634, 25.77603 ], [ -108.98733, 25.77665 ], [ -108.98886, 25.77748 ], [ -108.98963, 25.7779 ], [ -108.98844, 25.77966 ], [ -108.99157, 25.78144 ], [ -108.99584, 25.78387 ], [ -108.9969, 25.78446 ], [ -108.99622, 25.78542 ], [ -108.99538, 25.78664 ], [ -108.99429, 25.78606 ], [ -108.99516, 25.78478 ], [ -108.99353, 25.78389 ], [ -108.9914, 25.78268 ], [ -108.98674, 25.78002 ], [ -108.98567, 25.77944 ], [ -108.98752, 25.77673 ], [ -108.98649, 25.77608 ], [ -108.98742, 25.77475 ], [ -108.98932, 25.77203 ], [ -108.99029, 25.77087 ], [ -108.99114, 25.76971 ], [ -108.99237, 25.768 ], [ -108.99364, 25.76631 ], [ -108.99565, 25.76348 ], [ -108.99651, 25.76221 ], [ -108.99945, 25.7639 ], [ -109.00062, 25.76462 ], [ -109.00149, 25.76512 ], [ -109.00041, 25.76671 ], [ -109.00145, 25.76732 ], [ -109.00325, 25.76481 ], [ -109.00499, 25.76226 ], [ -109.00681, 25.75969 ] ] } },
{ "type": "Feature", "properties": { "ciudad_nombre": "Los Mochis", "encodedLine": "e}f|CjocxShQnKo@lAwKgHgDoBqKjTiAjC{JxSeBrDfCrAZZjGrDeBlDoL}GkIdQoAdCqEeDcEiCsVcOOr@sIxQaE}BuHfPwOd\\\\sBlEuLkHtBwE|FhD~G_OfPc]fFcLjKnGlBwEjTrMlCeGaDmB|FqLJo@zFoLtMyXrAeD`DcG`ItErAqCfIzEh@cA", "data.route.shortName": "- Mar de Cortez - Maquiladora", "data.route.longName": "Romanillo_- Mar de Cortez - Maquiladora", "slug": "ruta-romanillo-mar-de-cortez-maquiladora.56q", "type": "Bus", "color": null, "trips": [ ], "shape_id": "shape_3794" }, "geometry": { "type": "LineString", "coordinates": [ [ -108.9767, 25.76355 ], [ -108.9787, 25.76062 ], [ -108.97909, 25.76086 ], [ -108.97761, 25.7629 ], [ -108.97705, 25.76374 ], [ -108.98047, 25.76575 ], [ -108.98117, 25.76612 ], [ -108.9845, 25.76802 ], [ -108.9854, 25.76853 ], [ -108.98582, 25.76785 ], [ -108.98596, 25.76771 ], [ -108.98686, 25.76637 ], [ -108.98773, 25.76688 ], [ -108.9863, 25.76904 ], [ -108.98921, 25.7707 ], [ -108.98988, 25.7711 ], [ -108.98905, 25.77215 ], [ -108.98836, 25.77313 ], [ -108.98578, 25.77691 ], [ -108.98604, 25.77699 ], [ -108.98905, 25.77869 ], [ -108.98842, 25.77966 ], [ -108.99118, 25.78121 ], [ -108.99585, 25.78389 ], [ -108.99688, 25.78447 ], [ -108.99538, 25.78666 ], [ -108.9943, 25.78607 ], [ -108.99515, 25.7848 ], [ -108.99259, 25.78336 ], [ -108.98777, 25.7806 ], [ -108.98567, 25.77944 ], [ -108.98703, 25.77746 ], [ -108.98595, 25.77691 ], [ -108.98829, 25.77349 ], [ -108.98698, 25.77278 ], [ -108.98643, 25.77359 ], [ -108.98426, 25.77232 ], [ -108.98402, 25.77226 ], [ -108.98186, 25.771 ], [ -108.97773, 25.76865 ], [ -108.9769, 25.76823 ], [ -108.9756, 25.76742 ], [ -108.97667, 25.76581 ], [ -108.97594, 25.76539 ], [ -108.97704, 25.76375 ], [ -108.9767, 25.76354 ] ] } },
{ "type": "Feature", "properties": { "ciudad_nombre": "Los Mochis", "encodedLine": "k`j|ClgexSfKjGlBuEfKjGxNzIvFfE~KwUnLjH`DfBpBkEkLyGIOwCgBfCwFpIaQzEkKjD}GsLoHuEmCoDxGoAfD}AtCs@jB{BrEyLzVIj@_GtL~ClBcCpFsGeE_L}GYbAyBdFoEjJ_EcCqFhLiJxRiF`LwB|EwLqHrBuEzFdDhGwMnHyO`HuNxE_K", "data.route.shortName": "- Mar de Cortez - H.General", "data.route.longName": "Romanillo_- Mar de Cortez - H.General", "slug": "ruta-romanillo-mar-de-cortez-hgeneral.56r", "type": "Bus", "color": null, "trips": [ ], "shape_id": "shape_3795" }, "geometry": { "type": "LineString", "coordinates": [ [ -108.98567, 25.77942 ], [ -108.98701, 25.77746 ], [ -108.98594, 25.77691 ], [ -108.98728, 25.77495 ], [ -108.98902, 25.77242 ], [ -108.99002, 25.77118 ], [ -108.98638, 25.7691 ], [ -108.98788, 25.76694 ], [ -108.9884, 25.76613 ], [ -108.98738, 25.76556 ], [ -108.98597, 25.7677 ], [ -108.98589, 25.76775 ], [ -108.98537, 25.76851 ], [ -108.98413, 25.76783 ], [ -108.98124, 25.76614 ], [ -108.97926, 25.76504 ], [ -108.97783, 25.76418 ], [ -108.97631, 25.76636 ], [ -108.9756, 25.76743 ], [ -108.97701, 25.76831 ], [ -108.97785, 25.76871 ], [ -108.9786, 25.76918 ], [ -108.97914, 25.76944 ], [ -108.9802, 25.77006 ], [ -108.98402, 25.77227 ], [ -108.98424, 25.77232 ], [ -108.98643, 25.7736 ], [ -108.98698, 25.7728 ], [ -108.98819, 25.77346 ], [ -108.9872, 25.77484 ], [ -108.98577, 25.77692 ], [ -108.98611, 25.77705 ], [ -108.98726, 25.77766 ], [ -108.98908, 25.7787 ], [ -108.98842, 25.77966 ], [ -108.99055, 25.78087 ], [ -108.99372, 25.78268 ], [ -108.99581, 25.78385 ], [ -108.99692, 25.78445 ], [ -108.99539, 25.78665 ], [ -108.99432, 25.78607 ], [ -108.99515, 25.78481 ], [ -108.99279, 25.78348 ], [ -108.9901, 25.78196 ], [ -108.98759, 25.78051 ], [ -108.98567, 25.77942 ] ] } },
{ "type": "Feature", "properties": { "ciudad_nombre": "Los Mochis", "encodedLine": "ivk|C|tfxSqBrEeKkGq[yRmRiLcQmKdFkKhRia@bMgXvWvOpCkGaIsEfE_J~G_Ob@]fA|@dAf@`DnByGvN|GrDgClFtU|NpOfJhDcH`JfFjE`C{IjReAfAeJsFoAdCmMhYsSbc@", "data.route.shortName": "- Zaragoza", "data.route.longName": "Tabachines_- Zaragoza", "slug": "ruta-tabachines-zaragoza.56o", "type": "Bus", "color": null, "trips": [ ], "shape_id": "shape_3792" }, "geometry": { "type": "LineString", "coordinates": [ [ -108.99295, 25.78805 ], [ -108.99401, 25.78862 ], [ -108.99267, 25.79057 ], [ -108.9895, 25.79514 ], [ -108.98737, 25.79825 ], [ -108.98538, 25.80115 ], [ -108.9834, 25.8 ], [ -108.97791, 25.79691 ], [ -108.97387, 25.79465 ], [ -108.97655, 25.79069 ], [ -108.97521, 25.78996 ], [ -108.97415, 25.79157 ], [ -108.97239, 25.79057 ], [ -108.96983, 25.78913 ], [ -108.96968, 25.78895 ], [ -108.96999, 25.78859 ], [ -108.97019, 25.78824 ], [ -108.97075, 25.78743 ], [ -108.97327, 25.78884 ], [ -108.97417, 25.78741 ], [ -108.97536, 25.78809 ], [ -108.97791, 25.78446 ], [ -108.97971, 25.78181 ], [ -108.97825, 25.78096 ], [ -108.97941, 25.77919 ], [ -108.98006, 25.77817 ], [ -108.98316, 25.77991 ], [ -108.98352, 25.78026 ], [ -108.9823, 25.78205 ], [ -108.98297, 25.78245 ], [ -108.98718, 25.78476 ], [ -108.99296, 25.78806 ] ] } },
{ "type": "Feature", "properties": { "ciudad_nombre": "Los Mochis", "encodedLine": "gcl|Cf~fxSdUwe@pUig@|IvFzEnCzKoUkQ}JeD`HyXyPkLeHfCqFyGuDtGuNgDyBuAo@u@k@e@d@}EjKeGhMbItEmCtFeXcPgHpOkSjc@bZpQrYbQvLvH}MpYtDxB", "data.route.shortName": "- Independencia", "data.route.longName": "Tabachines_- Independencia", "slug": "ruta-tabachines-independencia.56p", "type": "Bus", "color": null, "trips": [ ], "shape_id": "shape_3793" }, "geometry": { "type": "LineString", "coordinates": [ [ -108.99444, 25.79012 ], [ -108.98824, 25.78657 ], [ -108.98179, 25.78296 ], [ -108.98303, 25.78121 ], [ -108.98375, 25.78011 ], [ -108.98015, 25.77805 ], [ -108.97824, 25.78099 ], [ -108.97969, 25.78182 ], [ -108.97684, 25.78595 ], [ -108.97537, 25.78809 ], [ -108.97416, 25.78741 ], [ -108.97325, 25.78882 ], [ -108.97074, 25.78743 ], [ -108.97013, 25.78827 ], [ -108.96989, 25.7887 ], [ -108.96967, 25.78897 ], [ -108.96986, 25.78916 ], [ -108.97184, 25.79027 ], [ -108.97413, 25.79158 ], [ -108.9752, 25.78996 ], [ -108.97643, 25.79067 ], [ -108.97369, 25.7947 ], [ -108.97634, 25.79618 ], [ -108.98216, 25.79944 ], [ -108.98513, 25.7951 ], [ -108.98803, 25.79084 ], [ -108.98959, 25.78864 ], [ -108.99384, 25.79103 ], [ -108.99445, 25.79012 ] ] } },
{ "type": "Feature", "properties": { "ciudad_nombre": "Los Mochis", "encodedLine": "qnl|CnvfxSnFiLvOrJuBtEmHwE}T_NeRaLeQqKqCeBaBxDmHyEoVeOa@fA[t@gOrZgMdXuLtWgAdC|IhFfG|DeFrKeNqIeB_ArBeEd@s@z@}C\\\\aAbHyNjVyh@hCqFhFyKrAwBnJ|FhQxKnCxA|@JbJnF`QzKxP`KxD`C", "data.route.shortName": "- Zaragoza", "data.route.longName": "Teresita_- Zaragoza", "slug": "ruta-teresita-zaragoza.56n", "type": "Bus", "color": null, "trips": [ ], "shape_id": "shape_3791" }, "geometry": { "type": "LineString", "coordinates": [ [ -108.9932, 25.79193 ], [ -108.99107, 25.79073 ], [ -108.99293, 25.78805 ], [ -108.994, 25.78864 ], [ -108.99292, 25.79015 ], [ -108.99052, 25.79366 ], [ -108.98843, 25.79673 ], [ -108.98642, 25.79964 ], [ -108.98591, 25.80037 ], [ -108.98684, 25.80086 ], [ -108.98575, 25.80237 ], [ -108.98316, 25.80613 ], [ -108.98352, 25.8063 ], [ -108.98379, 25.80644 ], [ -108.98821, 25.80904 ], [ -108.99224, 25.81132 ], [ -108.99619, 25.81351 ], [ -108.99686, 25.81387 ], [ -108.99803, 25.81212 ], [ -108.99898, 25.8108 ], [ -109.001, 25.81195 ], [ -108.99931, 25.81438 ], [ -108.99899, 25.81489 ], [ -108.998, 25.81431 ], [ -108.99774, 25.81412 ], [ -108.99695, 25.81382 ], [ -108.99662, 25.81367 ], [ -108.99409, 25.81221 ], [ -108.9874, 25.80847 ], [ -108.98619, 25.80778 ], [ -108.98414, 25.80661 ], [ -108.98354, 25.80619 ], [ -108.98481, 25.80435 ], [ -108.98686, 25.80142 ], [ -108.98731, 25.8007 ], [ -108.98737, 25.80039 ], [ -108.98857, 25.79861 ], [ -108.99063, 25.79572 ], [ -108.99256, 25.79287 ], [ -108.99321, 25.79194 ] ] } }
]
}
