{
"type": "FeatureCollection",
"name": "los_mochis",
"crs": { "type": "name", "properties": { "name": "urn:ogc:def:crs:EPSG::32614" } },
"features": [
{ "type": "Feature", "properties": { "route_name": "Álamos_Country - 12 de Octubre", "route_name_short": "Country - 12 de Octubre", "route_type": 3 }, "geometry": { "type": "LineString", "coordinates": [ [ -505389.621045274659991, 2890556.743084084708244 ], [ -505797.429454457713291, 2890854.546607002615929 ], [ -505986.78850079420954, 2890602.553626951761544 ], [ -506059.974242059863172, 2890497.961491772439331 ], [ -506152.8385657267645, 2890375.761670478619635 ], [ -506256.186798808164895, 2890236.373147788457572 ], [ -506459.594463852699846, 2889960.717356194276363 ], [ -506626.773095017764717, 2889719.392090864479542 ], [ -506713.737456285976805, 2889793.543161561712623 ], [ -506934.808886441402137, 2889951.091064788401127 ], [ -507016.383771829772741, 2890015.834713434800506 ], [ -507195.39664058398921, 2889766.424373859539628 ], [ -507459.612180455820635, 2889958.786001143511385 ], [ -507635.163211574079469, 2890085.861520468257368 ], [ -507643.9484074144857, 2890077.539597718976438 ], [ -507754.102021164726466, 2890154.607243146281689 ], [ -507907.921706531662494, 2889954.998435433488339 ], [ -508180.018404284957796, 2889581.164729275740683 ], [ -508260.657574493903667, 2889472.64979890640825 ], [ -508574.676045563421212, 2889705.979063925798982 ], [ -508704.799595407908782, 2889801.460896803531796 ], [ -508613.756101650884375, 2889926.043677882291377 ], [ -508370.477292256313376, 2890255.976813454646617 ], [ -508209.514202608843334, 2890137.882256528828293 ], [ -508002.777597324806266, 2889992.654701296240091 ], [ -507926.105223694816232, 2890102.598770857788622 ], [ -507842.844842051737942, 2890218.784225835930556 ], [ -507643.365740466397256, 2890071.871688469778746 ], [ -507629.709904871764593, 2890064.074565075337887 ], [ -507557.434107381501235, 2890169.858670142944902 ], [ -507438.60861475171987, 2890324.92318005207926 ], [ -507525.755723874317482, 2890383.352267172187567 ], [ -507565.022446625167504, 2890415.610039441846311 ], [ -507467.233512575854547, 2890548.673254375346005 ], [ -507295.836838762974367, 2890778.42066385736689 ], [ -507258.225752600003034, 2890830.636908523272723 ], [ -507136.036761917173862, 2890738.02734346780926 ], [ -507011.128011183114722, 2890906.119752434082329 ], [ -506856.967784231412224, 2891123.6969058313407 ], [ -506577.15726912568789, 2891505.935389179736376 ], [ -506397.927291757543571, 2891745.203206816222519 ], [ -506166.292940933839418, 2891566.599973077885807 ], [ -505703.401494640973397, 2891230.808759319595993 ], [ -505288.453870516968891, 2890920.086246238090098 ], [ -505178.217068493599072, 2890844.159507351927459 ], [ -505324.384370237472467, 2890650.700651337392628 ], [ -505387.596760176471435, 2890556.587841908913106 ] ] } },
{ "type": "Feature", "properties": { "route_name": "Bachomo_- Valle Bonito - 10 de Mayo", "route_name_short": "- Valle Bonito - 10 de Mayo", "route_type": 3 }, "geometry": { "type": "LineString", "coordinates": [ [ -506717.947363349841908, 2893595.020441543776542 ], [ -506916.872466848581098, 2893324.663467069156468 ], [ -506814.093244803603739, 2893244.786134249530733 ], [ -506620.484092984348536, 2893101.698205541819334 ], [ -506382.639501634519547, 2892924.851653849240392 ], [ -506207.391012202017009, 2892794.430043282918632 ], [ -506187.427479122881778, 2892776.027645071502775 ], [ -506099.714438307681121, 2892897.492754650302231 ], [ -505850.701299925451167, 2893237.107549289707094 ], [ -505768.549721954972483, 2893180.192144110798836 ], [ -505901.802742380066775, 2892995.874204343184829 ], [ -506019.173585202195682, 2892832.827981704380363 ], [ -506153.014794726390392, 2892654.178009085357189 ], [ -506186.055430514505133, 2892608.358687966130674 ], [ -506221.960515046259388, 2892565.00856735277921 ], [ -506250.609967557131313, 2892523.350290758535266 ], [ -506118.662112259189598, 2892425.497846310026944 ], [ -506267.141066878917627, 2892215.358121459372342 ], [ -506329.415246307966299, 2892133.547865592408925 ], [ -506260.908952136291191, 2892084.427243294660002 ], [ -505942.985591752221808, 2891849.718205641023815 ], [ -505705.7757470238721, 2891677.443795196712017 ], [ -505373.425816430593841, 2891431.528048735577613 ], [ -505590.493027533288114, 2891136.67866134410724 ], [ -505734.299582311999984, 2890947.539994888473302 ], [ -505702.941056704847142, 2890931.639192942529917 ], [ -505569.529266867320985, 2890839.311033078003675 ], [ -505311.312368768150918, 2890648.573643480427563 ], [ -505112.927515105577186, 2890500.665614700876176 ], [ -505231.803037336794659, 2890344.471762425731868 ], [ -505294.843559720087796, 2890252.594224612694234 ], [ -505190.329656379530206, 2890181.606735737062991 ], [ -505099.998523784219287, 2890310.751400609966367 ], [ -505079.722868532757275, 2890336.186044072732329 ], [ -505284.012605961994268, 2890486.794252647552639 ], [ -505179.665993354516104, 2890626.108766591176391 ], [ -505142.57970207137987, 2890671.620571572799236 ], [ -505348.972204853198491, 2890821.268971677869558 ], [ -505216.32213504507672, 2890997.7709478312172 ], [ -505064.909614451578818, 2891206.57040137052536 ], [ -505360.526149835321121, 2891427.164787888061255 ], [ -505625.292154344380833, 2891625.159957970026881 ], [ -505998.423134263255633, 2891896.708283458370715 ], [ -506322.073331062914804, 2892136.357715158257633 ], [ -506245.097144045052119, 2892237.281367795076221 ], [ -506176.733300572028384, 2892332.118956469930708 ], [ -506110.394265449605882, 2892427.112031754571944 ], [ -506240.146350288880058, 2892527.044891055673361 ], [ -506214.618837341316976, 2892567.818391741253436 ], [ -506175.248406570521183, 2892616.525274578947574 ], [ -506136.546725060790777, 2892669.781872783321887 ], [ -506061.769174816319719, 2892768.624649262521416 ], [ -505986.992537928046659, 2892867.467489607166499 ], [ -505898.012473315582611, 2892992.20936409663409 ], [ -505984.8816824327223, 2893053.985954026691616 ], [ -505881.372764094616286, 2893195.604756779037416 ], [ -505840.391645108815283, 2893252.059798463713378 ], [ -505867.198913567001, 2893260.866262931376696 ], [ -505945.782346499734558, 2893152.195055332500488 ], [ -506083.840821093530394, 2892971.620639775879681 ], [ -506204.765849114395678, 2892802.100500251632184 ], [ -506466.883002167684026, 2892994.302438614889979 ], [ -506819.391492086462677, 2893255.314962594304234 ], [ -506885.778986870893277, 2893305.403541989158839 ], [ -506939.870159822748974, 2893343.301000371109694 ], [ -507064.481234720326029, 2893430.481940464116633 ], [ -507320.934691575355828, 2893616.65185764292255 ], [ -507441.731319826794788, 2893713.666604568250477 ], [ -507240.684589655953459, 2893984.979711872525513 ], [ -507109.685378524125554, 2893888.306065088137984 ], [ -506948.948276260402054, 2893767.979675778653473 ], [ -506844.732029400067404, 2893693.6130889528431 ], [ -506717.947363349841908, 2893595.020441543776542 ] ] } },
{ "type": "Feature", "properties": { "route_name": "Burócrata_- Plaza Sendero", "route_name_short": "- Plaza Sendero", "route_type": 3 }, "geometry": { "type": "LineString", "coordinates": [ [ -507583.511650800472125, 2885080.729812622535974 ], [ -507442.686535381246358, 2885270.1100117219612 ], [ -507050.055395830189809, 2885807.925334255211055 ], [ -506737.495573680032976, 2886231.548132105730474 ], [ -506417.864528515492566, 2886654.628638890106231 ], [ -506091.988470655633137, 2887092.974279969930649 ], [ -505844.294754851376638, 2887428.228819207288325 ], [ -505685.598525655339472, 2887638.7300526779145 ], [ -505432.688325425609946, 2887975.833762978203595 ], [ -505221.113637031521648, 2888252.005339249968529 ], [ -505037.694887719699182, 2888479.729727267753333 ], [ -504934.700983820366673, 2888614.65591771248728 ], [ -504868.725475942366756, 2888691.693043165840209 ], [ -504795.065387071575969, 2888776.013301420025527 ], [ -504705.164376971195452, 2888899.572549074422568 ], [ -504623.463461617240682, 2889009.141015196219087 ], [ -504823.990760446991771, 2889156.069661947898567 ], [ -504940.561551718856208, 2889242.592733497731388 ], [ -504832.751296260510571, 2889387.269005416892469 ], [ -504656.588506231899373, 2889626.791593912988901 ], [ -504960.181425698334351, 2889850.219467781484127 ], [ -505276.409310873830691, 2890081.374274871777743 ], [ -505573.482039824011736, 2890309.947264061775059 ], [ -505449.695215945597738, 2890477.008763528894633 ], [ -505387.339547791867517, 2890559.941772270947695 ], [ -505487.45758449670393, 2890635.09353373432532 ], [ -505421.208017342607491, 2890728.97309992229566 ], [ -505203.354094254900701, 2890569.448719149921089 ], [ -505112.756090989103541, 2890502.901556863915175 ], [ -505295.770004371297546, 2890253.789806103333831 ], [ -505189.403197266859934, 2890180.411166381556541 ], [ -505088.353320552152582, 2890104.067781448364258 ], [ -505303.978925405768678, 2889814.721316052600741 ], [ -505365.580051900004037, 2889728.355461321305484 ], [ -505052.12124821357429, 2889500.787455518264323 ], [ -504956.794720047386363, 2889429.384326259139925 ], [ -505042.889868573867716, 2889315.65618234500289 ], [ -504850.464738498907536, 2889169.343003993853927 ], [ -504714.589934568968602, 2889068.972865174990147 ], [ -504638.56150205375161, 2889011.421831646934152 ], [ -504781.60331446537748, 2888818.838685713242739 ], [ -504895.72968050010968, 2888684.765207678545266 ], [ -504963.815613233949989, 2888606.765262295026332 ], [ -505104.583427848294377, 2888417.381533562671393 ], [ -505147.67563848674763, 2888359.957707905676216 ], [ -505327.897471586591564, 2888492.966214555781335 ], [ -505343.097654544282705, 2888480.636389829684049 ], [ -505344.623935332405381, 2888474.00608466938138 ], [ -505301.89702046115417, 2888433.622447166591883 ], [ -505505.202853866503574, 2888159.067909551318735 ], [ -505757.273205930483527, 2887819.652507735881954 ], [ -505924.085034724907018, 2887596.279653636738658 ], [ -506123.860285048140213, 2887328.201573995407671 ], [ -506233.462057092343457, 2887187.03511977661401 ], [ -506105.235738328658044, 2887092.864953089039773 ], [ -506384.031094311736524, 2886724.007936475332826 ], [ -506697.670836436795071, 2886299.343783362302929 ], [ -506958.492507603717968, 2885952.724818024784327 ], [ -507240.637756186770275, 2885567.255326720885932 ], [ -507536.319316340377554, 2885164.8299340903759 ], [ -507593.037708894698881, 2885089.332579337060452 ], [ -507582.756242468254641, 2885077.298067623749375 ] ] } },
{ "type": "Feature", "properties": { "route_name": "Campos_1 - Álamos Country", "route_name_short": "1 - Álamos Country", "route_type": 3 }, "geometry": { "type": "LineString", "coordinates": [ [ -505422.04865474300459, 2890731.286682484671474 ], [ -505346.107327716308646, 2890818.800147074274719 ], [ -505279.859308001818135, 2890912.679803957697004 ], [ -505175.437910781474784, 2890840.57275619590655 ], [ -505383.548190214671195, 2890556.277358525898308 ], [ -505612.277665302157402, 2890720.013326253276318 ], [ -505797.257889188709669, 2890856.782577078323811 ], [ -505973.012656174483709, 2890622.863399202469736 ], [ -506072.394950613030232, 2890482.046018401626498 ], [ -506144.054792013019323, 2890384.084207987878472 ], [ -506186.052605119417422, 2890327.704589053522795 ], [ -506221.736329025356099, 2890327.069365890696645 ], [ -506255.411631302209571, 2890379.135385127738118 ], [ -506301.490142412832938, 2890428.77985184872523 ], [ -506404.815351798431948, 2890501.93693971214816 ], [ -506825.001398891676217, 2890810.851065665949136 ], [ -507000.368239887640812, 2890940.156025604810566 ], [ -507110.228875219356269, 2890795.649047058541328 ], [ -507148.593739346717484, 2890746.864347601309419 ], [ -507352.692899848101661, 2890899.750080439727753 ], [ -507440.424787496216595, 2890778.285349101293832 ], [ -507351.103491668007337, 2890708.44256439851597 ], [ -507487.944594112690538, 2890517.65074679767713 ], [ -507567.218700234196149, 2890413.529567896388471 ], [ -507450.153814731747843, 2890333.682628555223346 ], [ -507618.003695884603076, 2890110.409326468594372 ], [ -507645.046557645662688, 2890076.499357532709837 ], [ -507842.844842051737942, 2890218.784225835930556 ], [ -507926.448979367036372, 2890098.126647447235882 ], [ -508002.777597324806266, 2889992.654701296240091 ], [ -508205.723112459876575, 2890134.216826019342989 ], [ -508455.082998652826063, 2890320.965726344380528 ], [ -508570.887102464213967, 2890165.672806660179049 ], [ -508486.10834269633051, 2890102.919390045106411 ], [ -508616.964902243344113, 2889924.041156257502735 ], [ -508705.811879578046501, 2889801.538757252506912 ], [ -508424.496201825444587, 2889593.212007613386959 ], [ -508340.466670994646847, 2889533.892918013501912 ], [ -508249.684806425706483, 2889655.123528730589896 ], [ -508169.704619129421189, 2889596.116919258609414 ], [ -508085.514192192000337, 2889711.106699823401868 ], [ -507933.027078204322606, 2889919.815074972808361 ], [ -507759.506891624885611, 2890150.524111220613122 ], [ -507609.56976883939933, 2890047.906819202937186 ], [ -507390.374929356155917, 2889879.242132435552776 ], [ -507202.261055231792852, 2889743.334748954046518 ], [ -507113.020453881239519, 2889857.938915769569576 ], [ -507015.990619128802791, 2889994.437021468766034 ], [ -506838.410981890629046, 2889867.216563616879284 ], [ -506690.748785070260055, 2889761.414416313171387 ], [ -506667.313298380118795, 2889748.369529229588807 ], [ -506621.471991157741286, 2889708.863878326956183 ], [ -506528.171404937631451, 2889836.653313261922449 ], [ -506374.103227986604907, 2890053.119349662680179 ], [ -506244.040530694415793, 2890235.440985841676593 ], [ -506177.543562381411903, 2890319.17953918594867 ], [ -506076.066700350726023, 2890447.46595844021067 ], [ -505929.78141994215548, 2890655.53235426126048 ], [ -505762.039008691557683, 2890891.190967902075499 ], [ -505719.28933149331715, 2890944.13917113468051 ], [ -505677.569433558965102, 2890917.322385850828141 ], [ -505422.220147296902724, 2890729.050727884285152 ] ] } },
{ "type": "Feature", "properties": { "route_name": "Campos_3 - Obregón - Morelos", "route_name_short": "3 - Obregón - Morelos", "route_type": 3 }, "geometry": { "type": "LineString", "coordinates": [ [ -504903.082601252943277, 2886114.668875752482563 ], [ -504755.55114367918577, 2886312.540377904661 ], [ -504631.750987541978247, 2886493.110813709441572 ], [ -504430.313491011387669, 2886770.071568461600691 ], [ -504237.580451291287318, 2887039.826533266343176 ], [ -504084.219960647285916, 2887260.86622245516628 ], [ -504003.363514510099776, 2887372.753309176769108 ], [ -504187.07300015212968, 2887500.380725791212171 ], [ -504327.433935499866493, 2887608.951867936179042 ], [ -504296.493524675490335, 2887667.307511839549989 ], [ -504287.952869543689303, 2887685.770539105404168 ], [ -504345.370987181784585, 2887720.525927590671927 ], [ -504398.311733080539852, 2887760.561562037561089 ], [ -504598.280858937068842, 2887901.812412258703262 ], [ -504767.121068794280291, 2888037.31091344030574 ], [ -504985.103213120019063, 2888209.187810711096972 ], [ -505021.929080284200609, 2888246.86872104043141 ], [ -505051.497291129198857, 2888286.242978018242866 ], [ -505116.566393971210346, 2888340.706619191449136 ], [ -505119.245395815465599, 2888358.904381461907178 ], [ -505117.618235968984663, 2888380.145885139238089 ], [ -505047.918834408512339, 2888465.893969252705574 ], [ -505262.954115769127384, 2888622.935042320750654 ], [ -505350.960428152931854, 2888683.656584075186402 ], [ -505244.739099539117888, 2888834.077428597956896 ], [ -505168.52196071727667, 2888938.442113246768713 ], [ -505469.095396457822062, 2889161.646426715888083 ], [ -505276.946226424304768, 2889423.556600808631629 ], [ -505084.546112636802718, 2889688.821037738118321 ], [ -504960.010071959346533, 2889852.455405153334141 ], [ -505272.532026705215685, 2890078.827923564705998 ], [ -505176.983759028255008, 2890196.32720565982163 ], [ -505079.55146128765773, 2890338.421985253226012 ], [ -505282.074041229556315, 2890485.521055744960904 ], [ -505488.641220783465542, 2890632.935206876602024 ], [ -505423.318023590836674, 2890728.010378601029515 ], [ -505209.084025421878323, 2890574.386254582088441 ], [ -505008.67289097700268, 2890426.325312442611903 ], [ -504603.790071794297546, 2890129.906695117708296 ], [ -504295.399113290361129, 2889902.74529768852517 ], [ -504363.749815457151271, 2889807.898534892126918 ], [ -504464.718974589952268, 2889885.352273641619831 ], [ -504485.078992435825057, 2889858.79890430578962 ], [ -504281.442076548119076, 2889712.758452157489955 ], [ -504417.802151991287246, 2889527.536108038853854 ], [ -504623.531501209829003, 2889247.544534923043102 ], [ -504831.634889923036098, 2888963.236574767623097 ], [ -504814.286032435367815, 2888937.168098952621222 ], [ -504801.429586421581917, 2888892.326839929446578 ], [ -504803.671269613667391, 2888849.766575581859797 ], [ -504813.154725482221693, 2888819.006236955523491 ], [ -504837.923110453528352, 2888774.797783934976906 ], [ -504911.170721073867753, 2888682.574350350536406 ], [ -504905.696488329558633, 2888674.283345486503094 ], [ -505090.723012027563527, 2888438.810456371866167 ], [ -505165.671069869538769, 2888337.721006928943098 ], [ -505019.592365950578824, 2888224.199142850004137 ], [ -504873.611995705054142, 2888096.068585560191423 ], [ -504675.344981590518728, 2887945.945458207279444 ], [ -504469.816462122718804, 2887797.520311287604272 ], [ -504391.924184953677468, 2887737.582582878414541 ], [ -504299.516328228404745, 2887681.03285922948271 ], [ -504334.605901663191617, 2887608.376166889909655 ], [ -504232.686177694471553, 2887529.734027423895895 ], [ -504010.62102851679083, 2887371.059445200953633 ], [ -504078.046449909452349, 2887275.012430149596184 ], [ -504242.043748443480581, 2887048.039453412406147 ], [ -504441.540557442582212, 2887009.325590420980006 ], [ -504452.676903415005654, 2887010.177644103299826 ], [ -504472.910739137441851, 2887025.219863127917051 ], [ -504645.130762596148998, 2886770.764244655612856 ], [ -504877.588851451757364, 2886447.824440658092499 ], [ -505042.205754631315358, 2886213.027820766437799 ], [ -504902.241214812267572, 2886112.355458911973983 ] ] } },
{ "type": "Feature", "properties": { "route_name": "Castro_- Belisario - Chamizal", "route_name_short": "- Belisario - Chamizal", "route_type": 3 }, "geometry": { "type": "LineString", "coordinates": [ [ -505403.738738614250906, 2890531.961070023477077 ], [ -505219.917793421540409, 2890406.535057710018009 ], [ -505126.710419586277567, 2890334.165482577867806 ], [ -505040.07302965130657, 2890269.047818475402892 ], [ -504911.540050329756923, 2890179.353823562152684 ], [ -504739.101679496699944, 2890051.436984469182789 ], [ -504606.189446455333382, 2889952.41584067652002 ], [ -504281.356462385389023, 2889713.876406746450812 ], [ -504454.302350682672113, 2889476.354779854882509 ], [ -504529.499090318218805, 2889371.911282908171415 ], [ -504393.711602261872031, 2889270.426557353697717 ], [ -504100.888987752143294, 2889052.343230057507753 ], [ -503890.575988075812347, 2888900.182162372861058 ], [ -503721.988902451354079, 2888774.832951113115996 ], [ -503468.59682732494548, 2888586.776386043056846 ], [ -503342.476350106415339, 2888505.164211777970195 ], [ -503244.013865520828404, 2888434.664415988139808 ], [ -503217.636774976970628, 2888406.784732573665679 ], [ -503193.310975790838711, 2888352.074736688751727 ], [ -503114.863794617471285, 2888086.325538218487054 ], [ -503005.962186128483154, 2887726.044975181110203 ], [ -502977.524228898109868, 2887645.159529741853476 ], [ -502950.486705320421606, 2887599.239498884882778 ], [ -502906.666709631332196, 2887546.414929243270308 ], [ -502846.380313435336575, 2887509.199312582612038 ], [ -502748.577614039648324, 2887443.255533467978239 ], [ -502664.344795353361405, 2887572.878806899301708 ], [ -502587.797074667643756, 2887695.217961388640106 ], [ -502578.563466736231931, 2887736.117061223369092 ], [ -502536.484608652070165, 2887807.115902679041028 ], [ -502493.0521898441948, 2887882.509082429576665 ], [ -502461.548698871978559, 2887921.706887719687074 ], [ -502425.202729741111398, 2887997.641342926770449 ], [ -502394.139067528536543, 2888017.757243047934026 ], [ -502343.024171158787794, 2888100.434561262838542 ], [ -502293.921772761037573, 2888196.758813906926662 ], [ -502301.653229121002369, 2888228.833650089334697 ], [ -502325.40973345679231, 2888264.381533164065331 ], [ -502289.797894783667289, 2888277.403312884271145 ], [ -502279.577580367098562, 2888291.240294043906033 ], [ -502282.843141777906567, 2888408.431270783301443 ], [ -502281.853452234761789, 2888474.69751468161121 ], [ -502538.64379505335819, 2888471.82820493914187 ], [ -502570.522732226061635, 2888481.010883035603911 ], [ -502631.559677446144633, 2888521.657584676519036 ], [ -502725.97376563353464, 2888591.842554099857807 ], [ -502867.507769990945235, 2888698.239803888835013 ], [ -503158.838377254432999, 2888909.424436900299042 ], [ -503383.626064029638655, 2888606.14056028239429 ], [ -503412.35223819327075, 2888563.358488699886948 ], [ -503580.017495177336968, 2888687.506563328206539 ], [ -503894.097189872874878, 2888920.692533881869167 ], [ -504077.351036139996722, 2889053.914987315423787 ], [ -503952.315484762075357, 2889224.264268525410444 ], [ -503822.977048641536385, 2889397.657653402537107 ], [ -504085.954468275886029, 2889593.210400453303009 ], [ -504135.677769013214856, 2889635.250641688238829 ], [ -504167.025363711407408, 2889664.639059965498745 ], [ -504465.81678214261774, 2889884.311847865115851 ], [ -504331.138856713660061, 2890074.15964888362214 ], [ -504537.376354993553832, 2890226.025320959743112 ], [ -504848.620490180910565, 2890455.664831096772105 ], [ -505253.659128869418055, 2890749.8600346702151 ], [ -505551.140619894023985, 2890972.847486089449376 ], [ -505648.903931725188158, 2891038.825005948077887 ], [ -505572.189414207357913, 2891136.398931517731398 ], [ -505708.033044904004782, 2891236.7869858071208 ], [ -505786.152194458059967, 2891293.387241730466485 ], [ -505938.42618650989607, 2891405.161058994010091 ], [ -506079.99411427450832, 2891510.492820543702692 ], [ -506406.349047172581777, 2891754.846747978590429 ], [ -506750.719785869820043, 2892016.342178769875318 ], [ -507080.260520693380386, 2892258.71809198660776 ], [ -507324.083753107581288, 2892450.655080392491072 ], [ -507224.689090601634234, 2892591.462855119723827 ], [ -507134.165866159484722, 2892722.831088097766042 ], [ -507239.813777728937566, 2892805.179658741690218 ], [ -507278.316879929276183, 2892834.006895109079778 ], [ -507206.564693845575675, 2892933.079211240168661 ], [ -507095.525014374405146, 2893079.738393717911094 ], [ -506946.622135163401254, 2893281.966289433650672 ], [ -506766.036056234384887, 2893525.618004648946226 ], [ -506643.939617781783454, 2893683.797739685513079 ], [ -506555.383142685866915, 2893802.945542500820011 ], [ -506458.627336543286219, 2893936.082840967457741 ], [ -506312.365436302032322, 2894130.641308160498738 ], [ -506228.290974748670124, 2894244.510576963424683 ], [ -506231.908802626654506, 2894250.411640989594162 ], [ -506349.281287155696191, 2894087.370471828617156 ], [ -506582.915811064536683, 2893775.822447850834578 ], [ -506850.786077825468965, 2893416.299023611005396 ], [ -507022.743394710239954, 2893192.226928315125406 ], [ -507240.019926846958697, 2892895.165447354782373 ], [ -507286.670911342604086, 2892831.275456856470555 ], [ -507152.210257574799471, 2892726.467723316978663 ], [ -507348.544737945543602, 2892450.286730614490807 ], [ -507142.367562843603082, 2892298.355516191571951 ], [ -506884.456361741642468, 2892104.216768140904605 ], [ -506652.232279166462831, 2891933.42685332428664 ], [ -506378.88786457455717, 2891727.996690100058913 ], [ -506125.845482351607643, 2891536.504571875091642 ], [ -505740.231198706082068, 2891255.001673093065619 ], [ -505581.555653913295828, 2891133.743842900730669 ], [ -505488.510598448337987, 2891072.626813919749111 ], [ -505343.228876489796676, 2890962.522015000227839 ], [ -505173.327951788436621, 2890841.535505151841789 ], [ -505289.750381829799153, 2890690.777554542291909 ], [ -505404.92235950473696, 2890529.802737339399755 ] ] } },
{ "type": "Feature", "properties": { "route_name": "Castro_- Toledo - Chamizal", "route_name_short": "- Toledo - Chamizal", "route_type": 3 }, "geometry": { "type": "LineString", "coordinates": [ [ -505588.125725151970983, 2891140.995280092582107 ], [ -505388.825763336732052, 2890991.884059851057827 ], [ -505176.535754932556301, 2890839.532395808026195 ], [ -505404.579407317796722, 2890534.274646076373756 ], [ -505196.911932199262083, 2890387.902985358610749 ], [ -504845.968947201035917, 2890131.59623826527968 ], [ -504483.724272119347006, 2889863.193205630872399 ], [ -504140.511897254851647, 2889612.006157695315778 ], [ -503914.957139036851004, 2889446.304271082859486 ], [ -503835.137961834669113, 2889385.094484784640372 ], [ -504067.299684800906107, 2889065.515116482507437 ], [ -504092.206817432655953, 2889046.056125814560801 ], [ -503985.910183370113373, 2888971.574531588703394 ], [ -503516.814936982118525, 2888621.949933796189725 ], [ -503292.061994551215321, 2888472.072644701227546 ], [ -503235.416464722016826, 2888427.260202151257545 ], [ -503210.820898082456551, 2888389.396540729794651 ], [ -503182.886749674798921, 2888315.294741915073246 ], [ -503112.339713284978643, 2888079.385798441246152 ], [ -503010.925308059668168, 2887741.042262536939234 ], [ -502980.646588990464807, 2887644.27368310187012 ], [ -502940.376404396491125, 2887584.97342048631981 ], [ -502884.323099453817122, 2887532.338624780066311 ], [ -502804.986038150498644, 2887477.925292631145567 ], [ -502746.467569953179918, 2887444.218782570678741 ], [ -502623.619194351718761, 2887639.483330467715859 ], [ -502587.113866312312894, 2887704.161333505995572 ], [ -502553.047840065788478, 2887776.896761666052043 ], [ -502500.065256668487564, 2887870.67594490526244 ], [ -502482.160819211276248, 2887891.797066555358469 ], [ -502423.092796792392619, 2887998.604607287794352 ], [ -502396.505180510459468, 2888013.440224429126829 ], [ -502340.743474529008381, 2888103.633663123007864 ], [ -502303.983810276607983, 2888171.665344689507037 ], [ -502296.775261925999075, 2888212.718907676637173 ], [ -502308.897250205394812, 2888240.631385862827301 ], [ -502325.49513126059901, 2888263.263617848977447 ], [ -502286.76116647478193, 2888277.171343741472811 ], [ -502279.662975166807882, 2888290.122379723936319 ], [ -502281.343618044164032, 2888388.076837770175189 ], [ -502283.792505349498242, 2888475.970083931926638 ], [ -502538.64379505335819, 2888471.82820493914187 ], [ -502579.291130544501357, 2888486.178718434181064 ], [ -502726.23009494622238, 2888588.488784142769873 ], [ -502767.278006143402308, 2888624.235349077731371 ], [ -503159.679610428167507, 2888911.737707495223731 ], [ -503412.095735581242479, 2888566.712301976513118 ], [ -503525.811822185874917, 2888650.750139876734465 ], [ -503954.702153924503364, 2888966.937028358224779 ], [ -504271.222499002586119, 2889194.701397028751671 ], [ -504410.974698180565611, 2889297.612323109526187 ], [ -504531.437893132911995, 2889373.184292711317539 ], [ -504730.517856295453385, 2889525.625333774834871 ], [ -504657.600702936411835, 2889626.869134879671037 ], [ -504964.985328280832618, 2889853.961225786712021 ], [ -505164.310363735421561, 2890003.058852728456259 ], [ -505269.495496222167276, 2890078.595123513136059 ], [ -505176.640930190798827, 2890200.799096893984824 ], [ -505071.78077368857339, 2890346.82260953867808 ], [ -504940.145938555127941, 2890523.405211011413485 ], [ -505274.725578568759374, 2890767.219231385737658 ], [ -505453.050404932815582, 2890897.849547300953418 ], [ -505649.658714291988872, 2891042.256604464258999 ], [ -505573.115743158035912, 2891137.594561360310763 ], [ -505877.839410261716694, 2891358.901576970238239 ], [ -506107.885458909673616, 2891531.751959969289601 ], [ -506401.717998447129503, 2891748.868114711716771 ], [ -506560.962832940975204, 2891875.808360258117318 ], [ -506770.101990027120337, 2892029.077507098205388 ], [ -506938.964594061835669, 2892150.016419901512563 ], [ -507161.061499384813942, 2892320.035769780166447 ], [ -507204.025133346905932, 2892357.077376772649586 ], [ -507325.009828745853156, 2892451.850914717186242 ], [ -507210.911434324807487, 2892611.771322102751583 ], [ -507136.103940137196332, 2892724.104721314273775 ], [ -507281.52487094886601, 2892832.004343218170106 ], [ -507160.430152135086246, 2892990.261178266257048 ], [ -507072.620232460438274, 2893112.840351415332407 ], [ -506859.331098691443913, 2893397.837599347811192 ], [ -506672.33219221397303, 2893645.494691776111722 ], [ -506502.904704138753004, 2893876.508888396434486 ], [ -506343.209938835352659, 2894086.903769378084689 ], [ -506226.181287634884939, 2894245.473009955603629 ], [ -506231.99473808449693, 2894249.293651098385453 ], [ -506392.460014123353176, 2894028.836681298911572 ], [ -506636.664720995351672, 2893698.982947654556483 ], [ -506822.306717936997302, 2893455.72001586901024 ], [ -507037.876372422673739, 2893167.524330479092896 ], [ -507213.820663124322891, 2892931.387942671310157 ], [ -507288.522981686051935, 2892833.667136263567954 ], [ -507184.813586567528546, 2892752.591647753026336 ], [ -507153.050350300967693, 2892728.781558380462229 ], [ -507347.704633097047918, 2892447.97287832852453 ], [ -507041.430414419271983, 2892220.870259176008403 ], [ -506700.516417143051513, 2891967.500719020608813 ], [ -506202.02319576498121, 2891591.835034491959959 ], [ -505825.263207146781497, 2891314.381884096190333 ], [ -505588.039950678590685, 2891142.113260366022587 ] ] } },
{ "type": "Feature", "properties": { "route_name": "Cedros_- Arboledas - 21 de Marzo Oriente", "route_name_short": "- Arboledas - 21 de Marzo Oriente", "route_type": 3 }, "geometry": { "type": "LineString", "coordinates": [ [ -509337.405083558172919, 2890896.091492012143135 ], [ -509314.578229514299892, 2890928.07454156735912 ], [ -509299.053531739278696, 2890984.238247607368976 ], [ -509276.918281354010105, 2891060.137296741362661 ], [ -509243.948895825189538, 2891104.835586623754352 ], [ -509321.976532340166159, 2891162.579302227124572 ], [ -509219.105950306169689, 2891295.243969361297786 ], [ -509148.451733377878554, 2891379.778457897715271 ], [ -509014.382064481265843, 2891560.651634913869202 ], [ -508994.937335281050764, 2891588.39620191603899 ], [ -508875.627565179602243, 2891498.234260363038629 ], [ -508790.765372079215012, 2891608.667699159588665 ], [ -508607.67364645563066, 2891857.747012675274163 ], [ -508374.785462370258756, 2891682.371213093400002 ], [ -508283.578079323400743, 2891809.187263946980238 ], [ -508252.055845962138847, 2891848.374032428488135 ], [ -507915.359701259760186, 2891593.044469287618995 ], [ -507827.948213561438024, 2891723.527862162329257 ], [ -507657.025224025943317, 2891973.547993465326726 ], [ -507486.794987060013227, 2892214.624109292402864 ], [ -507334.05182628298644, 2892440.175301775336266 ], [ -507156.774789898656309, 2892309.584648849442601 ], [ -506866.430065264576115, 2892087.086951475124806 ], [ -506555.74923905718606, 2891864.161892822012305 ], [ -506394.480038130306639, 2891737.06631474243477 ], [ -506142.364239378483035, 2891546.769464974291623 ], [ -505900.345258085406385, 2891370.750098824966699 ], [ -505588.966278026811779, 2891143.308891911525279 ], [ -505732.01800016744528, 2890950.738630190026015 ], [ -505568.688666777452454, 2890836.997430403716862 ], [ -505517.533018502523191, 2890800.461116554681212 ], [ -505596.700813430128619, 2890697.451775425579399 ], [ -505537.652684166212566, 2890631.071678007021546 ], [ -505379.635420566657558, 2890514.368880827911198 ], [ -505194.801915212767199, 2890388.865754558239132 ], [ -505293.574238557368517, 2890255.870544038247317 ], [ -505189.488904919591732, 2890179.293193283956498 ], [ -505078.625013009412214, 2890337.226423141080886 ], [ -505487.886327244690619, 2890629.503639720845968 ], [ -505419.09801149845589, 2890729.935821478255093 ], [ -505348.886461716261692, 2890822.386947322636843 ], [ -505649.658714291988872, 2891042.256604464258999 ], [ -505574.042071917559952, 2891138.790191324427724 ], [ -505761.965147138573229, 2891276.911717958282679 ], [ -506266.809923075605184, 2891649.665235833264887 ], [ -506606.297030245419592, 2891908.53049855446443 ], [ -507030.383754255366512, 2892218.896550081670284 ], [ -507339.588695665006526, 2892460.844320240430534 ], [ -507485.055883360095322, 2892250.478538952767849 ], [ -507677.438967298250645, 2891972.868625510018319 ], [ -507887.331762659596279, 2891666.239812615327537 ], [ -507924.773272256366909, 2891616.261333709582686 ], [ -508116.295041922130622, 2891760.327884582802653 ], [ -508247.901162925059907, 2891862.674864153377712 ], [ -508376.121468717581593, 2891691.471283389721066 ], [ -508632.2676183731528, 2891882.133421390783042 ], [ -508738.350646111415699, 2891958.904447263106704 ], [ -508837.164603550103493, 2891825.927572138607502 ], [ -509100.733728006714955, 2891470.5776831144467 ], [ -509190.250904797110707, 2891352.630453656427562 ], [ -509258.257579526049085, 2891289.261205796152353 ], [ -509346.764797685667872, 2891171.236247438937426 ], [ -509253.230835388530977, 2891103.300889751408249 ], [ -509284.692386548733339, 2891051.738387481309474 ], [ -509302.995434028794989, 2890999.162694220431149 ], [ -509318.024471993674524, 2890936.212700752541423 ], [ -509344.576674698269926, 2890895.518993603531271 ], [ -509404.939183375099674, 2890812.441039385274053 ], [ -509468.252896865131333, 2890730.715007832739502 ], [ -509554.567116703256033, 2890614.769898085389286 ], [ -509549.592001673183404, 2890613.26210000552237 ], [ -509385.255671731079929, 2890830.045161202084273 ], [ -509337.3189967967337, 2890897.209551635198295 ] ] } },
{ "type": "Feature", "properties": { "route_name": "Cedros_- Virreyes - Jaramillo", "route_name_short": "- Virreyes - Jaramillo", "route_type": 3 }, "geometry": { "type": "LineString", "coordinates": [ [ -508594.351171219372191, 2891184.171830369625241 ], [ -508733.819877677946351, 2890999.212382824160159 ], [ -508624.06217532500159, 2890890.671427364461124 ], [ -508528.281497172894888, 2890798.952630470972508 ], [ -508416.972383624059148, 2890710.539204320404679 ], [ -508442.079028291278519, 2890675.356808688957244 ], [ -508552.912319517461583, 2890743.489877074025571 ], [ -508598.745663283858448, 2890783.005248294211924 ], [ -508658.500217651599087, 2890707.751602514181286 ], [ -508776.932879391591996, 2890544.790162100456655 ], [ -508909.903553828131407, 2890364.952596217859536 ], [ -509012.018596624373458, 2890228.852231086697429 ], [ -509005.362964218831621, 2890222.716700603254139 ], [ -508888.024068733677268, 2890384.637768446002156 ], [ -508728.847827940946445, 2890600.697701723314822 ], [ -508597.237369825132191, 2890776.141230209730566 ], [ -508548.453381936298683, 2890735.27421522885561 ], [ -508476.388296727207489, 2890692.616563987452537 ], [ -508439.644415608374402, 2890667.296936960425228 ], [ -508409.628937468398362, 2890713.348301976919174 ], [ -508507.885379809420556, 2890786.136922026984394 ], [ -508601.813921604072675, 2890875.463648079428822 ], [ -508725.722345291171223, 2890998.589244372211397 ], [ -508642.79894983174745, 2891110.298054614569992 ], [ -508479.41001016786322, 2891328.281438774429262 ], [ -508377.282261831220239, 2891252.944173580501229 ], [ -508284.975753090693615, 2891380.801308819558471 ], [ -508129.368482372141443, 2891590.386869529727846 ], [ -508050.931274111382663, 2891696.817859938833863 ], [ -507913.335451477323659, 2891592.888781985733658 ], [ -507617.398918076884001, 2891376.694753476884216 ], [ -507601.986996185965836, 2891418.245829067192972 ], [ -507502.930052665295079, 2891554.582829959690571 ], [ -507370.073753225966357, 2891733.306447158101946 ], [ -507293.582865945878439, 2891841.013271246571094 ], [ -507230.870817046030425, 2891928.411459301132709 ], [ -507116.018211636226624, 2892084.901881941594183 ], [ -507114.72914842038881, 2892101.672050319612026 ], [ -507116.304393141181208, 2892120.911623928695917 ], [ -507040.504295722581446, 2892219.674458392895758 ], [ -506894.319198807119392, 2892108.348553797695786 ], [ -506586.675439062993973, 2891885.655767758842558 ], [ -506373.244716128567234, 2891721.940346726682037 ], [ -506072.841541294124909, 2891497.573343314230442 ], [ -505778.82759591343347, 2891282.704024141188711 ], [ -505588.039950678590685, 2891142.113260366022587 ], [ -505728.810078878537752, 2890952.741624542977661 ], [ -505614.783450974966399, 2890873.145799577701837 ], [ -505516.52089173218701, 2890800.383479389827698 ], [ -505597.712950216024183, 2890697.529416267294437 ], [ -505524.082979429746047, 2890622.158945258241147 ], [ -505483.71676134027075, 2890590.948950891382992 ], [ -505193.206188528216444, 2890383.120686523616314 ], [ -505233.158060121699236, 2890340.077470818534493 ], [ -505293.917114879586734, 2890251.398643241729587 ], [ -505189.574612542171963, 2890178.175220183096826 ], [ -505077.869971305364743, 2890333.794920041225851 ], [ -505240.025587353738956, 2890449.685009545180947 ], [ -505285.11047761014197, 2890485.753889166284353 ], [ -505143.677549999789335, 2890670.580204893369228 ], [ -505451.369187350384891, 2890893.222367424052209 ], [ -505649.830266947392374, 2891040.020641069393605 ], [ -505574.127845080569386, 2891137.672211340628564 ], [ -505897.05155613552779, 2891373.871014934964478 ], [ -506450.671883857343346, 2891787.490363140590489 ], [ -506777.014613930252381, 2892031.857875316403806 ], [ -506902.001888780621812, 2891862.649550326634198 ], [ -507060.208820868632756, 2891645.386471938341856 ], [ -507315.113857166841626, 2891825.799081041943282 ], [ -507393.304682387504727, 2891709.225961728952825 ], [ -507492.856217194115743, 2891579.674804377835244 ], [ -507619.81427819095552, 2891398.248447224497795 ], [ -507831.412334934459068, 2891546.101236752234399 ], [ -507922.921006235410459, 2891613.869586075190455 ], [ -507966.45528508303687, 2891550.863992581609637 ], [ -508019.628516251570545, 2891587.568579207640141 ], [ -508099.831890596775338, 2891484.647092998959124 ], [ -508176.006465859245509, 2891539.991432745940983 ], [ -508311.76180958270561, 2891350.247062196955085 ], [ -508378.876502381754108, 2891258.690110829658806 ], [ -508478.721784153371118, 2891337.225766341667622 ], [ -508595.363344962825067, 2891184.249716804362833 ] ] } },
{ "type": "Feature", "properties": { "route_name": "Cedros_- Arboleda - 21 de Marzo Poniente", "route_name_short": "- Arboleda - 21 de Marzo Poniente", "route_type": 3 }, "geometry": { "type": "LineString", "coordinates": [ [ -505621.747971724835224, 2891167.190721959341317 ], [ -505588.125725151970983, 2891140.995280092582107 ], [ -505729.993759354343638, 2890950.583315043244511 ], [ -505519.643029091646895, 2890799.498411862179637 ], [ -505595.774436650797725, 2890696.256153670139611 ], [ -505537.309672794188373, 2890635.543597404379398 ], [ -505476.134099941933528, 2890583.620047023054212 ], [ -505378.794745314517058, 2890512.055308213923126 ], [ -505193.034758684108965, 2890385.356632359325886 ], [ -505243.467504742438905, 2890325.124269952531904 ], [ -505293.745676779653877, 2890253.63459364650771 ], [ -505190.672487286385149, 2890177.134843254927546 ], [ -505077.784267937997356, 2890334.912890596315265 ], [ -505284.269784373929724, 2890483.440328530501574 ], [ -505487.972075702156872, 2890628.385660909116268 ], [ -505422.134401035495102, 2890730.168705186340958 ], [ -505348.217312866006978, 2890817.837420230265707 ], [ -505550.042740213219076, 2890973.887821695301682 ], [ -505647.634491838980466, 2891042.101297580171376 ], [ -505575.225720241782255, 2891136.631881393492222 ], [ -505720.504000646411441, 2891246.740474107675254 ], [ -505913.399011143133976, 2891386.371472879778594 ], [ -506187.099487407365814, 2891587.315412898082286 ], [ -506503.072659691562876, 2891834.249834064394236 ], [ -506836.001251619658433, 2892072.3779261787422 ], [ -507201.246852015261538, 2892353.489916822407395 ], [ -507336.810473849298432, 2892457.25681265629828 ], [ -507567.640117739210837, 2892129.745946779381484 ], [ -507922.835015942691825, 2891614.987614930141717 ], [ -508117.975227535935119, 2891764.95574300782755 ], [ -508251.863585017155856, 2891864.104405774269253 ], [ -508374.011179700726643, 2891692.433557658456266 ], [ -508609.181544985505752, 2891864.611079524736851 ], [ -508738.006358604528941, 2891963.376629707869142 ], [ -509096.168556577060372, 2891476.974274543114007 ], [ -509181.550877177855, 2891359.833350336644799 ], [ -509248.717477463418618, 2891294.150028738193214 ], [ -509280.309218846727163, 2891267.340820483397692 ], [ -509346.248215438332409, 2891177.944604200311005 ], [ -509424.533397935796529, 2891232.335025374311954 ], [ -509467.412585668731481, 2891270.502878926694393 ], [ -509494.592045345110819, 2891314.209923214279115 ], [ -509516.903827568865381, 2891341.796427097637206 ], [ -509614.803274835692719, 2891207.625299412291497 ], [ -509669.072983393329196, 2891137.575412316713482 ], [ -509682.381603275658563, 2891096.986641664523631 ], [ -509695.862494548549876, 2891054.161724904086441 ], [ -509734.174599512945861, 2890993.004879530519247 ], [ -509814.310434363782406, 2890891.206303414423019 ], [ -509838.409455279586837, 2890855.947459932416677 ], [ -509851.589771051774733, 2890843.466320124920458 ], [ -509903.126774188131094, 2890795.699976032599807 ], [ -509965.562817351543345, 2890844.373603590764105 ], [ -510016.884882409707643, 2890772.9720359435305 ], [ -509826.365409430465661, 2890628.9541529356502 ], [ -509736.753113049664535, 2890748.018562368117273 ], [ -509701.022628123057075, 2890722.772583176381886 ], [ -509687.842448823386803, 2890735.253863633144647 ], [ -509805.737389363464899, 2890817.440155903808773 ], [ -509825.788511624909006, 2890834.730557056609541 ], [ -509835.80340345040895, 2890850.123184070456773 ], [ -509780.089275687816553, 2890925.68542271759361 ], [ -509706.11326484370511, 2891026.833798783365637 ], [ -509684.706916132592596, 2891066.798840800300241 ], [ -509667.56531348277349, 2891130.711076884064823 ], [ -509624.451042932807468, 2891188.123858533799648 ], [ -509516.494462968199514, 2891333.892025099135935 ], [ -509496.379261342692189, 2891304.22532101161778 ], [ -509478.116105625405908, 2891276.950716473627836 ], [ -509437.433558664983138, 2891236.702595461159945 ], [ -509328.39407442312222, 2891158.574722454883158 ], [ -509230.002577572711743, 2891285.960840133484453 ], [ -509155.041293213493191, 2891373.537735100835562 ], [ -508994.097344999900088, 2891586.082171271555126 ], [ -508873.68932023528032, 2891496.960379147902131 ], [ -508606.919696000521071, 2891854.314979518763721 ], [ -508374.785462370258756, 2891682.371213093400002 ], [ -508256.276353395893238, 2891846.44946726411581 ], [ -507912.323326614801772, 2891592.810938456095755 ], [ -507714.250386056490242, 2891891.351903922855854 ], [ -507544.944607280311175, 2892133.623806280549616 ], [ -507378.851750492118299, 2892373.893316224217415 ], [ -507334.05182628298644, 2892440.175301775336266 ], [ -507097.035701867076568, 2892265.630677022971213 ], [ -506688.88701334502548, 2891959.859608984086663 ], [ -506500.895206339890137, 2891822.836629087105393 ], [ -506174.217929615406319, 2891569.457614501938224 ], [ -505893.775464757578447, 2891363.498413637746125 ], [ -505623.686394984950311, 2891168.464012040756643 ] ] } },
{ "type": "Feature", "properties": { "route_name": "Circuito Norte_Circuito Norte", "route_name_short": "Circuito Norte", "route_type": 3 }, "geometry": { "type": "LineString", "coordinates": [ [ -505748.045561616076156, 2894348.177539359312505 ], [ -506080.108964036800899, 2893894.61988992895931 ], [ -506319.569452149909921, 2893573.395052241627127 ], [ -506508.173671298427507, 2893317.986634526401758 ], [ -506754.000014695571736, 2892980.38176207896322 ], [ -506928.239094785531051, 2892753.108751812949777 ], [ -507143.987523258081637, 2892462.674432847183198 ], [ -507333.285592156113125, 2892211.817448252346367 ], [ -507602.720640520914458, 2891845.662287907674909 ], [ -507809.641813186462969, 2891551.174857494421303 ], [ -507822.838692616322078, 2891525.198397666215897 ], [ -507595.151279657147825, 2891361.48876018030569 ], [ -507487.206674411194399, 2891282.338950938545167 ], [ -507071.678591968258843, 2890979.372793425805867 ], [ -506697.853929338627495, 2890703.246103918645531 ], [ -506424.304098796797916, 2890500.059236312285066 ], [ -506322.248529125005007, 2890423.625667755957693 ], [ -506265.465102259884588, 2890367.536595333833247 ], [ -506216.298671623808332, 2890291.79009655630216 ], [ -506193.551601249724627, 2890203.451897723134607 ], [ -506149.634031914989464, 2890046.01482169283554 ], [ -506120.674678121111356, 2889866.109985124319792 ], [ -506076.512062884867191, 2889632.184436662122607 ], [ -506220.76216333382763, 2889437.453672014176846 ], [ -506376.425034507410601, 2889226.729773479048163 ], [ -506386.924955280846916, 2889196.047108495142311 ], [ -506573.955950884264894, 2888934.874392693862319 ], [ -506820.308375906548463, 2888604.030535842292011 ], [ -506577.449823957518674, 2888438.075878185685724 ], [ -506304.677478206111118, 2888237.221310317050666 ], [ -506002.228898301604204, 2888011.609369913116097 ], [ -505624.420038779499009, 2887719.508208422921598 ], [ -505439.190662335953675, 2887970.709219825454056 ], [ -505141.017693650093861, 2888353.825005062390119 ], [ -504934.272820271900855, 2888620.245766193605959 ], [ -504827.760618343134411, 2888734.660997567232698 ], [ -504741.238401637296192, 2888853.980934781953692 ], [ -504581.301513951271772, 2889067.760619415901601 ], [ -504409.876870964071713, 2889298.652767350897193 ], [ -504229.488418242544867, 2889553.597658923827112 ], [ -504042.690031631384045, 2889812.549593449570239 ], [ -503826.928533874219283, 2890104.143400858156383 ], [ -503629.165688016219065, 2890373.500607431866229 ], [ -503419.491416787612252, 2890665.560127908363938 ], [ -503219.033289987477474, 2890943.706603578291833 ], [ -503038.010925935697742, 2891194.104043111205101 ], [ -503283.841931676142849, 2891373.72166522918269 ], [ -503443.036838111351244, 2891488.238634530454874 ], [ -503311.675321786548011, 2891674.965606017969549 ], [ -503031.671961099142209, 2892048.220750978216529 ], [ -502967.228795051574707, 2892132.120829028077424 ], [ -502992.578165654907934, 2892239.762344955001026 ], [ -502989.35069932974875, 2892335.095817887224257 ], [ -502972.640592733980156, 2892420.401172808371484 ], [ -502940.287272845045663, 2892616.956420957110822 ], [ -503095.835664483718574, 2892659.228552327491343 ], [ -503138.235295350197703, 2892677.093956055119634 ], [ -503209.350055284448899, 2892732.017923126462847 ], [ -503602.340252383961342, 2893023.008179654367268 ], [ -503978.04383189289365, 2893300.321882480289787 ], [ -504040.559733484871686, 2893347.846635831519961 ], [ -504070.094730189885013, 2893400.714557049330324 ], [ -504118.70062209572643, 2893443.799842189066112 ], [ -504445.179341870592907, 2893685.873879255261272 ], [ -504813.269951039459556, 2893955.894307844806463 ], [ -504960.790665855980478, 2894062.804284011479467 ], [ -504963.736223672400229, 2894130.503496200311929 ], [ -505001.820706929429434, 2894217.768679073546082 ], [ -505058.406343781156465, 2894342.44047685014084 ], [ -505109.023653959389776, 2894452.035436928737909 ], [ -505119.467029820661992, 2894461.83383210375905 ], [ -505133.013373961788602, 2894484.240666835103184 ], [ -505184.751603511977009, 2894512.954117470420897 ], [ -505241.720526563934982, 2894539.820449349936098 ], [ -505292.342163668130524, 2894583.06807780219242 ], [ -505306.403280004742555, 2894598.767406253144145 ], [ -505349.433831125963479, 2894581.830331163015217 ], [ -505368.781717554782517, 2894555.202272271737456 ], [ -505379.538400046643801, 2894521.166909793857485 ], [ -505374.105719099054113, 2894485.888042123522609 ], [ -505423.103243366931565, 2894484.028731622733176 ], [ -505475.700104859191924, 2894501.563778184354305 ], [ -505531.418298823293298, 2894518.214296030811965 ], [ -505609.692259759176522, 2894506.234460005071014 ], [ -505633.976433617062867, 2894508.100165884476155 ], [ -505691.249514745548368, 2894438.278385927900672 ], [ -505715.094134298618883, 2894392.878122453112155 ], [ -505748.045561616076156, 2894348.177539359312505 ] ] } },
{ "type": "Feature", "properties": { "route_name": "Circuito Sur_Circuito Sur", "route_name_short": "Circuito Sur", "route_type": 3 }, "geometry": { "type": "LineString", "coordinates": [ [ -504974.134467550436966, 2894048.08490001456812 ], [ -504414.205978378886357, 2893638.5165612003766 ], [ -504118.734287150320597, 2893416.813938424456865 ], [ -504085.289836727548391, 2893388.385464118793607 ], [ -504058.104766963748261, 2893344.693821603897959 ], [ -503986.755587824853137, 2893279.624007313046604 ], [ -503760.0836859815754, 2893129.555741580203176 ], [ -503187.375816151732579, 2892699.973762277979404 ], [ -503593.768136192578822, 2892138.495073479134589 ], [ -503862.557634794036858, 2891779.005129504483193 ], [ -503054.802394898375496, 2891187.517827485222369 ], [ -503398.777524125063792, 2890710.078470835927874 ], [ -503766.252310442388989, 2890205.200791974086314 ], [ -504170.746731472434476, 2889655.927953043952584 ], [ -504694.240798950311728, 2888935.84516072133556 ], [ -505148.859230461297557, 2888357.799306458327919 ], [ -505434.780004829633981, 2888573.12716119363904 ], [ -505505.938964036176912, 2888468.374768482986838 ], [ -505620.09215400472749, 2888320.810758872423321 ], [ -505902.326699826400727, 2887946.598912555724382 ], [ -506144.926931131165475, 2888129.383080568630248 ], [ -506425.030272398260422, 2888340.916033097542822 ], [ -506806.701940537313931, 2888622.10449142428115 ], [ -506615.957665792899206, 2888878.494096682872623 ], [ -506374.503312953398563, 2889211.962789241690189 ], [ -506355.510452573886141, 2889220.626834884751588 ], [ -506218.771637177444063, 2889410.31114415731281 ], [ -506055.255201929132454, 2889630.553771198261529 ], [ -506065.481255277758464, 2889683.068520386237651 ], [ -506080.544936336926185, 2889712.338428016752005 ], [ -506090.616163458907977, 2889753.595671262592077 ], [ -506129.939091050066054, 2890010.766362284775823 ], [ -506163.495177095173858, 2890157.28691936749965 ], [ -506202.128100095782429, 2890290.702599533367902 ], [ -506243.282969790627249, 2890364.709557705558836 ], [ -506299.809035754995421, 2890424.152489444240928 ], [ -506425.967422916553915, 2890518.180317213293165 ], [ -506871.180569878546521, 2890845.886859700549394 ], [ -507208.512751398840919, 2891093.351027853321284 ], [ -507631.787955761072226, 2891401.4182891510427 ], [ -507810.091315312660299, 2891532.090571676846594 ], [ -507658.198809244204313, 2891746.462072568014264 ], [ -507408.803112971363589, 2892077.045546657871455 ], [ -507164.133984468877316, 2892412.490787479560822 ], [ -507000.027611732017249, 2892627.047518661711365 ], [ -506738.73426400788594, 2892980.332954791840166 ], [ -506504.746500127250329, 2893296.355810295790434 ], [ -506245.927916222251952, 2893644.208113187458366 ], [ -506044.482679695822299, 2893921.121560057625175 ], [ -505748.083373194211163, 2894321.190542232245207 ], [ -505692.403928143554367, 2894396.757706184871495 ], [ -505653.982948247226886, 2894433.166053001768887 ], [ -505617.051670390297659, 2894489.931232640054077 ], [ -505563.987689687637612, 2894504.972338004037738 ], [ -505526.960300164762884, 2894509.999819108750671 ], [ -505480.176852271775715, 2894496.284814870916307 ], [ -505414.511946958024055, 2894476.621405388694257 ], [ -505378.925895831780508, 2894476.137169501744211 ], [ -505375.871780465357006, 2894489.397392862476408 ], [ -505380.225372719927691, 2894512.223136703949422 ], [ -505369.450059706578031, 2894559.751877001021057 ], [ -505352.726929361815564, 2894578.709573687985539 ], [ -505318.888664658996277, 2894595.228116319980472 ], [ -505305.649058293434791, 2894595.335780941881239 ], [ -505298.670723208691925, 2894580.180453420151025 ], [ -505290.699093724484555, 2894551.454071809537709 ], [ -505284.560799796599895, 2894538.612417093943805 ], [ -505223.973850191803649, 2894505.845205539371818 ], [ -505129.928739676484838, 2894458.138944852631539 ], [ -505123.790236471337266, 2894445.297430016100407 ], [ -505109.765348484506831, 2894402.611842668615282 ], [ -505064.03520408924669, 2894295.64131762040779 ], [ -505009.319332140614279, 2894159.86758682411164 ], [ -504982.654216829221696, 2894109.464742427691817 ], [ -504975.14632778277155, 2894048.162575867958367 ] ] } },
{ "type": "Feature", "properties": { "route_name": "Delicias_- Alameda", "route_name_short": "- Alameda", "route_type": 3 }, "geometry": { "type": "LineString", "coordinates": [ [ -505833.780979372211732, 2890792.110940711107105 ], [ -505721.570910092093982, 2890940.9405343006365 ], [ -505699.904693225747906, 2890931.406228566076607 ], [ -505618.574641244136728, 2890876.810330345761031 ], [ -505416.490350457257591, 2890724.113052590750158 ], [ -505201.158376517356373, 2890571.529451055917889 ], [ -505112.756090989103541, 2890502.901556863915175 ], [ -505181.198962173773907, 2890406.940073907375336 ], [ -505770.805430617299862, 2890830.012459311168641 ], [ -505799.453713593888097, 2890854.701927861198783 ], [ -505979.102896130643785, 2890609.835871569812298 ], [ -506184.028244630550034, 2890327.549234284088016 ], [ -506224.687071521650068, 2890328.420401638373733 ], [ -506252.889928692951798, 2890372.194361674133688 ], [ -506313.207185344421305, 2890435.302107548341155 ], [ -506442.401900924858637, 2890529.563235552981496 ], [ -506566.963363909744658, 2890617.847640855703503 ], [ -506704.115827889298089, 2890436.072920048609376 ], [ -506918.515052267699502, 2890150.019087911583483 ], [ -507028.977853452786803, 2889997.683591297827661 ], [ -507212.211835918948054, 2889746.348205371759832 ], [ -506944.19758533698041, 2889550.329164028167725 ], [ -507032.099229668034241, 2889426.624149505980313 ], [ -507234.090140252606943, 2889156.483408049214631 ], [ -507344.302665828727186, 2889007.500815688632429 ], [ -507513.62534146674443, 2889136.339791203849018 ], [ -507611.059045625268482, 2889206.802484057843685 ], [ -507703.362084236810915, 2889078.938071168493479 ], [ -507959.150599828572012, 2889275.157413053326309 ], [ -507834.309732565307058, 2889442.131799355149269 ], [ -507745.386344642960466, 2889565.756156139075756 ], [ -507478.898172444314696, 2889363.094661968294531 ], [ -507309.434696909040213, 2889594.120296197477728 ], [ -507154.594803243409842, 2889807.150559537112713 ], [ -507004.580498433439061, 2890010.429861251264811 ], [ -506794.484452089178376, 2890293.4404964055866 ], [ -506561.748757728142664, 2890606.201341812964529 ], [ -506467.620351613732055, 2890532.623821890447289 ], [ -506324.941805268870667, 2890428.330726271029562 ], [ -506275.655194956460036, 2890380.689084250945598 ], [ -506235.992669916828163, 2890327.038902053143829 ], [ -506210.586159512633458, 2890273.358434923924506 ], [ -506094.148854341707192, 2890424.112899533938617 ], [ -505936.54061081178952, 2890647.054444116074592 ], [ -505833.952546483254991, 2890789.874968935735524 ] ] } },
{ "type": "Feature", "properties": { "route_name": "Cocos_- Zaragoza", "route_name_short": "- Zaragoza", "route_type": 3 }, "geometry": { "type": "LineString", "coordinates": [ [ -504370.184670128044672, 2891942.727756892330945 ], [ -504724.93435991066508, 2891458.263245228677988 ], [ -505191.476941098109819, 2890830.557215723209083 ], [ -505498.962464516516775, 2890405.442056450527161 ], [ -505404.829360105562955, 2890331.874441786203533 ], [ -505233.922765085822903, 2890542.554434391669929 ], [ -504939.965682915179059, 2890950.715629798360169 ], [ -504707.118597964639775, 2891265.726922531146556 ], [ -504470.815864216885529, 2891586.095813152380288 ], [ -504295.597474357346073, 2891826.807466871570796 ], [ -504223.03131777769886, 2891923.576821958646178 ], [ -504315.315867768251337, 2891981.253665713593364 ], [ -504210.986376266577281, 2892120.568781191017479 ], [ -504029.533135251025669, 2892363.050646418239921 ], [ -503808.21224897983484, 2892660.951527982950211 ], [ -503569.664834790513851, 2892984.52027496881783 ], [ -503434.180628444184549, 2892879.681608346290886 ], [ -503179.708556883502752, 2892693.764102157671005 ], [ -503038.734546036226675, 2892886.498833897989243 ], [ -502858.324334320845082, 2893129.063922261353582 ], [ -503015.383444690378383, 2893244.544530727434903 ], [ -503240.101951871183701, 2893406.817710462957621 ], [ -503246.912115226848982, 2893424.206834353040904 ], [ -503143.355873875785619, 2893566.954428354743868 ], [ -502979.16736702050548, 2893783.770897350739688 ], [ -502948.010011334670708, 2893818.491954087279737 ], [ -502981.235197335365228, 2893889.630727176554501 ], [ -503106.689464548253454, 2894191.609433648176491 ], [ -502969.759014462004416, 2894251.959772124886513 ], [ -503052.997016669134609, 2894453.998670316301286 ], [ -503183.374479313148186, 2894372.906712192576379 ], [ -503195.997303569340147, 2894394.11500786896795 ], [ -503239.801109307562001, 2894499.801295086275786 ], [ -503248.445724821067415, 2894533.074250915553421 ], [ -503248.584100945969112, 2894557.823748999740928 ], [ -503155.932617262937129, 2894611.444802842102945 ], [ -503171.184834912070073, 2894757.673427738714963 ], [ -503283.352192359510809, 2894741.53277626587078 ], [ -503261.944694752455689, 2894595.956218246836215 ], [ -503252.337960568023846, 2894522.12764192931354 ], [ -503227.452018456184305, 2894461.746452987194061 ], [ -503193.733056628494523, 2894383.821037757210433 ], [ -503187.952065000892617, 2894353.016681206878275 ], [ -502892.937408039928414, 2894537.314791881479323 ], [ -502541.397961224778555, 2894755.518031169660389 ], [ -502517.116097703226842, 2894753.65796383144334 ], [ -502505.831502586486749, 2894741.548837412148714 ], [ -502499.862509393133223, 2894726.473492981866002 ], [ -502528.838406643597409, 2894680.340817989315838 ], [ -502546.256988814566284, 2894638.945184762123972 ], [ -502567.490886858780868, 2894507.884036500472575 ], [ -502592.001038785791025, 2894387.194011346437037 ], [ -502623.530602235463448, 2894321.016251601278782 ], [ -502737.623899487312883, 2894173.453723873477429 ], [ -502988.467241280013695, 2893835.085088954307139 ], [ -503102.995570429367945, 2893681.933441577479243 ], [ -503291.021953215822577, 2893419.715008748695254 ], [ -503156.367519657709636, 2893330.684416234958917 ], [ -502874.187402102397755, 2893121.282885911874473 ], [ -503122.333185185911134, 2892791.697903653606772 ], [ -503181.11750625888817, 2892715.237236700486392 ], [ -503595.685250590904616, 2893016.875697746407241 ], [ -503851.554300542222336, 2892666.522154181264341 ], [ -504136.573286832892336, 2892281.293650197330862 ], [ -504360.615381937241182, 2891974.605375160463154 ], [ -504369.00126590509899, 2891944.886087890248746 ] ] } },
{ "type": "Feature", "properties": { "route_name": "Infonavit_- Serdán", "route_name_short": "- Serdán", "route_type": 3 }, "geometry": { "type": "LineString", "coordinates": [ [ -504639.17398106015753, 2891581.009475928731263 ], [ -504972.240361591451801, 2891113.999295436777174 ], [ -505034.248896136297844, 2891035.53787900460884 ], [ -504827.945008235052228, 2890884.776435615494847 ], [ -504901.445208361372352, 2890789.202719121240079 ], [ -504976.129819571156986, 2890691.470726331695914 ], [ -505044.399712728103623, 2890597.74510610383004 ], [ -505146.45677054754924, 2890674.166934556793422 ], [ -505076.419002117123455, 2890764.383029999677092 ], [ -504903.378658878849819, 2891003.012940034735948 ], [ -504719.708342242054641, 2891247.575018572621047 ], [ -505231.30882232345175, 2891625.294451346155256 ], [ -505374.180592120159417, 2891434.959616718348116 ], [ -505754.473526723915711, 2891719.416686010546982 ], [ -505649.86648566077929, 2891862.08003709372133 ], [ -505296.518117152270861, 2892341.015343017876148 ], [ -505152.724954285076819, 2892530.15197636699304 ], [ -505057.424991247011349, 2892657.785588604398072 ], [ -504828.908478729776107, 2892491.814324683975428 ], [ -504661.141249277396128, 2892369.866640626452863 ], [ -504537.461368366377428, 2892535.808914240449667 ], [ -504304.550157939898781, 2892851.933397801127285 ], [ -504562.801784061593935, 2893041.542889453470707 ], [ -504699.051495196879841, 2893136.334866112098098 ], [ -504527.899316645576619, 2893363.855889698956162 ], [ -504350.063241293886676, 2893612.230232722125947 ], [ -504570.633196357521228, 2893775.340738620609045 ], [ -504329.87345827918034, 2894100.976270780432969 ], [ -504096.309000662178732, 2894412.544807109981775 ], [ -504036.920288448920473, 2894496.826403184328228 ], [ -503916.104285998386331, 2894413.341192698571831 ], [ -503820.153545138193294, 2894337.387073901016265 ], [ -503903.103750435635448, 2894224.549856260418892 ], [ -504145.118384578847326, 2893895.634481645189226 ], [ -504369.306108671473339, 2893600.211921038106084 ], [ -504538.601442310144193, 2893370.299535550177097 ], [ -504435.215772730647586, 2893298.270790372509509 ], [ -504140.745965883252211, 2893076.647698677610606 ], [ -503987.167510491679423, 2893287.527194648515433 ], [ -503816.631728004780598, 2893162.002773970365524 ], [ -503598.651409174315631, 2893004.733486134558916 ], [ -503825.195340466219932, 2892704.984322507400066 ], [ -504130.82789176190272, 2892289.849404151551425 ], [ -504362.725092981476337, 2891973.642574582248926 ], [ -504369.344055790803395, 2891940.414273336995393 ], [ -504638.076228772872128, 2891582.049847457557917 ] ] } },
{ "type": "Feature", "properties": { "route_name": "Infonavit_- Zaragoza - San Fernando", "route_name_short": "- Zaragoza - San Fernando", "route_type": 3 }, "geometry": { "type": "LineString", "coordinates": [ [ -504328.750920763122849, 2892854.913624856155366 ], [ -504647.763424584059976, 2892411.572989128064364 ], [ -504697.521932173985988, 2892413.140037230681628 ], [ -505061.866966617875732, 2892679.492854727432132 ], [ -505291.680514535633847, 2892364.259791356511414 ], [ -505631.682654643431306, 2891900.04424662142992 ], [ -505765.262962515815161, 2891724.743088284507394 ], [ -505372.070678564487025, 2891435.922308519016951 ], [ -505586.856299895094708, 2891144.271569686941803 ], [ -505176.278567800996825, 2890842.886311783455312 ], [ -505405.763028350891545, 2890532.116313484497368 ], [ -505715.283896759850904, 2890107.156971447169781 ], [ -506115.645137266023085, 2889573.335007444489747 ], [ -506228.877168523264118, 2889424.581328748259693 ], [ -506628.88338730041869, 2889718.429480229504406 ], [ -506731.896479063318111, 2889583.513439886737615 ], [ -506765.217144098482095, 2889520.844703492242843 ], [ -506803.616912966826931, 2889445.070669081062078 ], [ -506711.416667418787256, 2889372.767152256797999 ], [ -506664.046515424735844, 2889339.892083080951124 ], [ -506821.417564697912894, 2889120.304330551065505 ], [ -506570.661705752718262, 2888937.995385610498488 ], [ -506785.494498013867997, 2888646.342724754940718 ], [ -507082.233980650897138, 2888242.892909062560648 ], [ -507325.506278400775045, 2888416.761488986667246 ], [ -507228.967806756612845, 2888560.047878930345178 ], [ -507109.530152384075336, 2888471.032794188708067 ], [ -507034.47755927965045, 2888573.233929601032287 ], [ -506678.59570543456357, 2888314.258899787906557 ], [ -506512.439919172669761, 2888542.173309547826648 ], [ -506186.816030569490977, 2888990.642763062845916 ], [ -506044.955220717354678, 2888888.67254278389737 ], [ -506021.67258441937156, 2888886.887060860171914 ], [ -505986.018284130841494, 2888860.537032125052065 ], [ -505969.584285477758385, 2888915.505093981511891 ], [ -505920.48027518123854, 2888918.487109159585088 ], [ -505905.655352820991538, 2888899.357337213587016 ], [ -505869.005076799658127, 2888859.436581161338836 ], [ -505771.649746083538048, 2888787.872501528821886 ], [ -505691.657750466954894, 2888728.886101031210274 ], [ -505681.020625292090699, 2888734.818025710526854 ], [ -505679.649413558538072, 2888752.705789474304765 ], [ -505739.325990212964825, 2888797.764580392278731 ], [ -505618.241907992516644, 2888956.040959303732961 ], [ -505309.899881882825866, 2889378.851558974012733 ], [ -504963.046632111188956, 2889852.688116018660367 ], [ -505472.605955769540742, 2890231.363959439098835 ], [ -505235.775596691062674, 2890544.94559916947037 ], [ -504996.485141651239246, 2890877.455733983311802 ], [ -504750.63392956298776, 2891202.71545024914667 ], [ -504460.336413651122712, 2891603.284935089293867 ], [ -504223.03131777769886, 2891923.576821958646178 ], [ -504314.973090815125033, 2891985.725475520826876 ], [ -504221.29396783199627, 2892105.615595256444067 ], [ -503965.580240602605045, 2892453.732695288024843 ], [ -503763.949039759696461, 2892720.531765597872436 ], [ -503668.324038309743628, 2892852.642290135845542 ], [ -503543.113009079126641, 2892759.835014547687024 ], [ -503438.624753554933704, 2892901.387495716568083 ], [ -503643.710405975813046, 2893054.291046058759093 ], [ -503985.539005126222037, 2893308.768128692638129 ], [ -504145.274545835214667, 2893097.236275425180793 ], [ -504388.01625861832872, 2893276.658119620755315 ], [ -504253.024414607323706, 2893457.474418981000781 ], [ -504020.453315985272638, 2893782.617770683020353 ], [ -503970.787987524294294, 2893846.280253330711275 ], [ -504325.225727306911722, 2894108.491413816809654 ], [ -504582.793117502937093, 2893762.779286939185113 ], [ -504370.901098250411451, 2893605.956914200913161 ], [ -504540.213668124866672, 2893362.551472521852702 ], [ -504713.561509043094702, 2893132.949879806954414 ], [ -504502.068418712471612, 2892984.031571935862303 ], [ -504327.653258671984076, 2892855.953980718739331 ] ] } },
{ "type": "Feature", "properties": { "route_name": "Jiquilpan_2 - Yarda", "route_name_short": "2 - Yarda", "route_type": 3 }, "geometry": { "type": "LineString", "coordinates": [ [ -504025.095836403314024, 2889856.182596082799137 ], [ -504539.571956434869207, 2890223.944495525211096 ], [ -505144.432515861233696, 2890674.011724393349141 ], [ -505073.296928798896261, 2890765.268194410018623 ], [ -504891.090995904989541, 2890632.098503381479532 ], [ -504770.830635633785278, 2890540.789753530640155 ], [ -504426.803163046832196, 2890287.274249315727502 ], [ -504135.692708715796471, 2890073.80936756869778 ], [ -503958.188422591774724, 2889945.517986678518355 ], [ -504179.116055426420644, 2889639.701194270979613 ], [ -503978.766564096091315, 2889490.546241260599345 ], [ -503673.302112519508228, 2889264.758047637529671 ], [ -503208.33772049867548, 2888927.827992489095777 ], [ -502955.787621862255037, 2888742.095827064011246 ], [ -502732.110893012140878, 2889044.342470786068588 ], [ -502621.006461357232183, 2888966.133615426253527 ], [ -502481.797770879580639, 2889162.392426669597626 ], [ -502350.548771660658531, 2889068.028593834489584 ], [ -502200.284211552119814, 2889275.81221029534936 ], [ -502126.191350944107398, 2889219.551246493123472 ], [ -502342.934891938348301, 2888914.52261144015938 ], [ -502665.285410924581811, 2889146.057303444482386 ], [ -502737.000944843050092, 2889046.965201022103429 ], [ -502801.874956046813168, 2888957.470183862838894 ], [ -503012.021128566469997, 2889111.846174771897495 ], [ -503152.790963969076984, 2889214.817845107987523 ], [ -503302.668549567693844, 2889318.488568346016109 ], [ -503550.312068525585346, 2889501.609396630432457 ], [ -503467.526945487130433, 2889612.221166455186903 ], [ -503411.344301558798179, 2889694.507417709566653 ], [ -503547.214874712866731, 2889794.863196993712336 ], [ -503837.32547955121845, 2890008.232617401983589 ], [ -503887.303797119413503, 2890046.918356647249311 ], [ -504024.08367330301553, 2889856.105098638217896 ] ] } },
{ "type": "Feature", "properties": { "route_name": "Laureles_- Prado Bonito - America - Olivos", "route_name_short": "- Prado Bonito - America - Olivos", "route_type": 3 }, "geometry": { "type": "LineString", "coordinates": [ [ -506037.099165774066932, 2886692.922895276453346 ], [ -506018.415666152373888, 2886724.103556170593947 ], [ -505987.224686399684288, 2886772.318815386854112 ], [ -505922.662476759287529, 2886857.336696827784181 ], [ -505723.232629620120861, 2887120.946726803667843 ], [ -505550.504695873591118, 2887355.114931100513786 ], [ -505406.602139011723921, 2887545.384888999164104 ], [ -505301.319192648050375, 2887683.510572887491435 ], [ -504981.308175852173008, 2887447.592149470932782 ], [ -504922.416416771593504, 2887525.173518305178732 ], [ -505090.264220765908249, 2887647.104858668055385 ], [ -505309.109480046085082, 2887807.806474736426026 ], [ -505200.806803810060956, 2887932.206066241953522 ], [ -505126.885179278324358, 2888019.880427381489426 ], [ -505051.523950933478773, 2888113.067215688992292 ], [ -505016.631345711881295, 2888156.500557262916118 ], [ -504977.261559333535843, 2888205.213650656398386 ], [ -505027.489190510939807, 2888254.041765013709664 ], [ -505061.862018673913553, 2888297.157658785581589 ], [ -505115.554085738491267, 2888340.629074560943991 ], [ -505121.168994404375553, 2888373.670679185539484 ], [ -504995.61571268888656, 2888537.231171676889062 ], [ -504817.023271349491552, 2888755.204587243963033 ], [ -504648.387082056025974, 2888976.189681304618716 ], [ -504409.962481994414702, 2889297.53480954002589 ], [ -504443.264857879374176, 2889314.703776805195957 ], [ -504730.60350244725123, 2889524.507369506638497 ], [ -504657.600702936411835, 2889626.869134879671037 ], [ -504886.939063516911119, 2889796.251784062478691 ], [ -505270.336250689579174, 2890080.908673303201795 ], [ -505571.629196536610834, 2890307.556043613702059 ], [ -505386.584617658052593, 2890556.510220942087471 ], [ -505488.641220783465542, 2890632.935206876602024 ], [ -505423.318023590836674, 2890728.010378601029515 ], [ -505229.395927416859195, 2890588.313738832715899 ], [ -505114.866082994267344, 2890501.938782442826778 ], [ -505293.831395844812505, 2890252.516618445515633 ], [ -504969.854425978614017, 2890016.267461285926402 ], [ -504510.08578373643104, 2889678.542388909496367 ], [ -504377.082166328560561, 2889580.643287405371666 ], [ -504530.511303692124784, 2889371.988807632122189 ], [ -504430.20680935611017, 2889299.085096251685172 ], [ -504605.182339055230841, 2889061.717891548760235 ], [ -504809.735618861275725, 2888783.884069298394024 ], [ -504962.632059924537316, 2888608.923663521651179 ], [ -505165.585426908917725, 2888338.838981839362532 ], [ -504996.409929637331516, 2888207.804715377744287 ], [ -505053.276533254189417, 2888130.069410325028002 ], [ -505067.993217933108099, 2888097.460636795032769 ], [ -505191.252328538219444, 2887950.591331877280027 ], [ -505316.024686363176443, 2887810.585258745588362 ], [ -505198.768273765686899, 2887719.51286118850112 ], [ -504932.625681590754539, 2887524.830643694382161 ], [ -505003.438830708968453, 2887424.547005938366055 ], [ -505178.863749414449558, 2887181.586378857027739 ], [ -505390.01533775695134, 2886910.998985954094678 ], [ -505303.519706260180101, 2886843.65068769780919 ], [ -505365.125123646110296, 2886757.280529142357409 ], [ -505645.508262457558885, 2886380.664183251094073 ], [ -505911.591272998251952, 2886576.474370279815048 ], [ -506053.314009123598225, 2886680.6705839689821 ], [ -506039.295407647266984, 2886690.842055036686361 ] ] } },
{ "type": "Feature", "properties": { "route_name": "Libertad_- Independencia", "route_name_short": "- Independencia", "route_type": 3 }, "geometry": { "type": "LineString", "coordinates": [ [ -505554.176962561905384, 2890973.080418813042343 ], [ -505647.548715643701144, 2891043.219279230572283 ], [ -505573.115743158035912, 2891137.594561360310763 ], [ -505719.663482087780721, 2891244.426844191271812 ], [ -506112.860049230977893, 2891533.25845889467746 ], [ -506533.998986128601246, 2891855.743535595946014 ], [ -506773.052271032123826, 2892030.428807791788131 ], [ -506896.839859637897462, 2892115.289924983866513 ], [ -506752.500906513887458, 2892311.125504824798554 ], [ -506475.241889700409956, 2892686.804904896765947 ], [ -506294.406504675163887, 2892933.816701314412057 ], [ -506125.499776790617034, 2893158.128467820119113 ], [ -505877.585213955375366, 2893496.701215756125748 ], [ -505611.859039847622626, 2893855.272575487848371 ], [ -505547.054471894167364, 2893943.634634611662477 ], [ -505868.875314429868013, 2894179.7776471930556 ], [ -506181.423151168739423, 2893755.084098371211439 ], [ -506434.405776245403104, 2893416.904857248533517 ], [ -506703.543122725328431, 2893054.10127217695117 ], [ -506955.621379873831756, 2892714.727621969766915 ], [ -507220.217897746013477, 2892358.322305602952838 ], [ -506838.454938053502701, 2892066.943442506249994 ], [ -506522.130253220442683, 2891837.962901964318007 ], [ -506140.254235411644913, 2891547.732047561556101 ], [ -505854.081584031810053, 2891336.83588174264878 ], [ -505587.199397492222488, 2891139.799648684449494 ], [ -505279.945048309047706, 2890911.561829878948629 ], [ -505105.994547413196415, 2890790.266112258192152 ], [ -504716.052418983541429, 2890498.357515578623861 ], [ -503991.730687999981456, 2889972.825204305816442 ], [ -503949.592594156856649, 2889938.112855491228402 ], [ -503787.894157928880304, 2890161.877809760626405 ], [ -503734.846532045979984, 2890229.784351123031229 ], [ -504047.949644438689575, 2890461.791549088899046 ], [ -503906.367655913811177, 2890648.861350929364562 ], [ -504106.437159429653548, 2890801.374625268857926 ], [ -503997.716449074097909, 2890944.855257204733789 ], [ -503706.262821596581489, 2891347.593875665217638 ], [ -503544.917596994433552, 2891566.883348151110113 ], [ -503855.629097214434296, 2891789.719365367665887 ], [ -504158.490746074938215, 2891370.991772150620818 ], [ -504410.83896124898456, 2891027.109370531514287 ], [ -504665.050579202710651, 2890685.618636315688491 ], [ -504837.33171486610081, 2890443.554265134502202 ], [ -505195.674969263491221, 2890709.428135860711336 ], [ -505554.262728384113871, 2890971.962439038790762 ] ] } },
{ "type": "Feature", "properties": { "route_name": "Morelos_- Cárdenas", "route_name_short": "- Cárdenas", "route_type": 3 }, "geometry": { "type": "LineString", "coordinates": [ [ -505176.192838695831597, 2890844.004283768124878 ], [ -504970.057089292677119, 2890691.005173795390874 ], [ -504669.783365070004947, 2890464.449411891866475 ], [ -504522.015854914556257, 2890665.661131883971393 ], [ -504316.88517670717556, 2890512.753060266375542 ], [ -503804.118141985149123, 2890136.131974699441344 ], [ -503733.748820332810283, 2890230.824809408280998 ], [ -503709.986142761306837, 2890208.764776543714106 ], [ -503624.684208812075667, 2890152.757329138927162 ], [ -503327.07799351925496, 2889930.947494650259614 ], [ -502978.384038452641107, 2889671.50681228004396 ], [ -502931.268041183589958, 2889635.293887666426599 ], [ -503001.887590216472745, 2889537.243911276105791 ], [ -502874.522784085711464, 2889445.417963167186826 ], [ -502758.887603561277501, 2889599.622649120166898 ], [ -502715.72458834387362, 2889658.167493044864386 ], [ -502717.735279252985492, 2889671.814727140590549 ], [ -502673.731390390312299, 2889728.046341328881681 ], [ -502598.545234119868837, 2889672.821790321264416 ], [ -502561.640430221683346, 2889716.102891923859715 ], [ -502544.321710639749654, 2889742.890152449253947 ], [ -502507.569851109874435, 2889717.591447286307812 ], [ -502465.757185729569755, 2889691.906028388999403 ], [ -502372.593129413668066, 2889818.593626795802265 ], [ -502570.420513030490838, 2889960.780540146399289 ], [ -503110.182206978905015, 2890357.395614759065211 ], [ -503664.326176151633263, 2890765.267000959254801 ], [ -504071.130750062642619, 2891062.929705135524273 ], [ -504489.549732272746041, 2891368.249431496951729 ], [ -504685.896175726084039, 2891515.995057595428079 ], [ -504914.023611672921106, 2891196.125063610263169 ], [ -505178.217068493599072, 2890844.159507351927459 ] ] } },
{ "type": "Feature", "properties": { "route_name": "Nuevo_Horizonte", "route_name_short": "Horizonte", "route_type": 3 }, "geometry": { "type": "LineString", "coordinates": [ [ -505841.524989657569677, 2891328.000192787498236 ], [ -505589.052052619983442, 2891142.19091162038967 ], [ -505729.907979231560603, 2890951.701298541855067 ], [ -505518.459388361312449, 2890801.656733037903905 ], [ -505595.688676665187813, 2890697.374134665355086 ], [ -505548.68356853176374, 2890646.537039555609226 ], [ -505505.126406292198226, 2890603.836608301848173 ], [ -505297.460828554816544, 2890457.462656365707517 ], [ -505195.899781299754977, 2890387.825383442919701 ], [ -505291.464192421524785, 2890256.833306967746466 ], [ -505191.513238888466731, 2890179.448385801166296 ], [ -505078.710716527537443, 2890336.10845257062465 ], [ -505180.015383914345875, 2890409.09841796848923 ], [ -505388.60890271642711, 2890556.665462956298143 ], [ -505490.665499029797502, 2890633.090468594338745 ], [ -505416.816514269565232, 2890733.134497644845396 ], [ -505348.13156991021242, 2890818.955395863391459 ], [ -505650.756601981120184, 2891041.216276310849935 ], [ -505576.066275640274398, 2891138.94549156865105 ], [ -505760.112543122377247, 2891274.52041443483904 ], [ -506254.511378544033505, 2891637.474988487083465 ], [ -506531.134535192744806, 2891853.274309437721968 ], [ -506696.038668266730383, 2891972.779698619619012 ], [ -506967.865552158793435, 2892171.356040600221604 ], [ -507188.863804064807482, 2892342.416319371201098 ], [ -507263.16178980411496, 2892408.858179451432079 ], [ -507502.455571506521665, 2892580.208945533726364 ], [ -507605.239854309125803, 2892660.091224235948175 ], [ -507708.736802593339235, 2892770.394893225748092 ], [ -507966.092550431960262, 2893037.619108084123582 ], [ -508068.808773603988811, 2893157.989826066885144 ], [ -508115.667057700455189, 2893236.948539183009416 ], [ -508159.963393296697177, 2893335.954268630128354 ], [ -508249.134787129587494, 2893539.634924947284162 ], [ -508278.868702419917099, 2893510.433801851700991 ], [ -508432.103049376280978, 2893305.172570712864399 ], [ -508460.846894325572066, 2893262.399244430474937 ], [ -508671.971302278223448, 2893415.868597507942468 ], [ -508790.05190454388503, 2893257.386976807378232 ], [ -508894.849479073775001, 2893337.439412326551974 ], [ -509013.192151020863093, 2893175.604528945870697 ], [ -508803.076371007715352, 2893022.207700920291245 ], [ -508593.128478192491457, 2892866.579713021405041 ], [ -508798.695171580999158, 2892589.994200053159148 ], [ -508884.330119639518671, 2892469.500329428818077 ], [ -508791.991615434293635, 2892399.40777173358947 ], [ -508555.224894067854621, 2892724.202212933450937 ], [ -508384.653442005976103, 2892956.24696046859026 ], [ -508567.210914250114001, 2893097.390752400737256 ], [ -508451.243360085529275, 2893254.911741487216204 ], [ -508269.523617420927621, 2893499.592302389442921 ], [ -508243.642417951021343, 2893491.97627014387399 ], [ -508191.702983535709791, 2893373.262133526615798 ], [ -508128.155333854374476, 2893233.411225641146302 ], [ -508095.100267971749417, 2893173.509381310082972 ], [ -508064.629934067954309, 2893132.925801535602659 ], [ -508003.172343054320663, 2893058.467210028786212 ], [ -507924.099938775412738, 2892974.781105178873986 ], [ -507711.706984398653731, 2892758.252355285920203 ], [ -507613.938123030937277, 2892652.887849637772888 ], [ -507550.841555265593342, 2892599.675294727087021 ], [ -507474.673973582102917, 2892544.333349764812738 ], [ -507234.042743157362565, 2892363.883688849397004 ], [ -507185.417273750412278, 2892334.279009899124503 ], [ -507095.183481050655246, 2892263.239062449429184 ], [ -506917.319803896243684, 2892126.985332191921771 ], [ -506653.072560837492347, 2891935.740610588341951 ], [ -506473.176720191724598, 2891799.340260762255639 ], [ -506329.933580972137861, 2891689.374847067520022 ], [ -506067.952764995861799, 2891494.948875296395272 ], [ -505841.524989657569677, 2891328.000192787498236 ] ] } },
{ "type": "Feature", "properties": { "route_name": "Praderas_de Villa", "route_name_short": "de Villa", "route_type": 3 }, "geometry": { "type": "LineString", "coordinates": [ [ -506687.321622513234615, 2887536.714977262541652 ], [ -506939.108320105588064, 2887188.286578256171197 ], [ -506851.77784697979223, 2887118.611396994907409 ], [ -506839.114022250752896, 2887124.387683081906289 ], [ -506730.258927856339142, 2887268.983099145814776 ], [ -506825.687784413341433, 2887339.278826458379626 ], [ -506783.42602716688998, 2887399.014308591373265 ], [ -506518.811227645957842, 2887755.455420129932463 ], [ -506311.255543471197598, 2888031.928762590512633 ], [ -506215.415866840281524, 2888166.275811003055423 ], [ -506111.980443688342348, 2888094.244592836592346 ], [ -505832.296273864805698, 2887877.131633606739342 ], [ -505623.322008533636108, 2887720.548625095747411 ], [ -505418.741486068000086, 2887998.380641445051879 ], [ -505310.337015005527064, 2888137.39046015124768 ], [ -505132.234105249168351, 2888362.148425966501236 ], [ -504943.484309356892481, 2888606.332459990400821 ], [ -504841.021034207660705, 2888721.057809066493064 ], [ -504707.617000071215443, 2888894.137779566925019 ], [ -504569.225106150726788, 2889079.205467740539461 ], [ -504476.119544463581406, 2889204.768281298689544 ], [ -504571.021273742779158, 2889281.75639875838533 ], [ -504718.783325058175251, 2889386.409810127690434 ], [ -504793.126873863162473, 2889439.335174154955894 ], [ -504657.600702936411835, 2889626.869134879671037 ], [ -504959.169238841161132, 2889850.141897696536034 ], [ -505370.545163521775976, 2890154.940156887285411 ], [ -505472.777422936283983, 2890229.128001452423632 ], [ -505395.719916793052107, 2890331.175894338171929 ], [ -505300.240092695108615, 2890461.049416521098465 ], [ -505194.887630420504138, 2890387.747781608253717 ], [ -505293.917114879586734, 2890251.398643241729587 ], [ -505136.562222595908679, 2890139.25042209867388 ], [ -504931.33810011902824, 2889987.451264130882919 ], [ -504482.444903042400256, 2889653.934852154459804 ], [ -504379.106553010991774, 2889580.798323608469218 ], [ -504589.568475640146062, 2889292.173093923833221 ], [ -504490.874847635393962, 2889211.520834018941969 ], [ -504596.399471812881529, 2889070.041407596319914 ], [ -504812.017034648917615, 2888780.685232413932681 ], [ -504920.140588000649586, 2888658.521788034122437 ], [ -505016.118426045170054, 2888535.428076452575624 ], [ -505155.275647764327005, 2888353.79269490018487 ], [ -505298.314016672899015, 2888174.703722058329731 ], [ -505526.034297537524253, 2887873.904758048709482 ], [ -505623.976163412444293, 2887738.591527934651822 ], [ -505907.131413394818082, 2887950.340866481885314 ], [ -506019.406735578901134, 2888039.915725706610829 ], [ -506103.195907093700953, 2888102.56762735452503 ], [ -505980.234522370505147, 2888271.946416319347918 ], [ -506080.288529282668605, 2888348.215958217158914 ], [ -506284.027684498229064, 2888081.571243330836296 ], [ -506482.042228548321873, 2887809.989180711563677 ], [ -506688.33403249992989, 2887536.792624113615602 ] ] } },
{ "type": "Feature", "properties": { "route_name": "Romanillo_- Mar de Cortez - H.General", "route_name_short": "- Mar de Cortez - H.General", "route_type": 3 }, "geometry": { "type": "LineString", "coordinates": [ [ -504379.277788967243396, 2889578.562409985344857 ], [ -504531.6947649018839, 2889369.830411883071065 ], [ -504428.096763639478013, 2889300.048024319112301 ], [ -504580.515768897836097, 2889091.3153360853903 ], [ -504778.309647660003975, 2888821.959992981515825 ], [ -504890.154512906912714, 2888691.085340454708785 ], [ -504539.491487432853319, 2888430.331712075509131 ], [ -504709.824909086339176, 2888200.477448898833245 ], [ -504769.398824607604183, 2888113.952748874202371 ], [ -504671.021283656940795, 2888042.322951100766659 ], [ -504509.969892941531725, 2888270.639660968445241 ], [ -504501.443584889988415, 2888275.609502832405269 ], [ -504442.299988786107861, 2888356.544806219171733 ], [ -504322.594890088541433, 2888270.915257344488055 ], [ -504044.499070115154609, 2888059.592784464824945 ], [ -503853.470395235461183, 2887921.284180215094239 ], [ -503716.063573597930372, 2887814.068398551549762 ], [ -503543.554953812155873, 2888046.0123456036672 ], [ -503462.53486497735139, 2888160.135613018646836 ], [ -503597.742220220272429, 2888269.430345331318676 ], [ -503679.352876763907261, 2888320.652056630700827 ], [ -503751.253909239429049, 2888379.003133791033179 ], [ -503803.692837751004845, 2888412.251580539625138 ], [ -503905.690111683099531, 2888489.773926106281579 ], [ -504273.46458742453251, 2888766.435574158560485 ], [ -504295.30626574344933, 2888773.730146918445826 ], [ -504506.032943547470495, 2888933.801676504313946 ], [ -504568.55539340490941, 2888848.628029020037502 ], [ -504685.387403557309881, 2888931.793532048817724 ], [ -504573.35967238759622, 2889078.397588802035898 ], [ -504410.803475910448469, 2889299.848238768056035 ], [ -504444.105844428879209, 2889317.017210409976542 ], [ -504555.287582197226584, 2889394.127772765234113 ], [ -504730.60350244725123, 2889524.507369506638497 ], [ -504655.576309549156576, 2889626.714053026866168 ], [ -504860.809286637231708, 2889778.506077022757381 ], [ -505166.163324493332766, 2890005.449978201184422 ], [ -505367.680087463581003, 2890152.471374495886266 ], [ -505474.887496986892074, 2890228.165261521935463 ], [ -505301.166513695381582, 2890462.24500348046422 ], [ -505197.838367644231766, 2890389.098560366779566 ], [ -505292.64779400639236, 2890254.674962715245783 ], [ -505065.175262062810361, 2890087.672112873755395 ], [ -504805.92342854954768, 2889896.874177790712565 ], [ -504564.284897709731013, 2889715.305097758769989 ], [ -504379.277788967243396, 2889578.562409985344857 ] ] } },
{ "type": "Feature", "properties": { "route_name": "Tabachines_- Independencia", "route_name_short": "- Independencia", "route_type": 3 }, "geometry": { "type": "LineString", "coordinates": [ [ -505175.266452841344289, 2890842.808700134046376 ], [ -504578.171101235086098, 2890397.829434189479798 ], [ -503956.249707885086536, 2889944.245050373021513 ], [ -504096.737471441039816, 2889758.213651459664106 ], [ -504179.030452493345365, 2889640.819146800320596 ], [ -503832.272505912929773, 2889382.626181112602353 ], [ -503613.791284557781182, 2889696.505420910660177 ], [ -503753.453084184438922, 2889800.527498140931129 ], [ -503429.654710961156525, 2890240.158268709201366 ], [ -503262.56593530299142, 2890468.009992329403758 ], [ -503145.919178445939906, 2890382.61950189480558 ], [ -503041.757857410004362, 2890533.200413745827973 ], [ -502799.610994260176085, 2890358.374853995162994 ], [ -502730.690883605391718, 2890447.558098705485463 ], [ -502702.724134748568758, 2890493.77083027921617 ], [ -502678.149754157755524, 2890522.251659597735852 ], [ -502695.754609943367541, 2890544.96293432218954 ], [ -502886.652705205488019, 2890684.38151439698413 ], [ -503107.210212266654707, 2890848.563640475273132 ], [ -503229.361688178731129, 2890675.746503359172493 ], [ -503347.772214054013602, 2890764.647491909563541 ], [ -503035.986857211915776, 2891193.949135416653007 ], [ -503291.510213928529993, 2891379.931146730668843 ], [ -503852.593072287971154, 2891789.486768459435552 ], [ -504190.340248310822062, 2891327.32710618712008 ], [ -504520.336258860188536, 2890873.569242169614881 ], [ -504697.074112051399425, 2890639.718200823757797 ], [ -505106.738611131906509, 2890939.887468805070966 ], [ -505176.278567800996825, 2890842.886311783455312 ] ] } },
{ "type": "Feature", "properties": { "route_name": "Tabachines_- Zaragoza", "route_name_short": "- Zaragoza", "route_type": 3 }, "geometry": { "type": "LineString", "coordinates": [ [ -505042.204032579553314, 2890599.825854593887925 ], [ -505144.603957039420493, 2890671.77578132878989 ], [ -504992.265281490050256, 2890879.38127657212317 ], [ -504632.266299064620398, 2891365.694686668459326 ], [ -504390.049419636023231, 2891696.855446006637067 ], [ -504163.809550274978392, 2892005.625685086939484 ], [ -503973.285286595695652, 2891861.706328545231372 ], [ -503444.14967193827033, 2891473.705482416320592 ], [ -503054.631276075029746, 2891189.753681446425617 ], [ -503359.745979410014115, 2890767.81297393143177 ], [ -503230.373767691664398, 2890675.823959334287792 ], [ -503109.31989083555527, 2890847.600613529793918 ], [ -502939.750602603307925, 2890722.178013041149825 ], [ -502692.974900428554974, 2890541.376940700691193 ], [ -502679.332841197843663, 2890520.093228972051293 ], [ -502713.785512295784429, 2890482.247810791246593 ], [ -502737.019914238713682, 2890444.668805053923279 ], [ -502800.623087791493163, 2890358.452268617693335 ], [ -503043.610956810996868, 2890535.59114460228011 ], [ -503146.931278704316355, 2890382.696944081690162 ], [ -503261.55383880995214, 2890467.932539017871022 ], [ -503550.70089948142413, 2890081.874182655941695 ], [ -503755.562977743451484, 2889799.564504783134907 ], [ -503615.060119580826722, 2889693.229060624260455 ], [ -503747.616311399964616, 2889504.339166124816984 ], [ -503822.135983150685206, 2889395.344292442314327 ], [ -504121.023594821686856, 2889613.887518916279078 ], [ -504154.466215396882035, 2889655.805853993631899 ], [ -504015.658975034602918, 2889846.464034675620496 ], [ -504080.049878936843015, 2889896.374489580281079 ], [ -504486.387683370499872, 2890187.258760009892285 ], [ -505043.130453683203086, 2890601.021419319324195 ] ] } },
{ "type": "Feature", "properties": { "route_name": "Romanillo_- Mar de Cortez - Maquiladora", "route_name_short": "- Mar de Cortez - Maquiladora", "route_type": 3 }, "geometry": { "type": "LineString", "coordinates": [ [ -503607.058065621764399, 2887734.889764649793506 ], [ -503834.574277792242356, 2887422.815163178369403 ], [ -503872.003805094165727, 2887452.665457722730935 ], [ -503704.736329952836968, 2887669.26818428048864 ], [ -503640.86483739153482, 2887758.84016754059121 ], [ -503969.88744511466939, 2888010.028991463594139 ], [ -504037.584020902984776, 2888056.814703562762588 ], [ -504358.423904431518167, 2888295.02331767603755 ], [ -504445.16569531627465, 2888359.013203855603933 ], [ -504493.501663333503529, 2888286.246646989602596 ], [ -504508.87200980167836, 2888271.680126457475126 ], [ -504611.448083790717646, 2888128.847981561440974 ], [ -504695.153863490442745, 2888192.607023921795189 ], [ -504531.906743731233291, 2888423.003929849714041 ], [ -504812.270200342522003, 2888631.142788958735764 ], [ -504876.667700549238361, 2888681.056100247427821 ], [ -504783.65834153292235, 2888792.007495335768908 ], [ -504705.421244963887148, 2888896.218655504751951 ], [ -504411.901303176884539, 2889298.807794610504061 ], [ -504437.534019603510387, 2889309.766845490783453 ], [ -504727.652528891689144, 2889523.15677324635908 ], [ -504655.576309549156576, 2889626.714053026866168 ], [ -504921.664443507324904, 2889821.403466155286878 ], [ -505371.38589209143538, 2890157.253720507957041 ], [ -505470.667349290335551, 2890230.090741616673768 ], [ -505300.068639244418591, 2890463.285366665106267 ], [ -505195.814066002494656, 2890388.943356413394213 ], [ -505292.733513012994081, 2890253.556987539399415 ], [ -505045.960149015532807, 2890072.704802355729043 ], [ -504581.733514520106837, 2889726.762405974324793 ], [ -504379.106553010991774, 2889580.798323608469218 ], [ -504533.719192104530521, 2889369.985461651813239 ], [ -504429.108980081276968, 2889300.12553936149925 ], [ -504695.253050366416574, 2888935.922687402926385 ], [ -504568.726611954509281, 2888846.392105595674366 ], [ -504506.118550390936434, 2888932.683716215658933 ], [ -504297.330773948924616, 2888773.88513019727543 ], [ -504273.550168706453405, 2888765.317618549801409 ], [ -504065.684280283399858, 2888607.719879537820816 ], [ -503667.718675536685623, 2888313.015213636681437 ], [ -503587.291230515926145, 2888259.635143778286874 ], [ -503462.620356379891746, 2888159.017673697322607 ], [ -503584.699803204624914, 2887987.312525268178433 ], [ -503514.392662364873104, 2887934.707815650850534 ], [ -503639.767027706489898, 2887759.880695755127817 ], [ -503607.143554927082732, 2887733.771821760572493 ] ] } },
{ "type": "Feature", "properties": { "route_name": "Teresita_- Zaragoza", "route_name_short": "- Zaragoza", "route_type": 3 }, "geometry": { "type": "LineString", "coordinates": [ [ -505034.248896136297844, 2891035.53787900460884 ], [ -504828.957111270050518, 2890884.85402126563713 ], [ -505040.179771511466242, 2890599.670664370525628 ], [ -505143.420388545608148, 2890673.934119433164597 ], [ -505021.168055606540293, 2890834.366574523039162 ], [ -504748.181252765585668, 2891208.15008805738762 ], [ -504510.350687346770428, 2891535.149059135001153 ], [ -504281.996609640889801, 2891844.881844554562122 ], [ -504224.129009240423329, 2891922.536435757763684 ], [ -504314.046780514065176, 2891984.529950053431094 ], [ -504190.799693023669533, 2892144.885406658053398 ], [ -503896.482603069394827, 2892545.144942957442254 ], [ -503931.456256952835247, 2892566.941996718756855 ], [ -503957.579331071465276, 2892584.68730235286057 ], [ -504382.573481747880578, 2892909.644591631833464 ], [ -504770.828741801902652, 2893195.819575766567141 ], [ -505151.746193427941762, 2893471.32828357629478 ], [ -505216.454552056151442, 2893516.779611823614687 ], [ -505349.868358162231743, 2893330.223756996914744 ], [ -505457.331598902586848, 2893190.031742446124554 ], [ -505651.870620186906308, 2893334.294781623408198 ], [ -505459.994350653258152, 2893592.830697845667601 ], [ -505423.235220135888085, 2893647.360924520995468 ], [ -505328.035437714890577, 2893574.826582916080952 ], [ -505303.356706767110154, 2893551.565175426658243 ], [ -505225.990843222476542, 2893511.888899938669056 ], [ -505193.885195333510637, 2893492.55590027756989 ], [ -504950.399042692966759, 2893309.682945067062974 ], [ -504305.493107626563869, 2892839.635935076978058 ], [ -504188.962817070889287, 2892753.109237972646952 ], [ -503991.540868955198675, 2892606.407020491547883 ], [ -503934.422650195658207, 2892554.799731297884136 ], [ -504078.707429770147428, 2892358.948002030141652 ], [ -504311.271857529412955, 2892047.290429460816085 ], [ -504362.982186765293591, 2891970.288714176043868 ], [ -504371.710864714463241, 2891936.097611104138196 ], [ -504508.407745061558671, 2891746.411083091981709 ], [ -504741.658023871132173, 2891439.303815207909793 ], [ -504961.41715600178577, 2891135.660218325443566 ], [ -505035.175268969149329, 2891036.733453254215419 ] ] } }
]
}
